[
{"name": "Aldi", "opening_hours": "07:00-22:00", "address": "ul. Rajska 8", "city": "Gdańsk", "map_link": "/godziny-otwarcia-sklepow/gdansk/gdansk-rajska-8/"},
{"name": "Aldi", "opening_hours": "07:00-22:00", "address": "ul. Zygmunta Noskowskiego 1", "city": "Gdańsk", "map_link": "/godziny-otwarcia-sklepow/gdansk/gdansk-zygmunta-noskowskiego-1,150773/"},
{"name": "Aldi", "opening_hours": "07:00-22:00", "address": "ul. Piecewska 29", "city": "Gdańsk", "map_link": "/godziny-otwarcia-sklepow/gdansk/gdansk-piecewska-29/"},
{"name": "Aldi", "opening_hours": "07:00-22:00", "address": "ul. Limbowa 1", "city": "Gdańsk", "map_link": "/godziny-otwarcia-sklepow/gdansk/gdansk-limbowa-1/"},
{"name": "Aldi", "opening_hours": "07:00-22:00", "address": "ul. Władysława Czermińskiego 4", "city": "Gdańsk", "map_link": "/godziny-otwarcia-sklepow/gdansk/gdansk-wladyslawa-czerminskiego-4,177000/"},
{"name": "Aldi", "opening_hours": "06:00-22:00", "address": "ul. Kartuska 478", "city": "Gdańsk", "map_link": "/godziny-otwarcia-sklepow/gdansk/gdansk-kartuska-478/"},
{"name": "Aldi", "opening_hours": "06:00-22:00", "address": "ul. Gen. Władysława Sikorskiego 8", "city": "Sopot", "map_link": "/godziny-otwarcia-sklepow/sopot/sopot-gen-wladyslawa-sikorskiego-8,164868/"},
{"name": "Aldi", "opening_hours": "06:00-22:00", "address": "ul. Raatza 2", "city": "Gdańsk", "map_link": "/godziny-otwarcia-sklepow/gdansk/gdansk-ratza-2,165508/"}
]