[
{"name": "Lidl", "opening_hours": "06:00-22:00", "address": "ul. Zawodników 4", "city": "Gdańsk", "map_link": "/godziny-otwarcia-sklepow/gdansk/gdansk-zawodnikow-4/"},
{"name": "Lidl", "opening_hours": "06:00-22:00", "address": "ul. Sandomierska 11", "city": "Gdańsk", "map_link": "/godziny-otwarcia-sklepow/gdansk/gdansk-sandomierska-1,58534/"},
{"name": "Lidl", "opening_hours": "06:00-23:00", "address": "ul. Kartuska 455", "city": "Gdańsk", "map_link": "/godziny-otwarcia-sklepow/gdansk/gdansk-kartuska-45,106703/"},
{"name": "Lidl", "opening_hours": "06:00-22:00", "address": "ul. Marcina Dragana 27", "city": "Gdańsk", "map_link": "/godziny-otwarcia-sklepow/gdansk/gdansk-marcina-dragana-27,105648/"},
{"name": "Lidl", "opening_hours": "06:00-22:00", "address": "ul. Marynarki Polskiej 97", "city": "Gdańsk", "map_link": "/godziny-otwarcia-sklepow/gdansk/gdansk-marynarki-polskiej-97,58511/"},
{"name": "Lidl", "opening_hours": "06:00-23:00", "address": "ul. Kartuska 224", "city": "Gdańsk", "map_link": "/godziny-otwarcia-sklepow/gdansk/gdansk-kartuska-24,115454/"},
{"name": "Lidl", "opening_hours": "06:00-22:00", "address": "ul. Platynowa 3", "city": "Gdańsk", "map_link": "/godziny-otwarcia-sklepow/gdansk/gdansk-platynowa-3/"},
{"name": "Lidl", "opening_hours": "06:00-22:00", "address": "ul. Jana Uphagena 32", "city": "Gdańsk", "map_link": "/godziny-otwarcia-sklepow/gdansk/gdansk-jana-uphagena-32/"},
{"name": "Lidl", "opening_hours": "06:00-22:00", "address": "ul. Warszawska 21", "city": "Gdańsk", "map_link": "/godziny-otwarcia-sklepow/gdansk/gdansk-warszawska-21/"},
{"name": "Lidl", "opening_hours": "06:00-22:00", "address": "ul. Nowotna 20", "city": "Gdańsk", "map_link": "/godziny-otwarcia-sklepow/gdansk/gdansk-nowotna-20,134799/"},
{"name": "Lidl", "opening_hours": "06:00-22:00", "address": "ul. Franciszka Rakoczego 21", "city": "Gdańsk", "map_link": "/godziny-otwarcia-sklepow/gdansk/gdansk-franciszka-rakoczego-21/"},
{"name": "Lidl", "opening_hours": "06:00-22:00", "address": "ul. Bolesława Chrobrego 75", "city": "Gdańsk", "map_link": "/godziny-otwarcia-sklepow/gdansk/gdansk-boleslawa-chrobrego-75,67704/"},
{"name": "Lidl", "opening_hours": "06:00-22:00", "address": "al. Grunwaldzka 161", "city": "Gdańsk", "map_link": "/godziny-otwarcia-sklepow/gdansk/gdansk-grunwaldzka-161,58429/"},
{"name": "Lidl", "opening_hours": "06:00-22:00", "address": "ul. Gdańska 21 C", "city": "Gdańsk", "map_link": "/godziny-otwarcia-sklepow/gdansk/gdansk-gdanska-21-c/"},
{"name": "Lidl", "opening_hours": "06:00-23:00", "address": "ul. Franciszka Hynka 69", "city": "Gdańsk", "map_link": "/godziny-otwarcia-sklepow/gdansk/gdansk-franciszka-hynka-69/"},
{"name": "Lidl", "opening_hours": "06:00-22:00", "address": "ul. Czerska 71", "city": "Gdańsk", "map_link": "/godziny-otwarcia-sklepow/gdansk/gdansk-czerska-71/"},
{"name": "Lidl", "opening_hours": "06:00-22:00", "address": "ul. Staropolska 36", "city": "Kowale", "map_link": "/godziny-otwarcia-sklepow/kowale__109750/kowale-staropolska-36/"},
{"name": "Lidl", "opening_hours": "06:00-22:00", "address": "ul. Przywidzka 9", "city": "Gdańsk", "map_link": "/godziny-otwarcia-sklepow/gdansk/gdansk-przywidzka-9,125159/"},
{"name": "Lidl", "opening_hours": "06:00-23:00", "address": "ul. Kołobrzeska 28C", "city": "Gdańsk", "map_link": "/godziny-otwarcia-sklepow/gdansk/gdansk-kolobrzeska-28c/"},
{"name": "Lidl", "opening_hours": "06:00-22:00", "address": "al. Grunwaldzka 507 /  9", "city": "Gdańsk", "map_link": "/godziny-otwarcia-sklepow/gdansk/gdansk-grunwaldzka-507-9/"},
{"name": "Lidl", "opening_hours": "06:00-22:00", "address": "ul. Bajki 1/3", "city": "Rotmanka", "map_link": "/godziny-otwarcia-sklepow/rotmanka/rotmanka-bajki-1-3,100705/"},
{"name": "Lidl", "opening_hours": "06:00-22:00", "address": "ul. Złota Karczma 21", "city": "Gdańsk", "map_link": "/godziny-otwarcia-sklepow/gdansk/gdansk-zlota-karczma-21,58759/"},
{"name": "Lidl", "opening_hours": "06:00-22:00", "address": "ul. Azaliowa 2", "city": "Pruszcz Gdański", "map_link": "/godziny-otwarcia-sklepow/pruszcz-gdanski/pruszcz-gdanski-azaliowa-2,61456/"},
{"name": "Lidl", "opening_hours": "06:00-22:00", "address": "ul. Starogardzka 31", "city": "Straszyn", "map_link": "/godziny-otwarcia-sklepow/straszyn/straszyn-starogardzka-31/"},
{"name": "Lidl", "opening_hours": "06:00-22:00", "address": "al. Niepodległości 697", "city": "Sopot", "map_link": "/godziny-otwarcia-sklepow/sopot/sopot-niepodleglosci-697,58782/"},
{"name": "Lidl", "opening_hours": "06:00-22:00", "address": "al. Niepodległości 938", "city": "Sopot", "map_link": "/godziny-otwarcia-sklepow/sopot/sopot-niepodleglosci-938,134793/"},
{"name": "Lidl", "opening_hours": "06:00-22:00", "address": "ul. Wodnika 38", "city": "Gdańsk", "map_link": "/godziny-otwarcia-sklepow/gdansk/gdansk-wodnika-38,59468/"},
{"name": "Lidl", "opening_hours": "06:00-22:00", "address": "ul. Lotnicza 44", "city": "Banino", "map_link": "/godziny-otwarcia-sklepow/banino/banino-lotnicza-4,106705/"},
{"name": "Lidl", "opening_hours": "06:00-22:00", "address": "ul. Gryfa Pomorskiego 3", "city": "Gdynia", "map_link": "/godziny-otwarcia-sklepow/gdynia/gdynia-gryfa-pomorskiego-3/"},
{"name": "Lidl", "opening_hours": "06:00-22:00", "address": "ul. Małokacka 31", "city": "Gdynia", "map_link": "/godziny-otwarcia-sklepow/gdynia/gdynia-malokacka-31/"},
{"name": "Lidl", "opening_hours": "06:00-22:00", "address": "ul. Oliwska 122", "city": "Chwaszczyno", "map_link": "/godziny-otwarcia-sklepow/chwaszczyno/chwaszczyno-oliwska-12/"},
{"name": "Lidl", "opening_hours": "06:00-22:00", "address": "ul. Gdańska 59B", "city": "Żukowo", "map_link": "/godziny-otwarcia-sklepow/zukowo__23570/zukowo-gdanska-59b/"},
{"name": "Lidl", "opening_hours": "06:00-22:00", "address": "ul. Świętojańska 45/1", "city": "Gdynia", "map_link": "/godziny-otwarcia-sklepow/gdynia/gdynia-swietojanska-45-1,113093/"}
]