[
{"name": "Stokrotka", "opening_hours": "06:30-22:00", "address": "ul. Piotrkowska 25", "city": "Gdańsk", "map_link": "/godziny-otwarcia-sklepow/gdansk/gdansk-piotrkowska-25,37851/"},
{"name": "Stokrotka", "opening_hours": "06:30-22:00", "address": "ul. Niepołomicka 32", "city": "Gdańsk", "map_link": "/godziny-otwarcia-sklepow/gdansk/gdansk-niepolomicka-32,106024/"},
{"name": "Stokrotka", "opening_hours": "06:30-22:00", "address": "ul. Pólnicy 9", "city": "Gdańsk", "map_link": "/godziny-otwarcia-sklepow/gdansk/gdansk-polnicy-9,114104/"},
{"name": "Stokrotka", "opening_hours": "06:30-22:00", "address": "al. Jana Pawła II 9-", "city": "Gdańsk", "map_link": "/godziny-otwarcia-sklepow/gdansk/gdansk-jana-pawla-i-9,179014/"},
{"name": "Stokrotka", "opening_hours": "07:00-22:00", "address": "ul. Klasyczna 2", "city": "Borkowo", "map_link": "/godziny-otwarcia-sklepow/borkowo/borkowo-klasyczna-2,37852/"},
{"name": "Stokrotka", "opening_hours": "06:30-22:00", "address": "ul. Jagiellońska 34", "city": "Gdańsk", "map_link": "/godziny-otwarcia-sklepow/gdansk/gdansk-jagielonska-34,170751/"},
{"name": "Stokrotka", "opening_hours": "07:00-22:00", "address": "ul. Adama Mickiewicza 1", "city": "Pruszcz Gdański", "map_link": "/godziny-otwarcia-sklepow/pruszcz-gdanski/pruszcz-gdanski-adama-mickiewicza-1/"},
{"name": "Stokrotka", "opening_hours": "06:00-22:00", "address": "ul. Długa 103", "city": "Cieplewo", "map_link": "/godziny-otwarcia-sklepow/cieplewo/cieplewo-dluga-103,184102/"},
{"name": "Stokrotka", "opening_hours": "06:30-22:00", "address": "ul. Korzenna 17", "city": "Gdynia", "map_link": "/godziny-otwarcia-sklepow/gdynia/gdynia-korzena-17,14919/"},
{"name": "Stokrotka", "opening_hours": "07:00-22:00", "address": "ul. Nowowiczlińska 115", "city": "Gdynia", "map_link": "/godziny-otwarcia-sklepow/gdynia/gdynia-nowowiczlinska-15,37854/"}
]