[
{"business": "Intermarche Super", "opening_hours": "07:00-21:00", "address": "al. Rzeczypospolitej 33", "city": "Gdańsk", "map_link": "/godziny-otwarcia-sklepow/gdansk/gdansk-rzeczypospolitej-3/"},
{"business": "Intermarche Super", "opening_hours": "07:00-21:00", "address": "al. Grunwaldzka 615", "city": "Gdańsk", "map_link": "/godziny-otwarcia-sklepow/gdansk/gdansk-grunwaldzka-615/"},
{"business": "Castorama", "opening_hours": "07:00-21:00", "address": "al. Grunwaldzka 262", "city": "Gdańsk", "map_link": "/godziny-otwarcia-sklepow/gdansk/gdansk-grunwaldzka-262/"},
{"business": "Castorama", "opening_hours": "08:00-21:00", "address": "ul. Odyseusza 2", "city": "Gdańsk", "map_link": "/godziny-otwarcia-sklepow/gdansk/gdansk-odyseusza-2,4619/"},
{"business": "polomarket", "opening_hours": "06:30-21:00", "address": "ul. Spacerowa 65", "city": "Gdańsk", "map_link": "/godziny-otwarcia-sklepow/gdansk/gdansk-spacerowa-65/"},
{"business": "polomarket", "opening_hours": "06:30-21:30", "address": "ul. Wita Stwosza 10A", "city": "Pruszcz Gdański", "map_link": "/godziny-otwarcia-sklepow/pruszcz-gdanski/pruszcz-gdanski-wita-stwosza-10a,174808/"},
{"business": "polomarket", "opening_hours": "06:30-21:30", "address": "ul. Junony 98", "city": "Gdańsk", "map_link": "/godziny-otwarcia-sklepow/gdansk/gdansk-junony-98/"},
{"business": "Carrefour", "opening_hours": "06:00-23:00", "address": "ul. Franciszka Schuberta 102 A", "city": "Gdańsk", "map_link": "/godziny-otwarcia-sklepow/gdansk/gdansk-franciszka-schuberta-102-a,101876/"},
{"business": "Carrefour", "opening_hours": "08:00-21:30", "address": "al. Grunwaldzka 141", "city": "Gdańsk", "map_link": "/godziny-otwarcia-sklepow/gdansk/gdansk-grunwaldzka-141,4373/"},
{"business": "Carrefour", "opening_hours": "06:00-22:00", "address": "ul. Przywidzka 6", "city": "Gdańsk", "map_link": "/godziny-otwarcia-sklepow/gdansk/gdansk-przywidzka-6,34413/"},
{"business": "Lidl", "opening_hours": "06:00-22:00", "address": "ul. Zawodników 4", "city": "Gdańsk", "map_link": "/godziny-otwarcia-sklepow/gdansk/gdansk-zawodnikow-4/"},
{"business": "Lidl", "opening_hours": "06:00-22:00", "address": "ul. Sandomierska 11", "city": "Gdańsk", "map_link": "/godziny-otwarcia-sklepow/gdansk/gdansk-sandomierska-1,58534/"},
{"business": "Lidl", "opening_hours": "06:00-23:00", "address": "ul. Kartuska 455", "city": "Gdańsk", "map_link": "/godziny-otwarcia-sklepow/gdansk/gdansk-kartuska-45,106703/"},
{"business": "Lidl", "opening_hours": "06:00-22:00", "address": "ul. Marcina Dragana 27", "city": "Gdańsk", "map_link": "/godziny-otwarcia-sklepow/gdansk/gdansk-marcina-dragana-27,105648/"},
{"business": "Lidl", "opening_hours": "06:00-22:00", "address": "ul. Marynarki Polskiej 97", "city": "Gdańsk", "map_link": "/godziny-otwarcia-sklepow/gdansk/gdansk-marynarki-polskiej-97,58511/"},
{"business": "Lidl", "opening_hours": "06:00-23:00", "address": "ul. Kartuska 224", "city": "Gdańsk", "map_link": "/godziny-otwarcia-sklepow/gdansk/gdansk-kartuska-24,115454/"},
{"business": "Lidl", "opening_hours": "06:00-22:00", "address": "ul. Platynowa 3", "city": "Gdańsk", "map_link": "/godziny-otwarcia-sklepow/gdansk/gdansk-platynowa-3/"},
{"business": "Lidl", "opening_hours": "06:00-22:00", "address": "ul. Jana Uphagena 32", "city": "Gdańsk", "map_link": "/godziny-otwarcia-sklepow/gdansk/gdansk-jana-uphagena-32/"},
{"business": "Lidl", "opening_hours": "06:00-22:00", "address": "ul. Warszawska 21", "city": "Gdańsk", "map_link": "/godziny-otwarcia-sklepow/gdansk/gdansk-warszawska-21/"},
{"business": "Lidl", "opening_hours": "06:00-22:00", "address": "ul. Nowotna 20", "city": "Gdańsk", "map_link": "/godziny-otwarcia-sklepow/gdansk/gdansk-nowotna-20,134799/"},
{"business": "Lidl", "opening_hours": "06:00-22:00", "address": "ul. Franciszka Rakoczego 21", "city": "Gdańsk", "map_link": "/godziny-otwarcia-sklepow/gdansk/gdansk-franciszka-rakoczego-21/"},
{"business": "Lidl", "opening_hours": "06:00-22:00", "address": "ul. Bolesława Chrobrego 75", "city": "Gdańsk", "map_link": "/godziny-otwarcia-sklepow/gdansk/gdansk-boleslawa-chrobrego-75,67704/"},
{"business": "Lidl", "opening_hours": "06:00-22:00", "address": "al. Grunwaldzka 161", "city": "Gdańsk", "map_link": "/godziny-otwarcia-sklepow/gdansk/gdansk-grunwaldzka-161,58429/"},
{"business": "Lidl", "opening_hours": "06:00-22:00", "address": "ul. Gdańska 21 C", "city": "Gdańsk", "map_link": "/godziny-otwarcia-sklepow/gdansk/gdansk-gdanska-21-c/"},
{"business": "Lidl", "opening_hours": "06:00-23:00", "address": "ul. Franciszka Hynka 69", "city": "Gdańsk", "map_link": "/godziny-otwarcia-sklepow/gdansk/gdansk-franciszka-hynka-69/"},
{"business": "Lidl", "opening_hours": "06:00-22:00", "address": "ul. Czerska 71", "city": "Gdańsk", "map_link": "/godziny-otwarcia-sklepow/gdansk/gdansk-czerska-71/"},
{"business": "Lidl", "opening_hours": "06:00-22:00", "address": "ul. Staropolska 36", "city": "Kowale", "map_link": "/godziny-otwarcia-sklepow/kowale__109750/kowale-staropolska-36/"},
{"business": "Lidl", "opening_hours": "06:00-22:00", "address": "ul. Przywidzka 9", "city": "Gdańsk", "map_link": "/godziny-otwarcia-sklepow/gdansk/gdansk-przywidzka-9,125159/"},
{"business": "Lidl", "opening_hours": "06:00-23:00", "address": "ul. Kołobrzeska 28C", "city": "Gdańsk", "map_link": "/godziny-otwarcia-sklepow/gdansk/gdansk-kolobrzeska-28c/"},
{"business": "Lidl", "opening_hours": "06:00-22:00", "address": "al. Grunwaldzka 507 /  9", "city": "Gdańsk", "map_link": "/godziny-otwarcia-sklepow/gdansk/gdansk-grunwaldzka-507-9/"},
{"business": "Lidl", "opening_hours": "06:00-22:00", "address": "ul. Bajki 1/3", "city": "Rotmanka", "map_link": "/godziny-otwarcia-sklepow/rotmanka/rotmanka-bajki-1-3,100705/"},
{"business": "Lidl", "opening_hours": "06:00-22:00", "address": "ul. Złota Karczma 21", "city": "Gdańsk", "map_link": "/godziny-otwarcia-sklepow/gdansk/gdansk-zlota-karczma-21,58759/"},
{"business": "Lidl", "opening_hours": "06:00-22:00", "address": "ul. Azaliowa 2", "city": "Pruszcz Gdański", "map_link": "/godziny-otwarcia-sklepow/pruszcz-gdanski/pruszcz-gdanski-azaliowa-2,61456/"},
{"business": "Lidl", "opening_hours": "06:00-22:00", "address": "ul. Starogardzka 31", "city": "Straszyn", "map_link": "/godziny-otwarcia-sklepow/straszyn/straszyn-starogardzka-31/"},
{"business": "Lidl", "opening_hours": "06:00-22:00", "address": "al. Niepodległości 697", "city": "Sopot", "map_link": "/godziny-otwarcia-sklepow/sopot/sopot-niepodleglosci-697,58782/"},
{"business": "Lidl", "opening_hours": "06:00-22:00", "address": "al. Niepodległości 938", "city": "Sopot", "map_link": "/godziny-otwarcia-sklepow/sopot/sopot-niepodleglosci-938,134793/"},
{"business": "Lidl", "opening_hours": "06:00-22:00", "address": "ul. Wodnika 38", "city": "Gdańsk", "map_link": "/godziny-otwarcia-sklepow/gdansk/gdansk-wodnika-38,59468/"},
{"business": "Lidl", "opening_hours": "06:00-22:00", "address": "ul. Lotnicza 44", "city": "Banino", "map_link": "/godziny-otwarcia-sklepow/banino/banino-lotnicza-4,106705/"},
{"business": "Lidl", "opening_hours": "06:00-22:00", "address": "ul. Gryfa Pomorskiego 3", "city": "Gdynia", "map_link": "/godziny-otwarcia-sklepow/gdynia/gdynia-gryfa-pomorskiego-3/"},
{"business": "Lidl", "opening_hours": "06:00-22:00", "address": "ul. Małokacka 31", "city": "Gdynia", "map_link": "/godziny-otwarcia-sklepow/gdynia/gdynia-malokacka-31/"},
{"business": "Lidl", "opening_hours": "06:00-22:00", "address": "ul. Oliwska 122", "city": "Chwaszczyno", "map_link": "/godziny-otwarcia-sklepow/chwaszczyno/chwaszczyno-oliwska-12/"},
{"business": "Lidl", "opening_hours": "06:00-22:00", "address": "ul. Gdańska 59B", "city": "Żukowo", "map_link": "/godziny-otwarcia-sklepow/zukowo__23570/zukowo-gdanska-59b/"},
{"business": "Lidl", "opening_hours": "06:00-22:00", "address": "ul. Świętojańska 45/1", "city": "Gdynia", "map_link": "/godziny-otwarcia-sklepow/gdynia/gdynia-swietojanska-45-1,113093/"},
{"business": "Dino", "opening_hours": "06:00-22:30", "address": "ul. Słoneczna 2", "city": "Borkowo", "map_link": "/godziny-otwarcia-sklepow/borkowo/borkowo-sloneczna-2,184007/"},
{"business": "Dino", "opening_hours": "06:00-22:30", "address": "ul. Do Raduni 1", "city": "Żukowo", "map_link": "/godziny-otwarcia-sklepow/zukowo__23570/zukowo-do-raduni-1,135555/"},
{"business": "Pepco", "opening_hours": "08:30-20:00", "address": "ul. Rajska 10", "city": "Gdańsk", "map_link": "/godziny-otwarcia-sklepow/gdansk/gdansk-rajska-10,115474/"},
{"business": "Pepco", "opening_hours": "08:30-20:00", "address": "ul. Władysława Cieszyńskiego 1A", "city": "Gdańsk", "map_link": "/godziny-otwarcia-sklepow/gdansk/gdansk-wladyslawa-cieszynskiego-1a,87278/"},
{"business": "Pepco", "opening_hours": "08:30-20:00", "address": "ul. Krzemowa 1", "city": "Gdańsk", "map_link": "/godziny-otwarcia-sklepow/gdansk/gdansk-krzemowa-1,13137/"},
{"business": "Pepco", "opening_hours": "08:30-20:00", "address": "ul. Nieborowska 8", "city": "Gdańsk", "map_link": "/godziny-otwarcia-sklepow/gdansk/gdansk-nieborowska-8/"},
{"business": "Pepco", "opening_hours": "08:30-20:00", "address": "ul. Franciszka Schuberta 102 A", "city": "Gdańsk", "map_link": "/godziny-otwarcia-sklepow/gdansk/gdansk-franciszka-schuberta-102-a,177092/"},
{"business": "Pepco", "opening_hours": "08:30-20:00", "address": "al. Grunwaldzka 82", "city": "Gdańsk", "map_link": "/godziny-otwarcia-sklepow/gdansk/gdansk-grunwaldzka-82,87200/"},
{"business": "Pepco", "opening_hours": "08:30-20:00", "address": "ul. Jana Kilińskiego 4", "city": "Gdańsk", "map_link": "/godziny-otwarcia-sklepow/gdansk/gdansk-jana-kilinskiego-4,87135/"},
{"business": "Pepco", "opening_hours": "08:30-20:00", "address": "ul. Warszawska 59 B", "city": "Gdańsk", "map_link": "/godziny-otwarcia-sklepow/gdansk/gdansk-warszawska-59-b/"},
{"business": "Pepco", "opening_hours": "08:30-20:00", "address": "ul. Józefa Żylewicza 2", "city": "Gdańsk", "map_link": "/godziny-otwarcia-sklepow/gdansk/gdansk-jozefa-zylewicza-2/"},
{"business": "Pepco", "opening_hours": "08:30-20:00", "address": "al. Rzeczypospolitej 33", "city": "Gdańsk", "map_link": "/godziny-otwarcia-sklepow/gdansk/gdansk-rzeczypospolitej-3,34329/"},
{"business": "Pepco", "opening_hours": "08:30-20:00", "address": "ul. Przywidzka 7-9", "city": "Gdańsk", "map_link": "/godziny-otwarcia-sklepow/gdansk/gdansk-przywidzka-7-9,87156/"},
{"business": "Pepco", "opening_hours": "08:30-20:00", "address": "ul. Obrońców Wybrzeża 1", "city": "Gdańsk", "map_link": "/godziny-otwarcia-sklepow/gdansk/gdansk-obroncow-wybrzeza-1,121881/"},
{"business": "Pepco", "opening_hours": "08:30-20:00", "address": "ul. Szczęśliwa 3", "city": "Gdańsk", "map_link": "/godziny-otwarcia-sklepow/gdansk/gdansk-szczesliwa-3,87199/"},
{"business": "Pepco", "opening_hours": "08:30-20:00", "address": "ul. Złota Karczma 26", "city": "Gdańsk", "map_link": "/godziny-otwarcia-sklepow/gdansk/gdansk-zlota-karczma-26,121880/"},
{"business": "Pepco", "opening_hours": "08:30-20:00", "address": "ul. Ignacego Domeyki 3", "city": "Pruszcz Gdański", "map_link": "/godziny-otwarcia-sklepow/pruszcz-gdanski/pruszcz-gdanski-ignacego-domeyki-3,121921/"},
{"business": "Pepco", "opening_hours": "08:30-20:00", "address": "ul. Jana Kasprowicza 52", "city": "Pruszcz Gdański", "map_link": "/godziny-otwarcia-sklepow/pruszcz-gdanski/pruszcz-gdanski-jana-kasprowicza-52,87364/"},
{"business": "Pepco", "opening_hours": "08:30-20:00", "address": "ul. Komandora Kazimierza Kraszewskiego 1", "city": "Straszyn", "map_link": "/godziny-otwarcia-sklepow/straszyn/straszyn-komandora-kazimierza-kraszewskiego-1,101670/"},
{"business": "Pepco", "opening_hours": "08:30-20:00", "address": "ul. Tadeusza Kościuszki 14", "city": "Sopot", "map_link": "/godziny-otwarcia-sklepow/sopot/sopot-tadeusza-kosciuszki-14,121926/"},
{"business": "Pepco", "opening_hours": "08:30-20:00", "address": "ul. Gen. Władysława Sikorskiego 8-10", "city": "Sopot", "map_link": "/godziny-otwarcia-sklepow/sopot/sopot-gen-wladyslawa-sikorskiego-8-10,13143/"},
{"business": "Pepco", "opening_hours": "08:30-20:00", "address": "ul. Spacerowa 48", "city": "Gdańsk", "map_link": "/godziny-otwarcia-sklepow/gdansk/gdansk-spacerowa-48,121879/"},
{"business": "Pepco", "opening_hours": "08:30-20:00", "address": "ul. Wolarza 10", "city": "Gdańsk", "map_link": "/godziny-otwarcia-sklepow/gdansk/gdansk-wolarza-10/"},
{"business": "Pepco", "opening_hours": "08:30-20:00", "address": "ul. Leśna 2", "city": "Kolbudy", "map_link": "/godziny-otwarcia-sklepow/kolbudy/kolbudy-lesna-2,87469/"},
{"business": "Pepco", "opening_hours": "08:30-20:00", "address": "ul. Borowiecka 2", "city": "Banino", "map_link": "/godziny-otwarcia-sklepow/banino/banino-borowiecka-2,121867/"},
{"business": "Pepco", "opening_hours": "08:30-20:00", "address": "ul. Sojowa 18C", "city": "Gdynia", "map_link": "/godziny-otwarcia-sklepow/gdynia/gdynia-sojowa-18c/"},
{"business": "Pepco", "opening_hours": "08:30-20:00", "address": "ul. Oliwska 145", "city": "Chwaszczyno", "map_link": "/godziny-otwarcia-sklepow/chwaszczyno/chwaszczyno-oliwska-145,87351/"},
{"business": "Pepco", "opening_hours": "08:30-20:00", "address": "ul. Wielkokacka 2", "city": "Gdynia", "map_link": "/godziny-otwarcia-sklepow/gdynia/gdynia-wielkokacka-2,13139/"},
{"business": "Pepco", "opening_hours": "08:30-20:00", "address": "ul. Kazimierza Górskiego 2", "city": "Gdynia", "map_link": "/godziny-otwarcia-sklepow/gdynia/gdynia-kazimierza-gorskiego-2,113573/"},
{"business": "Pepco", "opening_hours": "08:30-20:00", "address": "ul. Gdańska 59", "city": "Żukowo", "map_link": "/godziny-otwarcia-sklepow/zukowo__23570/zukowo-gdanska-59,113499/"},
{"business": "Biedronka", "opening_hours": "06:00-22:00", "address": "ul. Tandeta 1/78", "city": "Gdańsk", "map_link": "/godziny-otwarcia-sklepow/gdansk/gdansk-tandeta-1-78,120441/"},
{"business": "Biedronka", "opening_hours": "06:00-23:00", "address": "ul. Długie Ogrody 14", "city": "Gdańsk", "map_link": "/godziny-otwarcia-sklepow/gdansk/gdansk-dlugie-ogrody-14,2313/"},
{"business": "Biedronka", "opening_hours": "07:00-21:00", "address": "ul. Karmelicka 1", "city": "Gdańsk", "map_link": "/godziny-otwarcia-sklepow/gdansk/gdansk-karmelicka-1/"},
{"business": "Biedronka", "opening_hours": "06:00-22:00", "address": "ul. Rajska 6", "city": "Gdańsk", "map_link": "/godziny-otwarcia-sklepow/gdansk/gdansk-rajska-6/"},
{"business": "Biedronka", "opening_hours": "06:00-22:00", "address": "ul. Łąkowa 35/38", "city": "Gdańsk", "map_link": "/godziny-otwarcia-sklepow/gdansk/gdansk-lakowa-35-38/"},
{"business": "Biedronka", "opening_hours": "06:00-22:00", "address": "ul. Kartuska 26", "city": "Gdańsk", "map_link": "/godziny-otwarcia-sklepow/gdansk/gdansk-kartuska-26,97744/"},
{"business": "Biedronka", "opening_hours": "06:00-22:00", "address": "ul. Stanisława Worcella 44", "city": "Gdańsk", "map_link": "/godziny-otwarcia-sklepow/gdansk/gdansk-stanislawa-worcela-4,97748/"},
{"business": "Biedronka", "opening_hours": "06:00-22:00", "address": "ul. Tytusa Chałubińskiego 27", "city": "Gdańsk", "map_link": "/godziny-otwarcia-sklepow/gdansk/gdansk-tytusa-chalubinskiego-27/"},
{"business": "Biedronka", "opening_hours": "06:00-22:00", "address": "ul. Ludwika Beethovena 11A", "city": "Gdańsk", "map_link": "/godziny-otwarcia-sklepow/gdansk/gdansk-ludwika-bethovena-1a,97749/"},
{"business": "Biedronka", "opening_hours": "06:00-23:00", "address": "ul. Władysława Cieszyńskiego 1a", "city": "Gdańsk", "map_link": "/godziny-otwarcia-sklepow/gdansk/gdansk-wladyslawa-cieszynskiego-1a,120436/"},
{"business": "Biedronka", "opening_hours": "06:00-22:00", "address": "ul. Ignacego Paderewskiego 9", "city": "Gdańsk", "map_link": "/godziny-otwarcia-sklepow/gdansk/gdansk-ignacego-paderewskiego-9,157352/"},
{"business": "Biedronka", "opening_hours": "06:00-22:00", "address": "ul. Trakt Św. Wojciecha 149", "city": "Gdańsk", "map_link": "/godziny-otwarcia-sklepow/gdansk/gdansk-trakt-sw-wojciecha-149,142011/"},
{"business": "Biedronka", "opening_hours": "07:00-21:00", "address": "ul. Gen. Augusta Emila Fieldorfa 2", "city": "Gdańsk", "map_link": "/godziny-otwarcia-sklepow/gdansk/gdansk-gen-augusta-emila-fieldorfa-2,97755/"},
{"business": "Biedronka", "opening_hours": "06:00-22:00", "address": "ul. Krzemowa 1", "city": "Gdańsk", "map_link": "/godziny-otwarcia-sklepow/gdansk/gdansk-krzemowa-1,97745/"},
{"business": "Biedronka", "opening_hours": "06:00-22:00", "address": "ul. Wawelska 2A", "city": "Gdańsk", "map_link": "/godziny-otwarcia-sklepow/gdansk/gdansk-wawelska-2a/"},
{"business": "Biedronka", "opening_hours": "06:00-22:00", "address": "ul. Wrzosy 1", "city": "Gdańsk", "map_link": "/godziny-otwarcia-sklepow/gdansk/gdansk-wrzosy-1,97739/"},
{"business": "Biedronka", "opening_hours": "06:00-22:00", "address": "ul. Kłosowa 6", "city": "Gdańsk", "map_link": "/godziny-otwarcia-sklepow/gdansk/gdansk-klosowa-6,186927/"},
{"business": "Biedronka", "opening_hours": "06:00-22:00", "address": "ul. Zofii Nałkowskiej 1A", "city": "Gdańsk", "map_link": "/godziny-otwarcia-sklepow/gdansk/gdansk-zofi-nalkowskiej-1a/"},
{"business": "Biedronka", "opening_hours": "06:00-22:00", "address": "ul. Piekarnicza 24", "city": "Gdańsk", "map_link": "/godziny-otwarcia-sklepow/gdansk/gdansk-piekarnicza-24,157312/"},
{"business": "Biedronka", "opening_hours": "06:00-23:00", "address": "al. Grunwaldzka 100", "city": "Gdańsk", "map_link": "/godziny-otwarcia-sklepow/gdansk/gdansk-grunwaldzka-10/"},
{"business": "Biedronka", "opening_hours": "09:00-18:00", "address": "ul. Franciszka Rakoczego 17", "city": "Gdańsk", "map_link": "/godziny-otwarcia-sklepow/gdansk/gdansk-franciszka-rakoczego-17/"},
{"business": "Biedronka", "opening_hours": "06:00-23:00", "address": "ul. Wajdeloty 12", "city": "Gdańsk", "map_link": "/godziny-otwarcia-sklepow/gdansk/gdansk-wajdeloty-12/"},
{"business": "Biedronka", "opening_hours": "06:00-22:00", "address": "ul. Piecewska 26", "city": "Gdańsk", "map_link": "/godziny-otwarcia-sklepow/gdansk/gdansk-piecewska-26/"},
{"business": "Biedronka", "opening_hours": "06:00-23:00", "address": "al. Gen. Józefa Hallera 167", "city": "Gdańsk", "map_link": "/godziny-otwarcia-sklepow/gdansk/gdansk-gen-jozefa-halera-167/"},
{"business": "Biedronka", "opening_hours": "06:00-22:00", "address": "ul. Sucha 31", "city": "Gdańsk", "map_link": "/godziny-otwarcia-sklepow/gdansk/gdansk-sucha-31,157451/"},
{"business": "Biedronka", "opening_hours": "06:00-23:00", "address": "ul. Warszawska 59", "city": "Gdańsk", "map_link": "/godziny-otwarcia-sklepow/gdansk/gdansk-warszawska-59/"},
{"business": "Biedronka", "opening_hours": "06:00-23:00", "address": "al. Rzeczypospolitej 33", "city": "Gdańsk", "map_link": "/godziny-otwarcia-sklepow/gdansk/gdansk-rzeczypospolitej-3,97758/"},
{"business": "Biedronka", "opening_hours": "06:00-22:00", "address": "ul. Bolesława Chrobrego 79E", "city": "Gdańsk", "map_link": "/godziny-otwarcia-sklepow/gdansk/gdansk-boleslawa-chrobrego-79e/"},
{"business": "Biedronka", "opening_hours": "06:00-23:00", "address": "ul. Cypriana Kamila Norwida 15", "city": "Gdańsk", "map_link": "/godziny-otwarcia-sklepow/gdansk/gdansk-cypriana-kamila-norwida-15/"},
{"business": "Biedronka", "opening_hours": "06:00-22:00", "address": "ul. Wolności 8", "city": "Gdańsk", "map_link": "/godziny-otwarcia-sklepow/gdansk/gdansk-wolnosci-8,97768/"},
{"business": "Biedronka", "opening_hours": "06:00-22:00", "address": "ul. Kartuska 406", "city": "Gdańsk", "map_link": "/godziny-otwarcia-sklepow/gdansk/gdansk-kartuska-406,175413/"},
{"business": "Biedronka", "opening_hours": "06:00-22:00", "address": "ul. Kartuska 257", "city": "Gdańsk", "map_link": "/godziny-otwarcia-sklepow/gdansk/gdansk-kartuska-257,142223/"},
{"business": "Biedronka", "opening_hours": "06:00-23:00", "address": "ul. Kartuska 332", "city": "Gdańsk", "map_link": "/godziny-otwarcia-sklepow/gdansk/gdansk-kartuska-32/"},
{"business": "Biedronka", "opening_hours": "06:00-22:00", "address": "ul. Wyzwolenia 26", "city": "Gdańsk", "map_link": "/godziny-otwarcia-sklepow/gdansk/gdansk-wyzwolenia-26/"},
{"business": "Biedronka", "opening_hours": "06:00-23:00", "address": "ul. Kazimierza Porębskiego 8", "city": "Gdańsk", "map_link": "/godziny-otwarcia-sklepow/gdansk/gdansk-kazimierza-porebskiego-8,2318/"},
{"business": "Biedronka", "opening_hours": "07:00-21:00", "address": "al. Grunwaldzka 211", "city": "Gdańsk", "map_link": "/godziny-otwarcia-sklepow/gdansk/gdansk-grunwaldzka-21,2308/"},
{"business": "Biedronka", "opening_hours": "06:00-23:00", "address": "ul. Gdańska 21L", "city": "Gdańsk", "map_link": "/godziny-otwarcia-sklepow/gdansk/gdansk-gdanska-21l/"},
{"business": "Biedronka", "opening_hours": "06:00-23:00", "address": "ul. Wielkopolska 62", "city": "Gdańsk", "map_link": "/godziny-otwarcia-sklepow/gdansk/gdansk-wielkopolska-62/"},
{"business": "Biedronka", "opening_hours": "06:00-22:00", "address": "ul. Potokowa 15D", "city": "Gdańsk", "map_link": "/godziny-otwarcia-sklepow/gdansk/gdansk-potokowa-15d,97742/"},
{"business": "Biedronka", "opening_hours": "06:00-23:00", "address": "ul. Główna 27A", "city": "Przejazdowo", "map_link": "/godziny-otwarcia-sklepow/przejazdowo/przejazdowo-glowna-27a/"},
{"business": "Biedronka", "opening_hours": "06:00-22:00", "address": "ul. Myśliwska 102", "city": "Gdańsk", "map_link": "/godziny-otwarcia-sklepow/gdansk/gdansk-mysliwska-102,55533/"},
{"business": "Biedronka", "opening_hours": "06:00-22:00", "address": "al. Gen. Józefa Hallera 233A", "city": "Gdańsk", "map_link": "/godziny-otwarcia-sklepow/gdansk/gdansk-gen-jozefa-halera-23a,97761/"},
{"business": "Biedronka", "opening_hours": "06:00-22:00", "address": "ul. Konrada Guderskiego 10", "city": "Gdańsk", "map_link": "/godziny-otwarcia-sklepow/gdansk/gdansk-konrada-guderskiego-10,97752/"},
{"business": "Biedronka", "opening_hours": "06:00-23:00", "address": "ul. Startowa 14", "city": "Gdańsk", "map_link": "/godziny-otwarcia-sklepow/gdansk/gdansk-startowa-14/"},
{"business": "Biedronka", "opening_hours": "06:00-22:00", "address": "ul. Jelitkowski Dwór 2", "city": "Gdańsk", "map_link": "/godziny-otwarcia-sklepow/gdansk/gdansk-jelitkowski-dwor-2,2316/"},
{"business": "Biedronka", "opening_hours": "06:00-22:00", "address": "ul. Opolska 3", "city": "Gdańsk", "map_link": "/godziny-otwarcia-sklepow/gdansk/gdansk-opolska-3,97763/"},
{"business": "Biedronka", "opening_hours": "06:00-23:00", "address": "ul. Zeusa 1A", "city": "Kowale", "map_link": "/godziny-otwarcia-sklepow/kowale__109750/kowale-zeusa-1a,98069/"},
{"business": "Biedronka", "opening_hours": "06:00-22:00", "address": "ul. Jabłoniowa 46", "city": "Gdańsk", "map_link": "/godziny-otwarcia-sklepow/gdansk/gdansk-jabloniowa-46/"},
{"business": "Biedronka", "opening_hours": "06:00-23:00", "address": "ul. Chłopska 16B", "city": "Gdańsk", "map_link": "/godziny-otwarcia-sklepow/gdansk/gdansk-chlopska-16b,97754/"},
{"business": "Biedronka", "opening_hours": "06:00-22:00", "address": "ul. Jagiellońska 2A", "city": "Gdańsk", "map_link": "/godziny-otwarcia-sklepow/gdansk/gdansk-jagielonska-2a/"},
{"business": "Biedronka", "opening_hours": "07:00-21:00", "address": "ul. Starogardzka 1", "city": "Straszyn", "map_link": "/godziny-otwarcia-sklepow/straszyn/straszyn-starogardzka-1/"},
{"business": "Biedronka", "opening_hours": "06:00-22:00", "address": "ul. Prezydenta Lecha Kaczyńskiego 20", "city": "Gdańsk", "map_link": "/godziny-otwarcia-sklepow/gdansk/gdansk-prezydenta-lecha-kaczynskiego-20,121010/"},
{"business": "Biedronka", "opening_hours": "06:00-22:00", "address": "ul. Prezydenta Lecha Kaczyńskiego 5", "city": "Gdańsk", "map_link": "/godziny-otwarcia-sklepow/gdansk/gdansk-prezydenta-lecha-kaczynskiego-5,121011/"},
{"business": "Biedronka", "opening_hours": "06:00-23:00", "address": "ul. Czerwony Dwór 24", "city": "Gdańsk", "map_link": "/godziny-otwarcia-sklepow/gdansk/gdansk-czerwony-dwor-24/"},
{"business": "Biedronka", "opening_hours": "06:00-22:00", "address": "ul. Leona Droszyńskiego 28A", "city": "Gdańsk", "map_link": "/godziny-otwarcia-sklepow/gdansk/gdansk-leona-droszynskiego-28a,97759/"},
{"business": "Biedronka", "opening_hours": "06:00-21:00", "address": "ul. Kaprów 3", "city": "Gdańsk", "map_link": "/godziny-otwarcia-sklepow/gdansk/gdansk-kaprow-3,97765/"},
{"business": "Biedronka", "opening_hours": "06:00-23:00", "address": "ul. Pomorska 25", "city": "Gdańsk", "map_link": "/godziny-otwarcia-sklepow/gdansk/gdansk-pomorska-25/"},
{"business": "Biedronka", "opening_hours": "06:00-23:00", "address": "ul. Jana Kasprowicza 40", "city": "Pruszcz Gdański", "map_link": "/godziny-otwarcia-sklepow/pruszcz-gdanski/pruszcz-gdanski-jana-kasprowicza-40/"},
{"business": "Biedronka", "opening_hours": "06:00-23:00", "address": "ul. Antoniego Dobrowolskiego 2", "city": "Pruszcz Gdański", "map_link": "/godziny-otwarcia-sklepow/pruszcz-gdanski/pruszcz-gdanski-antoniego-dobrowolskiego-2,2365/"},
{"business": "Biedronka", "opening_hours": "06:00-22:00", "address": "al. Ks. Józefa Waląga 1", "city": "Pruszcz Gdański", "map_link": "/godziny-otwarcia-sklepow/pruszcz-gdanski/pruszcz-gdanski-ks-jozefa-walaga-1/"},
{"business": "Biedronka", "opening_hours": "06:00-22:00", "address": "ul. Juliusza Słowackiego 159", "city": "Gdańsk", "map_link": "/godziny-otwarcia-sklepow/gdansk/gdansk-juliusza-slowackiego-159/"},
{"business": "Biedronka", "opening_hours": "06:00-23:00", "address": "ul. Gen. Stanisława Skalskiego 1", "city": "Pruszcz Gdański", "map_link": "/godziny-otwarcia-sklepow/pruszcz-gdanski/pruszcz-gdanski-gen-stanislawa-skalskiego-1,98617/"},
{"business": "Biedronka", "opening_hours": "06:00-22:30", "address": "ul. Kartuska 467", "city": "Gdańsk", "map_link": "/godziny-otwarcia-sklepow/gdansk/gdansk-kartuska-467,97774/"},
{"business": "Biedronka", "opening_hours": "06:00-22:00", "address": "al. Niepodległości 813a", "city": "Sopot", "map_link": "/godziny-otwarcia-sklepow/sopot/sopot-niepodleglosci-813a,175534/"},
{"business": "Biedronka", "opening_hours": "06:00-22:00", "address": "al. Niepodległości 691", "city": "Sopot", "map_link": "/godziny-otwarcia-sklepow/sopot/sopot-niepodleglosci-691,2372/"},
{"business": "Biedronka", "opening_hours": "06:00-22:00", "address": "ul. Dojazdowa 2", "city": "Lublewo Gdańskie", "map_link": "/godziny-otwarcia-sklepow/lublewo-gdanskie/lublewo-gdanskie-dojazdowa-2/"},
{"business": "Biedronka", "opening_hours": "06:00-22:00", "address": "ul. Meteorytowa 11", "city": "Gdańsk", "map_link": "/godziny-otwarcia-sklepow/gdansk/gdansk-meteorytowa-1,97772/"},
{"business": "Biedronka", "opening_hours": "06:00-23:00", "address": "ul. Sosnowa 1", "city": "Cieplewo", "map_link": "/godziny-otwarcia-sklepow/cieplewo/cieplewo-sosnowa-1,97639/"},
{"business": "Biedronka", "opening_hours": "06:00-22:00", "address": "ul. Wejherowska 35", "city": "Sopot", "map_link": "/godziny-otwarcia-sklepow/sopot/sopot-wejherowska-35,2373/"},
{"business": "Biedronka", "opening_hours": "06:00-22:00", "address": "ul. Koziorożca 38", "city": "Gdańsk", "map_link": "/godziny-otwarcia-sklepow/gdansk/gdansk-koziorozca-38,175414/"},
{"business": "Biedronka", "opening_hours": "06:00-22:00", "address": "ul. Osowski Zakątek 17", "city": "Gdańsk", "map_link": "/godziny-otwarcia-sklepow/gdansk/gdansk-osowski-zakatek-17,97771/"},
{"business": "Biedronka", "opening_hours": "09:00-16:00", "address": "ul. Wacława Balcerskiego 12", "city": "Gdańsk", "map_link": "/godziny-otwarcia-sklepow/gdansk/gdansk-waclawa-balcerskiego-12,2326/"},
{"business": "Biedronka", "opening_hours": "06:00-22:00", "address": "ul. Wacława Balcerskiego 2", "city": "Gdańsk", "map_link": "/godziny-otwarcia-sklepow/gdansk/gdansk-waclawa-balcerskiego-2,157444/"},
{"business": "Biedronka", "opening_hours": "06:00-23:00", "address": "ul. Korzenna 251", "city": "Korzenna", "map_link": "/godziny-otwarcia-sklepow/korzenna/korzena-korzena-251/"},
{"business": "Biedronka", "opening_hours": "06:00-22:00", "address": "ul. Korzenna 19/4", "city": "Gdynia", "map_link": "/godziny-otwarcia-sklepow/gdynia/gdynia-korzena-19-4,175415/"},
{"business": "Biedronka", "opening_hours": "06:00-23:00", "address": "ul. Borowiecka 2", "city": "Banino", "map_link": "/godziny-otwarcia-sklepow/banino/banino-borowiecka-2,56552/"},
{"business": "Biedronka", "opening_hours": "06:00-22:00", "address": "ul. Legionów 112", "city": "Gdynia", "map_link": "/godziny-otwarcia-sklepow/gdynia/gdynia-legionow-12,142085/"},
{"business": "Biedronka", "opening_hours": "06:00-22:00", "address": "ul. Jarosława Iwaszkiewicza 1", "city": "Gdynia", "map_link": "/godziny-otwarcia-sklepow/gdynia/gdynia-jaroslawa-iwaszkiewicza-1/"},
{"business": "Biedronka", "opening_hours": "06:00-22:00", "address": "ul. Halicka 7A", "city": "Gdynia", "map_link": "/godziny-otwarcia-sklepow/gdynia/gdynia-halicka-7a/"},
{"business": "Biedronka", "opening_hours": "06:00-22:00", "address": "ul. Sojowa 35", "city": "Gdynia", "map_link": "/godziny-otwarcia-sklepow/gdynia/gdynia-sojowa-35,42383/"},
{"business": "Biedronka", "opening_hours": "06:00-22:00", "address": "ul. Wiczlińska 45A", "city": "Gdynia", "map_link": "/godziny-otwarcia-sklepow/gdynia/gdynia-wiczlinska-45a/"},
{"business": "Biedronka", "opening_hours": "06:00-23:00", "address": "ul. Adama Mickiewicza 2", "city": "Kartuzy", "map_link": "/godziny-otwarcia-sklepow/kartuzy/kartuzy-adama-mickiewicza-2,97971/"},
{"business": "Biedronka", "opening_hours": "06:00-22:00", "address": "ul. Mikołaja Kopernika 36", "city": "Gdynia", "map_link": "/godziny-otwarcia-sklepow/gdynia/gdynia-mikolaja-kopernika-36,157330/"},
{"business": "Biedronka", "opening_hours": "06:00-22:00", "address": "ul. II Morskiego Pułku Strzelców 1", "city": "Gdynia", "map_link": "/godziny-otwarcia-sklepow/gdynia/gdynia-i-morskiego-pulku-strzelcow-1/"},
{"business": "Biedronka", "opening_hours": "06:00-22:00", "address": "ul. Gdańska 1", "city": "Pszczółki", "map_link": "/godziny-otwarcia-sklepow/pszczolki/pszczolki-gdanska-1,98633/"},
{"business": "Biedronka", "opening_hours": "06:00-23:00", "address": "ul. Oliwska 139", "city": "Chwaszczyno", "map_link": "/godziny-otwarcia-sklepow/chwaszczyno/chwaszczyno-oliwska-139,2302/"},
{"business": "Biedronka", "opening_hours": "06:00-23:00", "address": "ul. Książąt Pomorskich 2D", "city": "Żukowo", "map_link": "/godziny-otwarcia-sklepow/zukowo__23570/zukowo-ksiazat-pomorskich-2d,99350/"},
{"business": "Biedronka", "opening_hours": "06:00-22:00", "address": "ul. Strażacka 2", "city": "Gdynia", "map_link": "/godziny-otwarcia-sklepow/gdynia/gdynia-strazacka-2,97776/"},
{"business": "Biedronka", "opening_hours": "06:00-22:00", "address": "ul. Józefa Bema 22/24", "city": "Gdynia", "map_link": "/godziny-otwarcia-sklepow/gdynia/gdynia-jozefa-bema-2-24,97780/"},
{"business": "Kaufland", "opening_hours": "07:00-22:00", "address": "ul. Cienista 30", "city": "Gdańsk", "map_link": "/godziny-otwarcia-sklepow/gdansk/gdansk-cienista-30,129206/"},
{"business": "Top Market", "opening_hours": "06:00-21:00", "address": "ul. Trubadurów 6/G", "city": "Gdańsk", "map_link": "/godziny-otwarcia-sklepow/gdansk/gdansk-trubadurow-6-g,62450/"},
{"business": "Top Market", "opening_hours": "08:00-22:00", "address": "ul. 23 Marca 77c", "city": "Sopot", "map_link": "/godziny-otwarcia-sklepow/sopot/sopot-23-marca-7c/"},
{"business": "Top Market", "opening_hours": "07:00-21:00", "address": "ul. Wierzbowa 36", "city": "Gdynia", "map_link": "/godziny-otwarcia-sklepow/gdynia/gdynia-wierzbowa-36,169458/"},
{"business": "Top Market", "opening_hours": "06:30-21:00", "address": "ul. Łapińska 26", "city": "Przyjaźń", "map_link": "/godziny-otwarcia-sklepow/przyjazn/przyjazn-lapinska-26,169497/"},
{"business": "Top Market", "opening_hours": "06:00-21:00", "address": "ul. Bohaterów Starówki Warszawskiej 6", "city": "Gdynia", "map_link": "/godziny-otwarcia-sklepow/gdynia/gdynia-bohaterow-starowki-warszawskiej-6,169455/"},
{"business": "Top Market", "opening_hours": "08:00-23:00", "address": "ul. Gdyńska 37", "city": "Żukowo", "map_link": "/godziny-otwarcia-sklepow/zukowo__23570/zukowo-gdynska-37/"},
{"business": "Carrefour Market", "opening_hours": "06:00-22:00", "address": "ul. Cygańska Góra 3F", "city": "Gdańsk", "map_link": "/godziny-otwarcia-sklepow/gdansk/gdansk-cyganska-gora-3f,70613/"},
{"business": "Carrefour Market", "opening_hours": "06:00-22:00", "address": "ul. Rogalińska 1", "city": "Gdańsk", "map_link": "/godziny-otwarcia-sklepow/gdansk/gdansk-rogalinska-1,70658/"},
{"business": "Carrefour Market", "opening_hours": "06:00-22:00", "address": "ul. Kołobrzeska 54", "city": "Gdańsk", "map_link": "/godziny-otwarcia-sklepow/gdansk/gdansk-kolobrzeska-54,70659/"},
{"business": "Stokrotka", "opening_hours": "06:30-22:00", "address": "ul. Piotrkowska 25", "city": "Gdańsk", "map_link": "/godziny-otwarcia-sklepow/gdansk/gdansk-piotrkowska-25,37851/"},
{"business": "Stokrotka", "opening_hours": "07:00-22:00", "address": "ul. Niepołomicka 32", "city": "Gdańsk", "map_link": "/godziny-otwarcia-sklepow/gdansk/gdansk-niepolomicka-32,106024/"},
{"business": "Stokrotka", "opening_hours": "07:00-22:00", "address": "ul. Pólnicy 9", "city": "Gdańsk", "map_link": "/godziny-otwarcia-sklepow/gdansk/gdansk-polnicy-9,114104/"},
{"business": "Stokrotka", "opening_hours": "06:30-22:00", "address": "al. Jana Pawła II 9-", "city": "Gdańsk", "map_link": "/godziny-otwarcia-sklepow/gdansk/gdansk-jana-pawla-i-9,179014/"},
{"business": "Stokrotka", "opening_hours": "07:00-22:00", "address": "ul. Klasyczna 2", "city": "Borkowo", "map_link": "/godziny-otwarcia-sklepow/borkowo/borkowo-klasyczna-2,37852/"},
{"business": "Stokrotka", "opening_hours": "06:30-22:00", "address": "ul. Jagiellońska 34", "city": "Gdańsk", "map_link": "/godziny-otwarcia-sklepow/gdansk/gdansk-jagielonska-34,170751/"},
{"business": "Stokrotka", "opening_hours": "07:00-22:00", "address": "ul. Adama Mickiewicza 1", "city": "Pruszcz Gdański", "map_link": "/godziny-otwarcia-sklepow/pruszcz-gdanski/pruszcz-gdanski-adama-mickiewicza-1/"},
{"business": "Stokrotka", "opening_hours": "06:00-22:00", "address": "ul. Długa 103", "city": "Cieplewo", "map_link": "/godziny-otwarcia-sklepow/cieplewo/cieplewo-dluga-103,184102/"},
{"business": "Stokrotka", "opening_hours": "06:30-22:00", "address": "ul. Korzenna 17", "city": "Gdynia", "map_link": "/godziny-otwarcia-sklepow/gdynia/gdynia-korzena-17,14919/"},
{"business": "Stokrotka", "opening_hours": "07:00-22:00", "address": "ul. Nowowiczlińska 115", "city": "Gdynia", "map_link": "/godziny-otwarcia-sklepow/gdynia/gdynia-nowowiczlinska-15,37854/"},
{"business": "Eurospar", "opening_hours": "09:00-22:00", "address": "ul. Kołobrzeska 41C", "city": "Gdańsk", "map_link": "/godziny-otwarcia-sklepow/gdansk/gdansk-kolobrzeska-41c,165689/"},
{"business": "Eurospar", "opening_hours": "09:00-21:30", "address": "al. Grunwaldzka 82", "city": "Gdańsk", "map_link": "/godziny-otwarcia-sklepow/gdansk/gdansk-grunwaldzka-82,153290/"},
{"business": "Eurospar", "opening_hours": "09:00-22:00", "address": "al. Grunwaldzka 471", "city": "Gdańsk", "map_link": "/godziny-otwarcia-sklepow/gdansk/gdansk-grunwaldzka-471/"},
{"business": "Eurospar", "opening_hours": "08:00-22:00", "address": "al. Zwycięstwa 256", "city": "Gdynia", "map_link": "/godziny-otwarcia-sklepow/gdynia/gdynia-zwyciestwa-256,153291/"},
{"business": "Stokrotka Market", "opening_hours": "06:30-21:30", "address": "ul. Osiek 12C", "city": "Osiek", "map_link": "/godziny-otwarcia-sklepow/osiek__/osiek-osiek-12c/"},
{"business": "Stokrotka Market", "opening_hours": "07:00-21:30", "address": "ul. Stężycka 64", "city": "Gdańsk", "map_link": "/godziny-otwarcia-sklepow/gdansk/gdansk-stezycka-64,167862/"},
{"business": "Stokrotka Market", "opening_hours": "06:30-22:00", "address": "ul. Śląska 66", "city": "Gdańsk", "map_link": "/godziny-otwarcia-sklepow/gdansk/gdansk-slaska-6/"},
{"business": "Stokrotka Market", "opening_hours": "06:00-21:00", "address": "ul. Dąbrówki 199", "city": "Dąbrówki", "map_link": "/godziny-otwarcia-sklepow/dabrowki__110064/dabrowki-dabrowki-19,134676/"},
{"business": "Stokrotka Market", "opening_hours": "06:30-22:00", "address": "ul. Widna 1", "city": "Gdynia", "map_link": "/godziny-otwarcia-sklepow/gdynia/gdynia-widna-1,129138/"},
{"business": "Stokrotka Express", "opening_hours": "06:00-23:45", "address": "ul. Stara Stocznia 10", "city": "Gdańsk", "map_link": "/godziny-otwarcia-sklepow/gdansk/gdansk-stara-stocznia-10,180991/"},
{"business": "Stokrotka Express", "opening_hours": "06:00-23:45", "address": "ul. Starowiejska 63", "city": "Gdańsk", "map_link": "/godziny-otwarcia-sklepow/gdansk/gdansk-starowiejska-63,175822/"},
{"business": "Spar", "opening_hours": "08:00-22:00", "address": "ul. Nieborowska 8", "city": "Gdańsk", "map_link": "/godziny-otwarcia-sklepow/gdansk/gdansk-nieborowska-8,151118/"},
{"business": "Spar", "opening_hours": "08:00-22:00", "address": "ul. Świętokrzyska 21", "city": "Gdańsk", "map_link": "/godziny-otwarcia-sklepow/gdansk/gdansk-swietokrzyska-21,151119/"},
{"business": "Lewiatan", "opening_hours": "07:00-20:00", "address": "ul. Spadzista 5", "city": "Gdańsk", "map_link": "/godziny-otwarcia-sklepow/gdansk/gdansk-spadzista-5,165304/"},
{"business": "Lewiatan", "opening_hours": "07:00-20:00", "address": "ul. Siennicka 26", "city": "Gdańsk", "map_link": "/godziny-otwarcia-sklepow/gdansk/gdansk-sienicka-26,73849/"},
{"business": "Lewiatan", "opening_hours": "07:00-20:00", "address": "ul. Wojskiego 8 B", "city": "Gdańsk", "map_link": "/godziny-otwarcia-sklepow/gdansk/gdansk-wojskiego-8-b/"},
{"business": "Lewiatan", "opening_hours": "07:00-20:00", "address": "ul. Wilhelma Stryjewskiego 27", "city": "Gdańsk", "map_link": "/godziny-otwarcia-sklepow/gdansk/gdansk-wilhelma-stryjewskiego-27,122361/"},
{"business": "Lewiatan", "opening_hours": "07:00-20:00", "address": "ul. Adama Mickiewicza 37", "city": "Gdańsk", "map_link": "/godziny-otwarcia-sklepow/gdansk/gdansk-adama-mickiewicza-37,74154/"},
{"business": "Lewiatan", "opening_hours": "07:00-20:00", "address": "ul. Heleny Marusarzówny 2a", "city": "Gdańsk", "map_link": "/godziny-otwarcia-sklepow/gdansk/gdansk-heleny-marusarzowny-2a,122360/"},
{"business": "Lewiatan", "opening_hours": "07:00-20:00", "address": "ul. Dywizjonu 303 303 25", "city": "Gdańsk", "map_link": "/godziny-otwarcia-sklepow/gdansk/gdansk-dywizjonu-303-303-25/"},
{"business": "Lewiatan", "opening_hours": "07:00-20:00", "address": "ul. Wyzwolenia 51 F", "city": "Gdańsk", "map_link": "/godziny-otwarcia-sklepow/gdansk/gdansk-wyzwolenia-51-f,122363/"},
{"business": "Lewiatan", "opening_hours": "07:00-20:00", "address": "ul. Jabłoniowa 21/8", "city": "Gdańsk", "map_link": "/godziny-otwarcia-sklepow/gdansk/gdansk-jabloniowa-21-8/"},
{"business": "Lewiatan", "opening_hours": "07:00-20:00", "address": "ul. Konstantego Ildefonsa Gałczyńskiego 2", "city": "Gdańsk", "map_link": "/godziny-otwarcia-sklepow/gdansk/gdansk-konstantego-ildefonsa-galczynskiego-2,178090/"},
{"business": "Lewiatan", "opening_hours": "07:00-20:00", "address": "ul. Startowa 4", "city": "Gdańsk", "map_link": "/godziny-otwarcia-sklepow/gdansk/gdansk-startowa-4/"},
{"business": "Lewiatan", "opening_hours": "07:00-20:00", "address": "ul. Pilotów 23B", "city": "Gdańsk", "map_link": "/godziny-otwarcia-sklepow/gdansk/gdansk-pilotow-23b/"},
{"business": "Lewiatan", "opening_hours": "07:00-20:00", "address": "ul. gen. Władysława Andersa 18", "city": "Gdańsk", "map_link": "/godziny-otwarcia-sklepow/gdansk/gdansk-gen-wladyslawa-andersa-18,175906/"},
{"business": "Lewiatan", "opening_hours": "07:00-20:00", "address": "ul. Piotra Norblina 23", "city": "Gdańsk", "map_link": "/godziny-otwarcia-sklepow/gdansk/gdansk-piotra-norblina-23/"},
{"business": "Lewiatan", "opening_hours": "07:00-20:00", "address": "ul. Łowicka 16", "city": "Gdańsk", "map_link": "/godziny-otwarcia-sklepow/gdansk/gdansk-lowicka-16,122353/"},
{"business": "Lewiatan", "opening_hours": "07:00-20:00", "address": "ul. Antoniego Abrahama 15A", "city": "Gdańsk", "map_link": "/godziny-otwarcia-sklepow/gdansk/gdansk-antoniego-abrahama-15a,122355/"},
{"business": "Lewiatan", "opening_hours": "07:00-20:00", "address": "ul. Bałtycka 5", "city": "Rokitnica", "map_link": "/godziny-otwarcia-sklepow/rokitnica/rokitnica-baltycka-5/"},
{"business": "Lewiatan", "opening_hours": "07:00-20:00", "address": "ul. Szyprów 1", "city": "Gdańsk", "map_link": "/godziny-otwarcia-sklepow/gdansk/gdansk-szyprow-1/"},
{"business": "Lewiatan", "opening_hours": "07:00-20:00", "address": "ul. Sowia 2/1", "city": "Bąkowo", "map_link": "/godziny-otwarcia-sklepow/bakowo/bakowo-sowia-2-1/"},
{"business": "Lewiatan", "opening_hours": "07:00-20:00", "address": "ul. Stanisława Wyspiańskiego 63", "city": "Pruszcz Gdański", "map_link": "/godziny-otwarcia-sklepow/pruszcz-gdanski/pruszcz-gdanski-stanislawa-wyspianskiego-63,73945/"},
{"business": "Lewiatan", "opening_hours": "07:00-20:00", "address": "ul. Mostów 7b", "city": "Mostów", "map_link": "/godziny-otwarcia-sklepow/mostow/mostow-mostow-7b,165355/"},
{"business": "Lewiatan", "opening_hours": "07:00-20:00", "address": "ul. 3 Maja 17", "city": "Sopot", "map_link": "/godziny-otwarcia-sklepow/sopot/sopot-3-maja-17,73070/"},
{"business": "Lewiatan", "opening_hours": "07:00-20:00", "address": "ul. Grunwaldzka 80", "city": "Sopot", "map_link": "/godziny-otwarcia-sklepow/sopot/sopot-grunwaldzka-80,74114/"},
{"business": "Lewiatan", "opening_hours": "07:00-20:00", "address": "ul. Fryderyka Chopina 43", "city": "Sopot", "map_link": "/godziny-otwarcia-sklepow/sopot/sopot-fryderyka-chopina-43,74054/"},
{"business": "Lewiatan", "opening_hours": "07:00-20:00", "address": "ul. Jana Jerzego Haffnera 44", "city": "Sopot", "map_link": "/godziny-otwarcia-sklepow/sopot/sopot-jana-jerzego-hafnera-4,73354/"},
{"business": "Lewiatan", "opening_hours": "07:00-20:00", "address": "ul. Grabowo 28", "city": "Grabowo", "map_link": "/godziny-otwarcia-sklepow/grabowo__/grabowo-grabowo-28/"},
{"business": "Lewiatan", "opening_hours": "07:00-20:00", "address": "ul. Brunona Gregorkiewicza 60", "city": "Bielkówko", "map_link": "/godziny-otwarcia-sklepow/bielkowko/bielkowko-brunona-gregorkiewicza-60,122032/"},
{"business": "Lewiatan", "opening_hours": "07:00-20:00", "address": "ul. Wodnika 2", "city": "Gdańsk", "map_link": "/godziny-otwarcia-sklepow/gdansk/gdansk-wodnika-2/"},
{"business": "Lewiatan", "opening_hours": "07:00-20:00", "address": "ul. Dworcowa 1", "city": "Kolbudy", "map_link": "/godziny-otwarcia-sklepow/kolbudy/kolbudy-dworcowa-1/"},
{"business": "Lewiatan", "opening_hours": "07:00-20:00", "address": "ul. Barniewicka 107", "city": "Gdańsk", "map_link": "/godziny-otwarcia-sklepow/gdansk/gdansk-barniewicka-107/"},
{"business": "Lewiatan", "opening_hours": "07:00-20:00", "address": "ul. Źródło Marii 19 L", "city": "Gdynia", "map_link": "/godziny-otwarcia-sklepow/gdynia/gdynia-zrodlo-mari-19-l,122365/"},
{"business": "Lewiatan", "opening_hours": "07:00-20:00", "address": "ul. Sportowa 6/B", "city": "Suchy Dąb", "map_link": "/godziny-otwarcia-sklepow/suchy-dab/suchy-dab-sportowa-6-b/"},
{"business": "Lewiatan", "opening_hours": "07:00-20:00", "address": "ul. Piłsudskiego 4", "city": "Żukowo", "map_link": "/godziny-otwarcia-sklepow/zukowo__23570/zukowo-pilsudskiego-4/"},
{"business": "Lewiatan", "opening_hours": "07:00-20:00", "address": "ul. Pomorska 39", "city": "Pszczółki", "map_link": "/godziny-otwarcia-sklepow/pszczolki/pszczolki-pomorska-39/"},
{"business": "Carrefour Express", "opening_hours": "08:00-00:00", "address": "ul. Stągiewna 12", "city": "Gdańsk", "map_link": "/godziny-otwarcia-sklepow/gdansk/gdansk-stagiewna-12,176416/"},
{"business": "Carrefour Express", "opening_hours": "06:00-23:00", "address": "ul. Długa 67/68", "city": "Gdańsk", "map_link": "/godziny-otwarcia-sklepow/gdansk/gdansk-dluga-67-68,115527/"},
{"business": "Carrefour Express", "opening_hours": "08:00-23:00", "address": "ul. Kołodziejska 7", "city": "Gdańsk", "map_link": "/godziny-otwarcia-sklepow/gdansk/gdansk-kolodziejska-7,102138/"},
{"business": "Carrefour Express", "opening_hours": "06:00-18:00", "address": "ul. Marii Skłodowskiej-Curie 1A", "city": "Gdańsk", "map_link": "/godziny-otwarcia-sklepow/gdansk/gdansk-mari-sklodowskiej-curie-1a,180833/"},
{"business": "Carrefour Express", "opening_hours": "06:00-22:00", "address": "ul. Marii Skłodowskiej-Curie 3", "city": "Gdańsk", "map_link": "/godziny-otwarcia-sklepow/gdansk/gdansk-mari-sklodowskiej-curie-3/"},
{"business": "Carrefour Express", "opening_hours": "06:00-23:00", "address": "ul. Stanisława Lema 4/302", "city": "Gdańsk", "map_link": "/godziny-otwarcia-sklepow/gdansk/gdansk-stanislawa-lema-4-302,115522/"},
{"business": "Carrefour Express", "opening_hours": "06:00-22:00", "address": "ul. Lawendowe Wzgórze 21/L.U. 1", "city": "Gdańsk", "map_link": "/godziny-otwarcia-sklepow/gdansk/gdansk-lawendowe-wzgorze-21-l-u-1,176415/"},
{"business": "Carrefour Express", "opening_hours": "06:00-22:00", "address": "ul. Przytulna 11", "city": "Gdańsk", "map_link": "/godziny-otwarcia-sklepow/gdansk/gdansk-przytulna-1,137238/"},
{"business": "Carrefour Express", "opening_hours": "07:00-22:00", "address": "ul. Osiedlowa 2", "city": "Gdańsk", "map_link": "/godziny-otwarcia-sklepow/gdansk/gdansk-osiedlowa-2/"},
{"business": "Carrefour Express", "opening_hours": "06:00-22:00", "address": "ul. Tadeusza Kościuszki 26", "city": "Sopot", "map_link": "/godziny-otwarcia-sklepow/sopot/sopot-tadeusza-kosciuszki-26,71299/"},
{"business": "Auchan", "opening_hours": "07:00-21:00", "address": "ul. Kołobrzeska 32", "city": "Gdańsk", "map_link": "/godziny-otwarcia-sklepow/gdansk/gdansk-kolobrzeska-32,72941/"},
{"business": "Auchan", "opening_hours": "07:00-21:00", "address": "ul. Szczęśliwa 3", "city": "Gdańsk", "map_link": "/godziny-otwarcia-sklepow/gdansk/gdansk-szczesliwa-3,987/"},
{"business": "Auchan", "opening_hours": "07:00-21:00", "address": "ul. Spacerowa 48", "city": "Gdańsk", "map_link": "/godziny-otwarcia-sklepow/gdansk/gdansk-spacerowa-48,66341/"},
{"business": "Auchan", "opening_hours": "07:00-21:00", "address": "ul. Kazimierza Górskiego 2", "city": "Gdynia", "map_link": "/godziny-otwarcia-sklepow/gdynia/gdynia-kazimierza-gorskiego-2,62654/"},
{"business": "Carrefour Express", "opening_hours": "06:00-23:00", "address": "ul. Bohaterów Monte Cassino 28", "city": "Sopot", "map_link": "/godziny-otwarcia-sklepow/sopot/sopot-bohaterow-monte-casino-28/"},
{"business": "Carrefour Express", "opening_hours": "07:00-22:00", "address": "pl. Górnośląski 21", "city": "Gdynia", "map_link": "/godziny-otwarcia-sklepow/gdynia/gdynia-gornoslaski-21/"},
{"business": "Carrefour Express", "opening_hours": "07:00-22:00", "address": "ul. Starochwaszczyńska 29A/LU2", "city": "Gdynia", "map_link": "/godziny-otwarcia-sklepow/gdynia/gdynia-starochwaszczynska-29a-lu2,150797/"},
{"business": "Carrefour Express", "opening_hours": "06:00-00:00", "address": "ul. Świętojańska 137", "city": "Gdynia", "map_link": "/godziny-otwarcia-sklepow/gdynia/gdynia-swietojanska-137/"},
{"business": "Carrefour Express", "opening_hours": "06:00-00:00", "address": "ul. Partyzantów 46 lok. 13", "city": "Gdynia", "map_link": "/godziny-otwarcia-sklepow/gdynia/gdynia-partyzantow-46-lok-13,171058/"},
{"business": "Żabka", "opening_hours": "06:00-23:00", "address": "ul. Szeroka 82/83", "city": "Gdańsk", "map_link": "/godziny-otwarcia-sklepow/gdansk/gdansk-szeroka-82-83,116276/"},
{"business": "Netto", "opening_hours": "07:00-22:00", "address": "ul. Rajska 10", "city": "Gdańsk", "map_link": "/godziny-otwarcia-sklepow/gdansk/gdansk-rajska-10,121034/"},
{"business": "Netto", "opening_hours": "06:00-22:00", "address": "ul. Warszawska 19", "city": "Gdańsk", "map_link": "/godziny-otwarcia-sklepow/gdansk/gdansk-warszawska-19,36563/"},
{"business": "Netto", "opening_hours": "06:00-22:00", "address": "ul. Świętokrzyska 50", "city": "Gdańsk", "map_link": "/godziny-otwarcia-sklepow/gdansk/gdansk-swietokrzyska-50,101343/"},
{"business": "Netto", "opening_hours": "06:00-22:00", "address": "ul. Franciszka Rakoczego 13", "city": "Gdańsk", "map_link": "/godziny-otwarcia-sklepow/gdansk/gdansk-franciszka-rakoczego-13,36562/"},
{"business": "Netto", "opening_hours": "06:00-22:00", "address": "ul. Opolska 3", "city": "Gdańsk", "map_link": "/godziny-otwarcia-sklepow/gdansk/gdansk-opolska-3,167675/"},
{"business": "Netto", "opening_hours": "06:00-22:00", "address": "ul. Obrońców Wybrzeża 21", "city": "Gdańsk", "map_link": "/godziny-otwarcia-sklepow/gdansk/gdansk-obroncow-wybrzeza-21,170668/"},
{"business": "Netto", "opening_hours": "06:00-22:00", "address": "ul. Objazdowa 5A", "city": "Straszyn", "map_link": "/godziny-otwarcia-sklepow/straszyn/straszyn-objazdowa-5a/"},
{"business": "Netto", "opening_hours": "06:00-22:00", "address": "ul. Ignacego Domeyki 1", "city": "Pruszcz Gdański", "map_link": "/godziny-otwarcia-sklepow/pruszcz-gdanski/pruszcz-gdanski-ignacego-domeyki-1,167738/"},
{"business": "Netto", "opening_hours": "06:00-22:00", "address": "ul. Kalinowa 3", "city": "Gdańsk", "map_link": "/godziny-otwarcia-sklepow/gdansk/gdansk-kalinowa-3,55769/"},
{"business": "Żabka", "opening_hours": "06:00-23:00", "address": "ul. Chlebnicka 45/46", "city": "Gdańsk", "map_link": "/godziny-otwarcia-sklepow/gdansk/gdansk-chlebnicka-45-46,162755/"},
{"business": "Żabka", "opening_hours": "06:00-23:00", "address": "ul. Stągiewna 10/1", "city": "Gdańsk", "map_link": "/godziny-otwarcia-sklepow/gdansk/gdansk-stagiewna-10-1/"},
{"business": "Żabka", "opening_hours": "06:00-23:00", "address": "ul. Długie Ogrody 11", "city": "Gdańsk", "map_link": "/godziny-otwarcia-sklepow/gdansk/gdansk-dlugie-ogrody-1/"},
{"business": "Żabka", "opening_hours": "06:00-23:00", "address": "ul. Długa 59/61", "city": "Gdańsk", "map_link": "/godziny-otwarcia-sklepow/gdansk/gdansk-dluga-59-61,116187/"},
{"business": "Żabka", "opening_hours": "06:00-23:00", "address": "ul. Szafarnia 11", "city": "Gdańsk", "map_link": "/godziny-otwarcia-sklepow/gdansk/gdansk-szafarnia-1,116272/"},
{"business": "Żabka", "opening_hours": "06:00-23:00", "address": "ul. Angielska Grobla 5", "city": "Gdańsk", "map_link": "/godziny-otwarcia-sklepow/gdansk/gdansk-angielska-grobla-5/"},
{"business": "Żabka", "opening_hours": "06:00-23:00", "address": "ul. Lawendowa 5", "city": "Gdańsk", "map_link": "/godziny-otwarcia-sklepow/gdansk/gdansk-lawendowa-5,176535/"},
{"business": "Żabka", "opening_hours": "06:00-23:00", "address": "ul. Targ Rybny 6A", "city": "Gdańsk", "map_link": "/godziny-otwarcia-sklepow/gdansk/gdansk-targ-rybny-6a/"},
{"business": "Żabka", "opening_hours": "06:00-23:00", "address": "ul. Długie Ogrody 18 LOK.U03", "city": "Gdańsk", "map_link": "/godziny-otwarcia-sklepow/gdansk/gdansk-dlugie-ogrody-18-lok-u03,143866/"},
{"business": "Żabka", "opening_hours": "06:00-23:00", "address": "ul. Węglarska 1/4", "city": "Gdańsk", "map_link": "/godziny-otwarcia-sklepow/gdansk/gdansk-weglarska-1-4,116288/"},
{"business": "Żabka", "opening_hours": "06:00-23:00", "address": "ul. Garbary 5", "city": "Gdańsk", "map_link": "/godziny-otwarcia-sklepow/gdansk/gdansk-garbary-5,166421/"},
{"business": "Żabka", "opening_hours": "06:00-23:00", "address": "ul. Podwale Staromiejskie 96/97", "city": "Gdańsk", "map_link": "/godziny-otwarcia-sklepow/gdansk/gdansk-podwale-staromiejskie-96-97/"},
{"business": "Żabka", "opening_hours": "06:00-23:00", "address": "ul. Tartaczna 3/1", "city": "Gdańsk", "map_link": "/godziny-otwarcia-sklepow/gdansk/gdansk-tartaczna-3-1/"},
{"business": "Żabka", "opening_hours": "06:00-23:00", "address": "ul. Chmielna 3", "city": "Gdańsk", "map_link": "/godziny-otwarcia-sklepow/gdansk/gdansk-chmielna-3,136093/"},
{"business": "Żabka", "opening_hours": "06:00-23:00", "address": "ul. Chmielna 72", "city": "Gdańsk", "map_link": "/godziny-otwarcia-sklepow/gdansk/gdansk-chmielna-72/"},
{"business": "Żabka", "opening_hours": "06:00-23:00", "address": "ul. Chmielna 95/1", "city": "Gdańsk", "map_link": "/godziny-otwarcia-sklepow/gdansk/gdansk-chmielna-95-1,116183/"},
{"business": "Żabka", "opening_hours": "06:00-23:00", "address": "ul. Kowalska 9", "city": "Gdańsk", "map_link": "/godziny-otwarcia-sklepow/gdansk/gdansk-kowalska-9/"},
{"business": "Żabka", "opening_hours": "06:00-23:00", "address": "ul. Targ Drzewny 12/14", "city": "Gdańsk", "map_link": "/godziny-otwarcia-sklepow/gdansk/gdansk-targ-drzewny-12-14/"},
{"business": "Żabka", "opening_hours": "06:00-23:00", "address": "ul. Stara Stocznia 2", "city": "Gdańsk", "map_link": "/godziny-otwarcia-sklepow/gdansk/gdansk-stara-stocznia-2,116265/"},
{"business": "Żabka", "opening_hours": "06:00-23:00", "address": "ul. Łąkowa 60d", "city": "Gdańsk", "map_link": "/godziny-otwarcia-sklepow/gdansk/gdansk-lakowa-60d,176531/"},
{"business": "Żabka", "opening_hours": "06:00-23:00", "address": "ul. Toruńska 15", "city": "Gdańsk", "map_link": "/godziny-otwarcia-sklepow/gdansk/gdansk-torunska-15/"},
{"business": "Żabka", "opening_hours": "06:00-23:00", "address": "ul. Żabi Kruk 10", "city": "Gdańsk", "map_link": "/godziny-otwarcia-sklepow/gdansk/gdansk-zabi-kruk-10,116296/"},
{"business": "Żabka", "opening_hours": "06:00-23:00", "address": "ul. Grobla III 1/6d", "city": "Gdańsk", "map_link": "/godziny-otwarcia-sklepow/gdansk/gdansk-grobla-i-1-6d/"},
{"business": "Żabka", "opening_hours": "06:00-23:00", "address": "ul. Długa Grobla 8", "city": "Gdańsk", "map_link": "/godziny-otwarcia-sklepow/gdansk/gdansk-dluga-grobla-8,125940/"},
{"business": "Żabka", "opening_hours": "06:00-23:00", "address": "ul. Wilcza 1", "city": "Gdańsk", "map_link": "/godziny-otwarcia-sklepow/gdansk/gdansk-wilcza-1/"},
{"business": "Żabka", "opening_hours": "06:00-23:00", "address": "ul. Rajska 4", "city": "Gdańsk", "map_link": "/godziny-otwarcia-sklepow/gdansk/gdansk-rajska-4,116167/"},
{"business": "Żabka", "opening_hours": "06:00-23:00", "address": "ul. Kamienna Grobla 30", "city": "Gdańsk", "map_link": "/godziny-otwarcia-sklepow/gdansk/gdansk-kamiena-grobla-30/"},
{"business": "Żabka", "opening_hours": "06:00-23:00", "address": "ul. Jana Heweliusza 3", "city": "Gdańsk", "map_link": "/godziny-otwarcia-sklepow/gdansk/gdansk-jana-heweliusza-3,116212/"},
{"business": "Żabka", "opening_hours": "06:00-23:00", "address": "ul. Jana Heweliusza 19", "city": "Gdańsk", "map_link": "/godziny-otwarcia-sklepow/gdansk/gdansk-jana-heweliusza-19,125885/"},
{"business": "Żabka", "opening_hours": "06:00-23:00", "address": "ul. Toruńska 20", "city": "Gdańsk", "map_link": "/godziny-otwarcia-sklepow/gdansk/gdansk-torunska-20/"},
{"business": "Żabka", "opening_hours": "06:00-23:00", "address": "ul. Elbląska 65", "city": "Gdańsk", "map_link": "/godziny-otwarcia-sklepow/gdansk/gdansk-elblaska-65,116194/"},
{"business": "Żabka", "opening_hours": "06:00-23:00", "address": "ul. Ks. Jerzego Popiełuszki 26", "city": "Gdańsk", "map_link": "/godziny-otwarcia-sklepow/gdansk/gdansk-ks-jerzego-popieluszki-26,183276/"},
{"business": "Żabka", "opening_hours": "06:00-23:00", "address": "ul. Nowomiejska 3", "city": "Gdańsk", "map_link": "/godziny-otwarcia-sklepow/gdansk/gdansk-nowomiejska-3/"},
{"business": "Żabka", "opening_hours": "06:00-23:00", "address": "ul. Robotnicza 16", "city": "Gdańsk", "map_link": "/godziny-otwarcia-sklepow/gdansk/gdansk-robotnicza-16,153717/"},
{"business": "Żabka", "opening_hours": "06:00-23:00", "address": "ul. Powstańców Warszawskich 19", "city": "Gdańsk", "map_link": "/godziny-otwarcia-sklepow/gdansk/gdansk-powstancow-warszawskich-19/"},
{"business": "Żabka", "opening_hours": "06:00-23:00", "address": "ul. Bajki 2C", "city": "Gdańsk", "map_link": "/godziny-otwarcia-sklepow/gdansk/gdansk-bajki-2c/"},
{"business": "Żabka", "opening_hours": "06:00-23:00", "address": "ul. Teofila Lenartowicza 24", "city": "Gdańsk", "map_link": "/godziny-otwarcia-sklepow/gdansk/gdansk-teofila-lenartowicza-24,116282/"},
{"business": "Żabka", "opening_hours": "06:00-23:00", "address": "ul. Zakopiańska 10A", "city": "Gdańsk", "map_link": "/godziny-otwarcia-sklepow/gdansk/gdansk-zakopianska-10a/"},
{"business": "Żabka", "opening_hours": "06:00-23:00", "address": "ul. Kartuska 78", "city": "Gdańsk", "map_link": "/godziny-otwarcia-sklepow/gdansk/gdansk-kartuska-78/"},
{"business": "Żabka", "opening_hours": "06:00-23:00", "address": "ul. Stanisława Worcella 2A", "city": "Gdańsk", "map_link": "/godziny-otwarcia-sklepow/gdansk/gdansk-stanislawa-worcela-2a,116294/"},
{"business": "Żabka", "opening_hours": "06:00-23:00", "address": "ul. Trakt Św. Wojciecha 18A", "city": "Gdańsk", "map_link": "/godziny-otwarcia-sklepow/gdansk/gdansk-trakt-sw-wojciecha-18a,116168/"},
{"business": "Żabka", "opening_hours": "06:00-23:00", "address": "ul. Jacka Malczewskiego 85", "city": "Gdańsk", "map_link": "/godziny-otwarcia-sklepow/gdansk/gdansk-jacka-malczewskiego-85,186444/"},
{"business": "Żabka", "opening_hours": "06:00-23:00", "address": "ul. Henryka Hubertusa Jabłońskiego 17/1A", "city": "Gdańsk", "map_link": "/godziny-otwarcia-sklepow/gdansk/gdansk-henryka-hubertusa-jablonskiego-17-1a/"},
{"business": "Żabka", "opening_hours": "06:00-23:00", "address": "ul. Tytusa Chałubińskiego 31", "city": "Gdańsk", "map_link": "/godziny-otwarcia-sklepow/gdansk/gdansk-tytusa-chalubinskiego-31/"},
{"business": "Żabka", "opening_hours": "06:00-23:00", "address": "ul. Marcina Dragana 15f", "city": "Gdańsk", "map_link": "/godziny-otwarcia-sklepow/gdansk/gdansk-marcina-dragana-15f,19821/"},
{"business": "Żabka", "opening_hours": "06:00-23:00", "address": "ul. Szara 35", "city": "Gdańsk", "map_link": "/godziny-otwarcia-sklepow/gdansk/gdansk-szara-35/"},
{"business": "Żabka", "opening_hours": "06:00-23:00", "address": "ul. Niccolo Paganiniego 2", "city": "Gdańsk", "map_link": "/godziny-otwarcia-sklepow/gdansk/gdansk-nicolo-paganiniego-2/"},
{"business": "Żabka", "opening_hours": "06:00-23:00", "address": "ul. Trakt Św. Wojciecha 123", "city": "Gdańsk", "map_link": "/godziny-otwarcia-sklepow/gdansk/gdansk-trakt-sw-wojciecha-123,176540/"},
{"business": "Żabka", "opening_hours": "06:00-23:00", "address": "ul. Władysława Cieszyńskiego 29", "city": "Gdańsk", "map_link": "/godziny-otwarcia-sklepow/gdansk/gdansk-wladyslawa-cieszynskiego-29/"},
{"business": "Żabka", "opening_hours": "06:00-23:00", "address": "ul. Romualda Traugutta 86", "city": "Gdańsk", "map_link": "/godziny-otwarcia-sklepow/gdansk/gdansk-romualda-trauguta-86,144239/"},
{"business": "Żabka", "opening_hours": "06:00-23:00", "address": "ul. Ignacego Paderewskiego 9/1A", "city": "Gdańsk", "map_link": "/godziny-otwarcia-sklepow/gdansk/gdansk-ignacego-paderewskiego-9-1a/"},
{"business": "Żabka", "opening_hours": "06:00-23:00", "address": "ul. Ignacego Paderewskiego 11B", "city": "Łódź", "map_link": "/godziny-otwarcia-sklepow/lodz/lodz-ignacego-paderewskiego-1b/"},
{"business": "Żabka", "opening_hours": "06:00-23:00", "address": "ul. Ignacego Paderewskiego 55", "city": "Łódź", "map_link": "/godziny-otwarcia-sklepow/lodz/lodz-ignacego-paderewskiego-5/"},
{"business": "Żabka", "opening_hours": "06:00-23:00", "address": "ul. Chwaszczyńska 7", "city": "Gdańsk", "map_link": "/godziny-otwarcia-sklepow/gdansk/gdansk-chwaszczynska-7,116185/"},
{"business": "Żabka", "opening_hours": "06:00-23:00", "address": "ul. Gościnna 5", "city": "Gdańsk", "map_link": "/godziny-otwarcia-sklepow/gdansk/gdansk-goscina-5,116199/"},
{"business": "Żabka", "opening_hours": "06:00-23:00", "address": "ul. Władysława Cieszyńskiego 6", "city": "Gdańsk", "map_link": "/godziny-otwarcia-sklepow/gdansk/gdansk-wladyslawa-cieszynskiego-6,116291/"},
{"business": "Żabka", "opening_hours": "06:00-23:00", "address": "ul. Kliniczna 1B", "city": "Gdańsk", "map_link": "/godziny-otwarcia-sklepow/gdansk/gdansk-kliniczna-1b,116227/"},
{"business": "Auchan Supermarket", "opening_hours": "07:00-21:00", "address": "ul. Złota Karczma 26", "city": "Gdańsk", "map_link": "/godziny-otwarcia-sklepow/gdansk/gdansk-zlota-karczma-26,135224/"},
{"business": "Auchan Supermarket", "opening_hours": "07:00-21:00", "address": "ul. Redłowska 41", "city": "Gdynia", "map_link": "/godziny-otwarcia-sklepow/gdynia/gdynia-redlowska-41,121361/"},
{"business": "Żabka", "opening_hours": "06:00-23:00", "address": "ul. Wilhelma Stryjewskiego 19", "city": "Gdańsk", "map_link": "/godziny-otwarcia-sklepow/gdansk/gdansk-wilhelma-stryjewskiego-19/"},
{"business": "Żabka", "opening_hours": "06:00-23:00", "address": "ul. Mikołaja Reja 38", "city": "Gdańsk", "map_link": "/godziny-otwarcia-sklepow/gdansk/gdansk-mikolaja-reja-38,135990/"},
{"business": "Żabka", "opening_hours": "06:00-23:00", "address": "ul. Stanisława Wyspiańskiego 2", "city": "Gdańsk", "map_link": "/godziny-otwarcia-sklepow/gdansk/gdansk-stanislawa-wyspianskiego-2,153505/"},
{"business": "Żabka", "opening_hours": "06:00-23:00", "address": "ul. Otwarta 61-63", "city": "Gdańsk", "map_link": "/godziny-otwarcia-sklepow/gdansk/gdansk-otwarta-61-63,116247/"},
{"business": "Żabka", "opening_hours": "06:00-23:00", "address": "ul. Kolonia Zręby 14", "city": "Gdańsk", "map_link": "/godziny-otwarcia-sklepow/gdansk/gdansk-kolonia-zreby-14,126656/"},
{"business": "Żabka", "opening_hours": "06:00-23:00", "address": "ul. Platynowa 10", "city": "Gdańsk", "map_link": "/godziny-otwarcia-sklepow/gdansk/gdansk-platynowa-10,126118/"},
{"business": "Żabka", "opening_hours": "06:00-23:00", "address": "ul. Platynowa 2", "city": "Gdańsk", "map_link": "/godziny-otwarcia-sklepow/gdansk/gdansk-platynowa-2,116163/"},
{"business": "Żabka", "opening_hours": "06:00-23:00", "address": "ul. Szpaki 1", "city": "Gdańsk", "map_link": "/godziny-otwarcia-sklepow/gdansk/gdansk-szpaki-1/"},
{"business": "Żabka", "opening_hours": "06:00-23:00", "address": "ul. Do Studzienki 11", "city": "Gdańsk", "map_link": "/godziny-otwarcia-sklepow/gdansk/gdansk-do-studzienki-1,116190/"},
{"business": "Żabka", "opening_hours": "06:00-23:00", "address": "ul. Ks. Leona Miszewskiego 18", "city": "Gdańsk", "map_link": "/godziny-otwarcia-sklepow/gdansk/gdansk-ks-leona-miszewskiego-18/"},
{"business": "Żabka", "opening_hours": "06:00-23:00", "address": "al. Grunwaldzka 99-101", "city": "Gdańsk", "map_link": "/godziny-otwarcia-sklepow/gdansk/gdansk-grunwaldzka-9-101/"},
{"business": "Żabka", "opening_hours": "06:00-23:00", "address": "ul. Franciszka Rakoczego 30", "city": "Gdańsk", "map_link": "/godziny-otwarcia-sklepow/gdansk/gdansk-franciszka-rakoczego-30/"},
{"business": "Żabka", "opening_hours": "06:00-23:00", "address": "ul. Pawia 4", "city": "Gdańsk", "map_link": "/godziny-otwarcia-sklepow/gdansk/gdansk-pawia-4,116249/"},
{"business": "Żabka", "opening_hours": "06:00-23:00", "address": "ul. Nieborowska 10", "city": "Gdańsk", "map_link": "/godziny-otwarcia-sklepow/gdansk/gdansk-nieborowska-10,116242/"},
{"business": "Żabka", "opening_hours": "06:00-23:00", "address": "ul. Rogalińska 8", "city": "Gdańsk", "map_link": "/godziny-otwarcia-sklepow/gdansk/gdansk-rogalinska-8/"},
{"business": "Żabka", "opening_hours": "06:00-23:00", "address": "ul. Dąbrówki 922 I 3", "city": "Gdańsk", "map_link": "/godziny-otwarcia-sklepow/gdansk/gdansk-dabrowki-92-i-3,173310/"},
{"business": "Żabka", "opening_hours": "06:00-23:00", "address": "ul. Zofii Nałkowskiej 3", "city": "Gdańsk", "map_link": "/godziny-otwarcia-sklepow/gdansk/gdansk-zofi-nalkowskiej-3/"},
{"business": "Żabka", "opening_hours": "06:00-23:00", "address": "ul. Stanisława Lema 2", "city": "Gdańsk", "map_link": "/godziny-otwarcia-sklepow/gdansk/gdansk-stanislawa-lema-2,126121/"},
{"business": "Żabka", "opening_hours": "06:00-23:00", "address": "ul. Jaśkowa Dolina 130", "city": "Gdańsk", "map_link": "/godziny-otwarcia-sklepow/gdansk/gdansk-jaskowa-dolina-130/"},
{"business": "Żabka", "opening_hours": "06:00-23:00", "address": "ul. Jaśkowa Dolina 14", "city": "Gdańsk", "map_link": "/godziny-otwarcia-sklepow/gdansk/gdansk-jaskowa-dolina-14,144354/"},
{"business": "Żabka", "opening_hours": "06:00-23:00", "address": "ul. Jaśkowa Dolina 132", "city": "Gdańsk", "map_link": "/godziny-otwarcia-sklepow/gdansk/gdansk-jaskowa-dolina-132/"},
{"business": "Żabka", "opening_hours": "06:00-23:00", "address": "ul. Ludwika Waryńskiego 4", "city": "Gdańsk", "map_link": "/godziny-otwarcia-sklepow/gdansk/gdansk-ludwika-warynskiego-4,126171/"},
{"business": "Żabka", "opening_hours": "06:00-23:00", "address": "ul. Adama Mickiewicza 9", "city": "Gdańsk", "map_link": "/godziny-otwarcia-sklepow/gdansk/gdansk-adama-mickiewicza-9/"},
{"business": "Żabka", "opening_hours": "06:00-23:00", "address": "ul. Ludwika Waryńskiego 26/27", "city": "Gdańsk", "map_link": "/godziny-otwarcia-sklepow/gdansk/gdansk-ludwika-warynskiego-26-27/"},
{"business": "Żabka", "opening_hours": "06:00-23:00", "address": "ul. Stanisława Wyspiańskiego 25", "city": "Gdańsk", "map_link": "/godziny-otwarcia-sklepow/gdansk/gdansk-stanislawa-wyspianskiego-25/"},
{"business": "Żabka", "opening_hours": "06:00-23:00", "address": "ul. Partyzantów 14/101", "city": "Gdańsk", "map_link": "/godziny-otwarcia-sklepow/gdansk/gdansk-partyzantow-14-101,116248/"},
{"business": "Żabka", "opening_hours": "06:00-23:00", "address": "ul. Płocka 5", "city": "Gdańsk", "map_link": "/godziny-otwarcia-sklepow/gdansk/gdansk-plocka-5,116164/"},
{"business": "Żabka", "opening_hours": "06:00-23:00", "address": "ul. Cedrowa 31", "city": "Gdańsk", "map_link": "/godziny-otwarcia-sklepow/gdansk/gdansk-cedrowa-31/"},
{"business": "Żabka", "opening_hours": "06:00-23:00", "address": "ul. Przemyska 41A", "city": "Gdańsk", "map_link": "/godziny-otwarcia-sklepow/gdansk/gdansk-przemyska-41a/"},
{"business": "Żabka", "opening_hours": "06:00-23:00", "address": "ul. Wajdeloty 10", "city": "Gdańsk", "map_link": "/godziny-otwarcia-sklepow/gdansk/gdansk-wajdeloty-10/"},
{"business": "Żabka", "opening_hours": "06:00-23:00", "address": "ul. Cedrowa 27", "city": "Gdańsk", "map_link": "/godziny-otwarcia-sklepow/gdansk/gdansk-cedrowa-27,116179/"},
{"business": "Żabka", "opening_hours": "06:00-23:00", "address": "ul. Romana Dmowskiego 12", "city": "Gdańsk", "map_link": "/godziny-otwarcia-sklepow/gdansk/gdansk-romana-dmowskiego-12/"},
{"business": "Żabka", "opening_hours": "06:00-23:00", "address": "ul. Romana Dmowskiego 14", "city": "Gdańsk", "map_link": "/godziny-otwarcia-sklepow/gdansk/gdansk-romana-dmowskiego-14,170226/"},
{"business": "Żabka", "opening_hours": "06:00-23:00", "address": "ul. Warneńska 2", "city": "Gdańsk", "map_link": "/godziny-otwarcia-sklepow/gdansk/gdansk-warnenska-2,116285/"},
{"business": "Żabka", "opening_hours": "06:00-23:00", "address": "ul. Bolesława Chrobrego 27", "city": "Gdańsk", "map_link": "/godziny-otwarcia-sklepow/gdansk/gdansk-boleslawa-chrobrego-27,126299/"},
{"business": "Żabka", "opening_hours": "06:00-23:00", "address": "ul. Klonowa 4B i 4C", "city": "Gdańsk", "map_link": "/godziny-otwarcia-sklepow/gdansk/gdansk-klonowa-4b-i-4c,125698/"},
{"business": "Żabka", "opening_hours": "06:00-23:00", "address": "ul. Jana Kilińskiego 9", "city": "Gdańsk", "map_link": "/godziny-otwarcia-sklepow/gdansk/gdansk-jana-kilinskiego-9/"},
{"business": "Żabka", "opening_hours": "06:00-23:00", "address": "ul. Jana Kilińskiego 35", "city": "Siedlce", "map_link": "/godziny-otwarcia-sklepow/siedlce/siedlce-jana-kilinskiego-35/"},
{"business": "Żabka", "opening_hours": "06:00-23:00", "address": "ul. Warszawska 98", "city": "Gdańsk", "map_link": "/godziny-otwarcia-sklepow/gdansk/gdansk-warszawska-98,116286/"},
{"business": "Żabka", "opening_hours": "06:00-23:00", "address": "ul. Franciszka Rakoczego 9", "city": "Gdańsk", "map_link": "/godziny-otwarcia-sklepow/gdansk/gdansk-franciszka-rakoczego-9/"},
{"business": "Żabka", "opening_hours": "06:00-23:00", "address": "ul. Bolesława Chrobrego 60", "city": "Gdańsk", "map_link": "/godziny-otwarcia-sklepow/gdansk/gdansk-boleslawa-chrobrego-60,116175/"},
{"business": "Żabka", "opening_hours": "06:00-23:00", "address": "ul. Piotrkowska 9g", "city": "Gdańsk", "map_link": "/godziny-otwarcia-sklepow/gdansk/gdansk-piotrkowska-9g,173339/"},
{"business": "Żabka", "opening_hours": "06:00-23:00", "address": "ul. Bulońska 18", "city": "Gdańsk", "map_link": "/godziny-otwarcia-sklepow/gdansk/gdansk-bulonska-18,116177/"},
{"business": "Żabka", "opening_hours": "06:00-23:00", "address": "ul. Starowiejska 93", "city": "Gdańsk", "map_link": "/godziny-otwarcia-sklepow/gdansk/gdansk-starowiejska-93/"},
{"business": "Żabka", "opening_hours": "06:00-23:00", "address": "ul. Heleny Marusarzówny 2", "city": "Gdańsk", "map_link": "/godziny-otwarcia-sklepow/gdansk/gdansk-heleny-marusarzowny-2,178557/"},
{"business": "Żabka", "opening_hours": "06:00-23:00", "address": "ul. Świętokrzyska 58 lok. 1/B", "city": "Gdańsk", "map_link": "/godziny-otwarcia-sklepow/gdansk/gdansk-swietokrzyska-58-lok-1-b,153746/"},
{"business": "Żabka", "opening_hours": "06:00-23:00", "address": "ul. Magellana 6a", "city": "Gdańsk", "map_link": "/godziny-otwarcia-sklepow/gdansk/gdansk-magelana-6a/"},
{"business": "Żabka", "opening_hours": "06:00-23:00", "address": "ul. Tadeusza Kościuszki 117A", "city": "Gdańsk", "map_link": "/godziny-otwarcia-sklepow/gdansk/gdansk-tadeusza-kosciuszki-17a,116232/"},
{"business": "Żabka", "opening_hours": "06:00-23:00", "address": "ul. Tadeusza Kościuszki 47", "city": "Gdańsk", "map_link": "/godziny-otwarcia-sklepow/gdansk/gdansk-tadeusza-kosciuszki-47/"},
{"business": "Żabka", "opening_hours": "06:00-23:00", "address": "ul. Juliusza Słowackiego 2A", "city": "Gdańsk", "map_link": "/godziny-otwarcia-sklepow/gdansk/gdansk-juliusza-slowackiego-2a/"},
{"business": "Żabka", "opening_hours": "06:00-23:00", "address": "ul. Juliusza Słowackiego 8", "city": "Katowice", "map_link": "/godziny-otwarcia-sklepow/katowice/katowice-juliusza-slowackiego-8/"},
{"business": "Żabka", "opening_hours": "06:00-23:00", "address": "ul. Srebrna 46/U2", "city": "Gdańsk", "map_link": "/godziny-otwarcia-sklepow/gdansk/gdansk-srebrna-46-u2,126713/"},
{"business": "Żabka", "opening_hours": "06:00-23:00", "address": "al. Rzeczypospolitej 33", "city": "Gdańsk", "map_link": "/godziny-otwarcia-sklepow/gdansk/gdansk-rzeczypospolitej-3,126079/"},
{"business": "Żabka", "opening_hours": "06:00-23:00", "address": "ul. Partyzantów 72/82", "city": "Gdańsk", "map_link": "/godziny-otwarcia-sklepow/gdansk/gdansk-partyzantow-72-82,80458/"},
{"business": "Żabka", "opening_hours": "06:00-23:00", "address": "ul. Myśliwska 22", "city": "Gdańsk", "map_link": "/godziny-otwarcia-sklepow/gdansk/gdansk-mysliwska-2,116238/"},
{"business": "Żabka", "opening_hours": "06:00-23:00", "address": "ul. Myśliwska 33C/52", "city": "Gdańsk", "map_link": "/godziny-otwarcia-sklepow/gdansk/gdansk-mysliwska-3c-52,116239/"},
{"business": "Żabka", "opening_hours": "06:00-23:00", "address": "ul. Letnicka 1g", "city": "Gdańsk", "map_link": "/godziny-otwarcia-sklepow/gdansk/gdansk-letnicka-1g/"},
{"business": "Żabka", "opening_hours": "06:00-23:00", "address": "ul. Grudziądzka 4 Kl. A", "city": "Gdańsk", "map_link": "/godziny-otwarcia-sklepow/gdansk/gdansk-grudziadzka-4-kl-a,176534/"},
{"business": "Żabka", "opening_hours": "06:00-23:00", "address": "ul. Srebrna 2", "city": "Gdańsk", "map_link": "/godziny-otwarcia-sklepow/gdansk/gdansk-srebrna-2,183590/"},
{"business": "Żabka", "opening_hours": "06:00-23:00", "address": "ul. Stefana Drzewieckiego 9/3", "city": "Gdańsk", "map_link": "/godziny-otwarcia-sklepow/gdansk/gdansk-stefana-drzewieckiego-9-3/"},
{"business": "Żabka", "opening_hours": "06:00-23:00", "address": "ul. Żwirki i Wigury 10", "city": "Gdańsk", "map_link": "/godziny-otwarcia-sklepow/gdansk/gdansk-zwirki-i-wigury-10/"},
{"business": "Żabka", "opening_hours": "06:00-23:00", "address": "ul. Królewskie Wzgórze 1", "city": "Gdańsk", "map_link": "/godziny-otwarcia-sklepow/gdansk/gdansk-krolewskie-wzgorze-1,126189/"},
{"business": "Żabka", "opening_hours": "06:00-23:00", "address": "ul. Bolesława Leśmiana 9 lok. U14", "city": "Gdańsk", "map_link": "/godziny-otwarcia-sklepow/gdansk/gdansk-boleslawa-lesmiana-9-lok-u14/"},
{"business": "Żabka", "opening_hours": "06:00-23:00", "address": "ul. Władysława IV 7 .", "city": "Gdańsk", "map_link": "/godziny-otwarcia-sklepow/gdansk/gdansk-wladyslawa-iv-7,183605/"},
{"business": "Żabka", "opening_hours": "06:00-23:00", "address": "ul. Dywizjonu 303 303 nr 1", "city": "Gdańsk", "map_link": "/godziny-otwarcia-sklepow/gdansk/gdansk-dywizjonu-303-303-nr-1,126028/"},
{"business": "Żabka", "opening_hours": "06:00-23:00", "address": "ul. Starowiejska 48", "city": "Gdańsk", "map_link": "/godziny-otwarcia-sklepow/gdansk/gdansk-starowiejska-48,186507/"},
{"business": "Żabka", "opening_hours": "06:00-23:00", "address": "ul. Wolności 21E", "city": "Gdańsk", "map_link": "/godziny-otwarcia-sklepow/gdansk/gdansk-wolnosci-21e,135931/"},
{"business": "Żabka", "opening_hours": "06:00-23:00", "address": "ul. Antoniego Słonimskiego 1/62", "city": "Gdańsk", "map_link": "/godziny-otwarcia-sklepow/gdansk/gdansk-antoniego-slonimskiego-1-62/"},
{"business": "Żabka", "opening_hours": "06:00-23:00", "address": "ul. Mariana Hemara 2", "city": "Gdańsk", "map_link": "/godziny-otwarcia-sklepow/gdansk/gdansk-mariana-hemara-2/"},
{"business": "Żabka", "opening_hours": "06:00-23:00", "address": "ul. Juliusza Słowackiego 51", "city": "Gdańsk", "map_link": "/godziny-otwarcia-sklepow/gdansk/gdansk-juliusza-slowackiego-51/"},
{"business": "Żabka", "opening_hours": "06:00-23:00", "address": "ul. Bernarda Chrzanowskiego 11", "city": "Gdańsk", "map_link": "/godziny-otwarcia-sklepow/gdansk/gdansk-bernarda-chrzanowskiego-1,136230/"},
{"business": "Żabka", "opening_hours": "06:00-23:00", "address": "al. Jana Pawła II 23 C", "city": "Gdańsk", "map_link": "/godziny-otwarcia-sklepow/gdansk/gdansk-jana-pawla-i-23-c/"},
{"business": "Żabka", "opening_hours": "06:00-23:00", "address": "al. Jana Pawła II 6A", "city": "Gdańsk", "map_link": "/godziny-otwarcia-sklepow/gdansk/gdansk-jana-pawla-i-6a/"},
{"business": "Żabka", "opening_hours": "06:00-23:00", "address": "ul. Zbigniewa Burzyńskiego 9", "city": "Gdańsk", "map_link": "/godziny-otwarcia-sklepow/gdansk/gdansk-zbigniewa-burzynskiego-9,116178/"},
{"business": "Żabka", "opening_hours": "06:00-23:00", "address": "ul. Kartuska 195A", "city": "Gdańsk", "map_link": "/godziny-otwarcia-sklepow/gdansk/gdansk-kartuska-195a,116223/"},
{"business": "Żabka", "opening_hours": "06:00-23:00", "address": "ul. Kartuska 35 i 37", "city": "Gdańsk", "map_link": "/godziny-otwarcia-sklepow/gdansk/gdansk-kartuska-35-i-37,126114/"},
{"business": "Żabka", "opening_hours": "06:00-23:00", "address": "ul. Kartuska 345B/U1", "city": "Gdańsk", "map_link": "/godziny-otwarcia-sklepow/gdansk/gdansk-kartuska-345b-u1,125495/"},
{"business": "Żabka", "opening_hours": "06:00-23:00", "address": "ul. Kartuska 358A", "city": "Gdańsk", "map_link": "/godziny-otwarcia-sklepow/gdansk/gdansk-kartuska-358a,116226/"},
{"business": "Żabka", "opening_hours": "06:00-23:00", "address": "ul. Kartuska 246 Lok. UŻ2", "city": "Gdańsk", "map_link": "/godziny-otwarcia-sklepow/gdansk/gdansk-kartuska-246-lok-uz2,142963/"},
{"business": "Żabka", "opening_hours": "06:00-23:00", "address": "ul. Konstantego Bergiela 2B/10", "city": "Gdańsk", "map_link": "/godziny-otwarcia-sklepow/gdansk/gdansk-konstantego-bergiela-2b-10,116172/"},
{"business": "Żabka", "opening_hours": "06:00-23:00", "address": "ul. Myśliwskie Wzgórze 18", "city": "Gdańsk", "map_link": "/godziny-otwarcia-sklepow/gdansk/gdansk-mysliwskie-wzgorze-18,116240/"},
{"business": "Żabka", "opening_hours": "06:00-23:00", "address": "ul. Franciszka Hynka 65", "city": "Gdańsk", "map_link": "/godziny-otwarcia-sklepow/gdansk/gdansk-franciszka-hynka-65,116209/"},
{"business": "Żabka", "opening_hours": "06:00-23:00", "address": "ul. Franciszka Hynka 18", "city": "Gdańsk", "map_link": "/godziny-otwarcia-sklepow/gdansk/gdansk-franciszka-hynka-18,178555/"},
{"business": "Żabka", "opening_hours": "06:00-23:00", "address": "ul. Mieczysława Karłowicza 86", "city": "Gdańsk", "map_link": "/godziny-otwarcia-sklepow/gdansk/gdansk-mieczyslawa-karlowicza-86/"},
{"business": "Żabka", "opening_hours": "06:00-23:00", "address": "ul. Hokejowa 23/U2", "city": "Gdańsk", "map_link": "/godziny-otwarcia-sklepow/gdansk/gdansk-hokejowa-23-u2,125615/"},
{"business": "Żabka", "opening_hours": "06:00-23:00", "address": "ul. Lawendowe Wzgórze 23/ U1 I U2", "city": "Gdańsk", "map_link": "/godziny-otwarcia-sklepow/gdansk/gdansk-lawendowe-wzgorze-23-u1-i-u2,176536/"},
{"business": "Żabka", "opening_hours": "06:00-23:00", "address": "ul. Lawendowe Wzgórze 10", "city": "Gdańsk", "map_link": "/godziny-otwarcia-sklepow/gdansk/gdansk-lawendowe-wzgorze-10/"},
{"business": "Żabka", "opening_hours": "06:00-23:00", "address": "ul. Czerska 65", "city": "Gdańsk", "map_link": "/godziny-otwarcia-sklepow/gdansk/gdansk-czerska-65,183875/"},
{"business": "Żabka", "opening_hours": "06:00-23:00", "address": "ul. Łucznicza 9/U1", "city": "Gdańsk", "map_link": "/godziny-otwarcia-sklepow/gdansk/gdansk-lucznicza-9-u1,125415/"},
{"business": "Żabka", "opening_hours": "06:00-23:00", "address": "ul. Jabłoniowa 18/28", "city": "Gdańsk", "map_link": "/godziny-otwarcia-sklepow/gdansk/gdansk-jabloniowa-18-28/"},
{"business": "Żabka", "opening_hours": "06:00-23:00", "address": "ul. Ks. Bernarda Sychty 10A", "city": "Gdańsk", "map_link": "/godziny-otwarcia-sklepow/gdansk/gdansk-ks-bernarda-sychty-10a/"},
{"business": "Żabka", "opening_hours": "06:00-23:00", "address": "al. Jana Pawła II 1C", "city": "Gdańsk", "map_link": "/godziny-otwarcia-sklepow/gdansk/gdansk-jana-pawla-i-1c/"},
{"business": "Żabka", "opening_hours": "06:00-23:00", "address": "al. Jana Pawła II 3A", "city": "Gdańsk", "map_link": "/godziny-otwarcia-sklepow/gdansk/gdansk-jana-pawla-i-3a/"},
{"business": "Żabka", "opening_hours": "06:00-23:00", "address": "al. Jana Pawła II 11 b", "city": "Gdańsk", "map_link": "/godziny-otwarcia-sklepow/gdansk/gdansk-jana-pawla-i-1-b,142666/"},
{"business": "Żabka", "opening_hours": "06:00-23:00", "address": "ul. Ignacego Krasickiego 9E", "city": "Gdańsk", "map_link": "/godziny-otwarcia-sklepow/gdansk/gdansk-ignacego-krasickiego-9e/"},
{"business": "Żabka", "opening_hours": "06:00-23:00", "address": "ul. Gdańska 16", "city": "Gdańsk", "map_link": "/godziny-otwarcia-sklepow/gdansk/gdansk-gdanska-16/"},
{"business": "Żabka", "opening_hours": "06:00-23:00", "address": "ul. Fryderyka Chopina 33B", "city": "Gdańsk", "map_link": "/godziny-otwarcia-sklepow/gdansk/gdansk-fryderyka-chopina-3b,116184/"},
{"business": "Żabka", "opening_hours": "06:00-23:00", "address": "ul. Dworska 27", "city": "Gdańsk", "map_link": "/godziny-otwarcia-sklepow/gdansk/gdansk-dworska-27,26957/"},
{"business": "Żabka", "opening_hours": "06:00-23:00", "address": "ul. Orzechowa 1", "city": "Gdańsk", "map_link": "/godziny-otwarcia-sklepow/gdansk/gdansk-orzechowa-1,126551/"},
{"business": "Żabka", "opening_hours": "06:00-23:00", "address": "ul. Pilotów 9", "city": "Gdańsk", "map_link": "/godziny-otwarcia-sklepow/gdansk/gdansk-pilotow-9/"},
{"business": "Żabka", "opening_hours": "06:00-23:00", "address": "ul. Głuszca 1", "city": "Gdańsk", "map_link": "/godziny-otwarcia-sklepow/gdansk/gdansk-gluszca-1/"},
{"business": "Żabka", "opening_hours": "06:00-23:00", "address": "ul. Wielkopolska 70", "city": "Gdańsk", "map_link": "/godziny-otwarcia-sklepow/gdansk/gdansk-wielkopolska-70/"},
{"business": "Żabka", "opening_hours": "06:00-23:00", "address": "ul. Dworska 14", "city": "Gdańsk", "map_link": "/godziny-otwarcia-sklepow/gdansk/gdansk-dworska-14/"},
{"business": "Żabka", "opening_hours": "06:00-23:00", "address": "ul. Startowa 2b", "city": "Gdańsk", "map_link": "/godziny-otwarcia-sklepow/gdansk/gdansk-startowa-2b/"},
{"business": "Żabka", "opening_hours": "06:00-23:00", "address": "ul. Startowa 4A", "city": "Gdańsk", "map_link": "/godziny-otwarcia-sklepow/gdansk/gdansk-startowa-4a,116267/"},
{"business": "Żabka", "opening_hours": "06:00-23:00", "address": "ul. Janusza Meissnera 20", "city": "Gdańsk", "map_link": "/godziny-otwarcia-sklepow/gdansk/gdansk-janusza-meisnera-20/"},
{"business": "Żabka", "opening_hours": "06:00-23:00", "address": "ul. Jabłoniowa 29A", "city": "Gdańsk", "map_link": "/godziny-otwarcia-sklepow/gdansk/gdansk-jabloniowa-29a,116160/"},
{"business": "Żabka", "opening_hours": "06:00-23:00", "address": "ul. Olsztyńska 3C/11", "city": "Gdańsk", "map_link": "/godziny-otwarcia-sklepow/gdansk/gdansk-olsztynska-3c-1,116246/"},
{"business": "Żabka", "opening_hours": "06:00-23:00", "address": "ul. gen. Władysława Andersa 22", "city": "Gdańsk", "map_link": "/godziny-otwarcia-sklepow/gdansk/gdansk-gen-wladyslawa-andersa-2/"},
{"business": "Żabka", "opening_hours": "06:00-23:00", "address": "ul. Alfonsa Flisykowskiego 15", "city": "Gdańsk", "map_link": "/godziny-otwarcia-sklepow/gdansk/gdansk-alfonsa-flisykowskiego-15/"},
{"business": "Żabka", "opening_hours": "06:00-23:00", "address": "ul. Nasza 21", "city": "Borkowo", "map_link": "/godziny-otwarcia-sklepow/borkowo/borkowo-nasza-21,186523/"},
{"business": "Żabka", "opening_hours": "06:00-23:00", "address": "ul. Konrada Guderskiego 2/III KL.B", "city": "Gdańsk", "map_link": "/godziny-otwarcia-sklepow/gdansk/gdansk-konrada-guderskiego-2-i-kl-b,125354/"},
{"business": "Żabka", "opening_hours": "06:00-23:00", "address": "ul. Konrada Guderskiego 66", "city": "Gdańsk", "map_link": "/godziny-otwarcia-sklepow/gdansk/gdansk-konrada-guderskiego-6/"},
{"business": "Żabka", "opening_hours": "06:00-23:00", "address": "ul. Jelitkowski Dwór 2/1", "city": "Gdańsk", "map_link": "/godziny-otwarcia-sklepow/gdansk/gdansk-jelitkowski-dwor-2-1,116218/"},
{"business": "Żabka", "opening_hours": "06:00-23:00", "address": "ul. Kasztanowa 15", "city": "Borkowo", "map_link": "/godziny-otwarcia-sklepow/borkowo/borkowo-kasztanowa-15,135968/"},
{"business": "Żabka", "opening_hours": "06:00-23:00", "address": "ul. Antoniego Abrahama 15B", "city": "Gdańsk", "map_link": "/godziny-otwarcia-sklepow/gdansk/gdansk-antoniego-abrahama-15b/"},
{"business": "Żabka", "opening_hours": "06:00-23:00", "address": "al. Rzeczypospolitej 3", "city": "Gdańsk", "map_link": "/godziny-otwarcia-sklepow/gdansk/gdansk-rzeczypospolitej-3,116259/"},
{"business": "Żabka", "opening_hours": "06:00-23:00", "address": "al. Rzeczypospolitej 4D", "city": "Gdańsk", "map_link": "/godziny-otwarcia-sklepow/gdansk/gdansk-rzeczypospolitej-4d,116260/"},
{"business": "Żabka", "opening_hours": "06:00-23:00", "address": "ul. Potęgowska 12/49", "city": "Gdańsk", "map_link": "/godziny-otwarcia-sklepow/gdansk/gdansk-potegowska-12-49,116254/"},
{"business": "Żabka", "opening_hours": "06:00-23:00", "address": "Współczesna 1R", "city": "Borkowo", "map_link": "/godziny-otwarcia-sklepow/borkowo/borkowo-wspolczesna-1r,115808/"},
{"business": "Żabka", "opening_hours": "06:00-23:00", "address": "ul. Grudziądzka 10 Lok. 121", "city": "Gdańsk", "map_link": "/godziny-otwarcia-sklepow/gdansk/gdansk-grudziadzka-10-lok-121,143736/"},
{"business": "Żabka", "opening_hours": "06:00-23:00", "address": "ul. Gdańska 2", "city": "Gdańsk", "map_link": "/godziny-otwarcia-sklepow/gdansk/gdansk-gdanska-2/"},
{"business": "Żabka", "opening_hours": "06:00-23:00", "address": "ul. Zeusa 82/U1 U2", "city": "Kowale", "map_link": "/godziny-otwarcia-sklepow/kowale__109750/kowale-zeusa-82-u1-u2,125572/"},
{"business": "Żabka", "opening_hours": "06:00-23:00", "address": "ul. Zeusa 14", "city": "Kowale", "map_link": "/godziny-otwarcia-sklepow/kowale__109750/kowale-zeusa-14,186481/"},
{"business": "Żabka", "opening_hours": "06:00-23:00", "address": "ul. Prezydenta Lecha Kaczyńskiego 31", "city": "Gdańsk", "map_link": "/godziny-otwarcia-sklepow/gdansk/gdansk-prezydenta-lecha-kaczynskiego-31/"},
{"business": "Żabka", "opening_hours": "06:00-23:00", "address": "ul. Tysiąclecia 24/6", "city": "Gdańsk", "map_link": "/godziny-otwarcia-sklepow/gdansk/gdansk-tysiaclecia-24-6,125606/"},
{"business": "Żabka", "opening_hours": "06:00-23:00", "address": "ul. Obrońców Wybrzeża 10B", "city": "Gdańsk", "map_link": "/godziny-otwarcia-sklepow/gdansk/gdansk-obroncow-wybrzeza-10b/"},
{"business": "Żabka", "opening_hours": "06:00-23:00", "address": "ul. Stężycka 64 lok. 1 i 2", "city": "Gdańsk", "map_link": "/godziny-otwarcia-sklepow/gdansk/gdansk-stezycka-64-lok-1-i-2,143670/"},
{"business": "Żabka", "opening_hours": "06:00-23:00", "address": "ul. Obrońców Wybrzeża 3a", "city": "Gdańsk", "map_link": "/godziny-otwarcia-sklepow/gdansk/gdansk-obroncow-wybrzeza-3a,173335/"},
{"business": "Żabka", "opening_hours": "06:00-23:00", "address": "ul. Obrońców Wybrzeża 11/3", "city": "Gdańsk", "map_link": "/godziny-otwarcia-sklepow/gdansk/gdansk-obroncow-wybrzeza-1-3,116245/"},
{"business": "Żabka", "opening_hours": "06:00-23:00", "address": "ul. Obrońców Wybrzeża 2", "city": "Gdańsk", "map_link": "/godziny-otwarcia-sklepow/gdansk/gdansk-obroncow-wybrzeza-2,126048/"},
{"business": "Żabka", "opening_hours": "06:00-23:00", "address": "ul. Obrońców Wybrzeża 27", "city": "Gdańsk", "map_link": "/godziny-otwarcia-sklepow/gdansk/gdansk-obroncow-wybrzeza-27/"},
{"business": "Żabka", "opening_hours": "06:00-23:00", "address": "ul. Kołobrzeska 34", "city": "Gdańsk", "map_link": "/godziny-otwarcia-sklepow/gdansk/gdansk-kolobrzeska-34/"},
{"business": "Żabka", "opening_hours": "06:00-23:00", "address": "ul. Kołobrzeska 5", "city": "Gdańsk", "map_link": "/godziny-otwarcia-sklepow/gdansk/gdansk-kolobrzeska-5,116231/"},
{"business": "Żabka", "opening_hours": "06:00-23:00", "address": "ul. Kołobrzeska 59A", "city": "Gdańsk", "map_link": "/godziny-otwarcia-sklepow/gdansk/gdansk-kolobrzeska-59a,126034/"},
{"business": "Żabka", "opening_hours": "06:00-23:00", "address": "ul. Kołobrzeska 21A", "city": "Gdańsk", "map_link": "/godziny-otwarcia-sklepow/gdansk/gdansk-kolobrzeska-21a/"},
{"business": "Żabka", "opening_hours": "06:00-23:00", "address": "ul. Śląska 12", "city": "Gdańsk", "map_link": "/godziny-otwarcia-sklepow/gdansk/gdansk-slaska-12,176539/"},
{"business": "Żabka", "opening_hours": "06:00-23:00", "address": "ul. Śląska 39A", "city": "Gdańsk", "map_link": "/godziny-otwarcia-sklepow/gdansk/gdansk-slaska-39a,116278/"},
{"business": "Żabka", "opening_hours": "06:00-23:00", "address": "ul. Krzysztofa Komedy 32", "city": "Gdańsk", "map_link": "/godziny-otwarcia-sklepow/gdansk/gdansk-krzysztofa-komedy-32/"},
{"business": "Żabka", "opening_hours": "06:00-23:00", "address": "ul. Krzysztofa Komedy 2", "city": "Gdańsk", "map_link": "/godziny-otwarcia-sklepow/gdansk/gdansk-krzysztofa-komedy-2,162760/"},
{"business": "Żabka", "opening_hours": "06:00-23:00", "address": "ul. Przytulna 7", "city": "Gdańsk", "map_link": "/godziny-otwarcia-sklepow/gdansk/gdansk-przytulna-7,116256/"},
{"business": "Żabka", "opening_hours": "06:00-23:00", "address": "ul. Wita Stwosza 46", "city": "Gdańsk", "map_link": "/godziny-otwarcia-sklepow/gdansk/gdansk-wita-stwosza-46,116290/"},
{"business": "Żabka", "opening_hours": "06:00-23:00", "address": "ul. Gen. Bora-Komorowskiego 39 i 38", "city": "Gdańsk", "map_link": "/godziny-otwarcia-sklepow/gdansk/gdansk-gen-bora-komorowskiego-39-i-38,125679/"},
{"business": "Żabka", "opening_hours": "06:00-23:00", "address": "ul. Prezydenta Lecha Kaczyńskiego 18", "city": "Gdańsk", "map_link": "/godziny-otwarcia-sklepow/gdansk/gdansk-prezydenta-lecha-kaczynskiego-18,183821/"},
{"business": "Żabka", "opening_hours": "06:00-23:00", "address": "ul. Szczecińska 2/1", "city": "Gdańsk", "map_link": "/godziny-otwarcia-sklepow/gdansk/gdansk-szczecinska-2-1,125437/"},
{"business": "Żabka", "opening_hours": "06:00-23:00", "address": "ul. Szczecińska 33", "city": "Gdańsk", "map_link": "/godziny-otwarcia-sklepow/gdansk/gdansk-szczecinska-3,116275/"},
{"business": "Żabka", "opening_hours": "06:00-23:00", "address": "ul. Chłopska 24A", "city": "Gdańsk", "map_link": "/godziny-otwarcia-sklepow/gdansk/gdansk-chlopska-24a,116181/"},
{"business": "Żabka", "opening_hours": "06:00-23:00", "address": "ul. Jagiellońska 8A", "city": "Gdańsk", "map_link": "/godziny-otwarcia-sklepow/gdansk/gdansk-jagielonska-8a,116211/"},
{"business": "Żabka", "opening_hours": "06:00-23:00", "address": "ul. Polanki 31", "city": "Gdańsk", "map_link": "/godziny-otwarcia-sklepow/gdansk/gdansk-polanki-31,116165/"},
{"business": "Żabka", "opening_hours": "06:00-23:00", "address": "al. Grunwaldzka 75", "city": "Gdańsk", "map_link": "/godziny-otwarcia-sklepow/gdansk/gdansk-grunwaldzka-75/"},
{"business": "Żabka", "opening_hours": "06:00-23:00", "address": "al. Grunwaldzka 92/98 .", "city": "Gdańsk", "map_link": "/godziny-otwarcia-sklepow/gdansk/gdansk-grunwaldzka-92-98,176532/"},
{"business": "Żabka", "opening_hours": "06:00-23:00", "address": "al. Grunwaldzka 156", "city": "Gdańsk", "map_link": "/godziny-otwarcia-sklepow/gdansk/gdansk-grunwaldzka-156/"},
{"business": "Żabka", "opening_hours": "06:00-23:00", "address": "al. Grunwaldzka 409", "city": "Gdańsk", "map_link": "/godziny-otwarcia-sklepow/gdansk/gdansk-grunwaldzka-409/"},
{"business": "Żabka", "opening_hours": "06:00-23:00", "address": "al. Grunwaldzka 472", "city": "Gdańsk", "map_link": "/godziny-otwarcia-sklepow/gdansk/gdansk-grunwaldzka-472/"},
{"business": "Żabka", "opening_hours": "06:00-23:00", "address": "al. Grunwaldzka 347", "city": "Gdańsk", "map_link": "/godziny-otwarcia-sklepow/gdansk/gdansk-grunwaldzka-347/"},
{"business": "Żabka", "opening_hours": "06:00-23:00", "address": "al. Grunwaldzka 74", "city": "Gdańsk", "map_link": "/godziny-otwarcia-sklepow/gdansk/gdansk-grunwaldzka-74/"},
{"business": "Żabka", "opening_hours": "06:00-23:00", "address": "al. Grunwaldzka 489", "city": "Gdańsk", "map_link": "/godziny-otwarcia-sklepow/gdansk/gdansk-grunwaldzka-489/"},
{"business": "Żabka", "opening_hours": "06:00-23:00", "address": "al. Grunwaldzka 415", "city": "Gdańsk", "map_link": "/godziny-otwarcia-sklepow/gdansk/gdansk-grunwaldzka-415,116158/"},
{"business": "Żabka", "opening_hours": "06:00-23:00", "address": "al. Grunwaldzka 42", "city": "Gdańsk", "map_link": "/godziny-otwarcia-sklepow/gdansk/gdansk-grunwaldzka-42/"},
{"business": "Żabka", "opening_hours": "06:00-23:00", "address": "al. Grunwaldzka 12", "city": "Gdańsk", "map_link": "/godziny-otwarcia-sklepow/gdansk/gdansk-grunwaldzka-12/"},
{"business": "Żabka", "opening_hours": "06:00-23:00", "address": "ul. Piastowska 82", "city": "Gdańsk", "map_link": "/godziny-otwarcia-sklepow/gdansk/gdansk-piastowska-82,116250/"},
{"business": "Żabka", "opening_hours": "06:00-23:00", "address": "ul. Wita Stwosza 13", "city": "Gdańsk", "map_link": "/godziny-otwarcia-sklepow/gdansk/gdansk-wita-stwosza-13/"},
{"business": "Żabka", "opening_hours": "06:00-23:00", "address": "ul. Bolesława Krzywoustego 13A", "city": "Gdańsk", "map_link": "/godziny-otwarcia-sklepow/gdansk/gdansk-boleslawa-krzywoustego-13a,125983/"},
{"business": "Żabka", "opening_hours": "06:00-23:00", "address": "ul. Piastowska 206", "city": "Gdańsk", "map_link": "/godziny-otwarcia-sklepow/gdansk/gdansk-piastowska-206/"},
{"business": "Żabka", "opening_hours": "06:00-23:00", "address": "ul. Piastowska 97", "city": "Gdańsk", "map_link": "/godziny-otwarcia-sklepow/gdansk/gdansk-piastowska-97,116251/"},
{"business": "Żabka", "opening_hours": "06:00-23:00", "address": "ul. Leona Droszyńskiego 32A", "city": "Gdańsk", "map_link": "/godziny-otwarcia-sklepow/gdansk/gdansk-leona-droszynskiego-32a,116191/"},
{"business": "Żabka", "opening_hours": "06:00-23:00", "address": "ul. Opata Jacka Rybińskiego 5", "city": "Gdańsk", "map_link": "/godziny-otwarcia-sklepow/gdansk/gdansk-opata-jacka-rybinskiego-5,135993/"},
{"business": "Żabka", "opening_hours": "06:00-23:00", "address": "ul. Stefana Rogozińskiego 6/S1", "city": "Pruszcz Gdański", "map_link": "/godziny-otwarcia-sklepow/pruszcz-gdanski/pruszcz-gdanski-stefana-rogozinskiego-6-s1,142822/"},
{"business": "Żabka", "opening_hours": "06:00-23:00", "address": "ul. Cytrowa 2A/1", "city": "Gdańsk", "map_link": "/godziny-otwarcia-sklepow/gdansk/gdansk-cytrowa-2a-1/"},
{"business": "Żabka", "opening_hours": "06:00-23:00", "address": "ul. Bajki 2", "city": "Rotmanka", "map_link": "/godziny-otwarcia-sklepow/rotmanka/rotmanka-bajki-2,118238/"},
{"business": "Żabka", "opening_hours": "06:00-23:00", "address": "ul. Kalinowa 11/5", "city": "Gdańsk", "map_link": "/godziny-otwarcia-sklepow/gdansk/gdansk-kalinowa-1-5/"},
{"business": "Żabka", "opening_hours": "06:00-23:00", "address": "ul. Stary Rynek Oliwski 6", "city": "Gdańsk", "map_link": "/godziny-otwarcia-sklepow/gdansk/gdansk-stary-rynek-oliwski-6/"},
{"business": "Żabka", "opening_hours": "06:00-23:00", "address": "ul. Prof. Mariana Raciborskiego 1C", "city": "Gdańsk", "map_link": "/godziny-otwarcia-sklepow/gdansk/gdansk-prof-mariana-raciborskiego-1c/"},
{"business": "Żabka", "opening_hours": "06:00-23:00", "address": "ul. Gospody 3A", "city": "Gdańsk", "map_link": "/godziny-otwarcia-sklepow/gdansk/gdansk-gospody-3a/"},
{"business": "Żabka", "opening_hours": "06:00-23:00", "address": "ul. Storczykowa 4/1", "city": "Gdańsk", "map_link": "/godziny-otwarcia-sklepow/gdansk/gdansk-storczykowa-4-1,125535/"},
{"business": "Żabka", "opening_hours": "06:00-23:00", "address": "ul. Henryka Arctowskiego 2", "city": "Pruszcz Gdański", "map_link": "/godziny-otwarcia-sklepow/pruszcz-gdanski/pruszcz-gdanski-henryka-arctowskiego-2,173970/"},
{"business": "Żabka", "opening_hours": "06:00-23:00", "address": "ul. Mikołaja Kopernika 39 .", "city": "Pruszcz Gdański", "map_link": "/godziny-otwarcia-sklepow/pruszcz-gdanski/pruszcz-gdanski-mikolaja-kopernika-39,183329/"},
{"business": "Żabka", "opening_hours": "06:00-23:00", "address": "ul. Antoniego Dobrowolskiego 8", "city": "Pruszcz Gdański", "map_link": "/godziny-otwarcia-sklepow/pruszcz-gdanski/pruszcz-gdanski-antoniego-dobrowolskiego-8,126057/"},
{"business": "Żabka", "opening_hours": "06:00-23:00", "address": "ul. Jana Kasprowicza 52/2", "city": "Pruszcz Gdański", "map_link": "/godziny-otwarcia-sklepow/pruszcz-gdanski/pruszcz-gdanski-jana-kasprowicza-52-2/"},
{"business": "Żabka", "opening_hours": "06:00-23:00", "address": "ul. Józefa Czyżewskiego 6", "city": "Gdańsk", "map_link": "/godziny-otwarcia-sklepow/gdansk/gdansk-jozefa-czyzewskiego-6/"},
{"business": "Żabka", "opening_hours": "06:00-23:00", "address": "ul. Subisława 27C/5", "city": "Gdańsk", "map_link": "/godziny-otwarcia-sklepow/gdansk/gdansk-subislawa-27c-5,116271/"},
{"business": "Żabka", "opening_hours": "06:00-23:00", "address": "ul. Jelitkowska 73", "city": "Gdańsk", "map_link": "/godziny-otwarcia-sklepow/gdansk/gdansk-jelitkowska-73/"},
{"business": "Żabka", "opening_hours": "06:00-23:00", "address": "ul. Gospody 19 A/B", "city": "Gdańsk", "map_link": "/godziny-otwarcia-sklepow/gdansk/gdansk-gospody-19-a-b,125591/"},
{"business": "Żabka", "opening_hours": "06:00-23:00", "address": "ul. Bitwy Oliwskiej 21E", "city": "Gdańsk", "map_link": "/godziny-otwarcia-sklepow/gdansk/gdansk-bitwy-oliwskiej-21e/"},
{"business": "Żabka", "opening_hours": "06:00-23:00", "address": "ul. Obrońców Pokoju 32", "city": "Pruszcz Gdański", "map_link": "/godziny-otwarcia-sklepow/pruszcz-gdanski/pruszcz-gdanski-obroncow-pokoju-32,118117/"},
{"business": "Żabka", "opening_hours": "06:00-23:00", "address": "pl. Wyzwolenia 1", "city": "Pruszcz Gdański", "map_link": "/godziny-otwarcia-sklepow/pruszcz-gdanski/pruszcz-gdanski-wyzwolenia-1,176699/"},
{"business": "Żabka", "opening_hours": "06:00-23:00", "address": "ul. Żwirki i Wigury 1a", "city": "Pruszcz Gdański", "map_link": "/godziny-otwarcia-sklepow/pruszcz-gdanski/pruszcz-gdanski-zwirki-i-wigury-1a/"},
{"business": "Żabka", "opening_hours": "06:00-23:00", "address": "ul. Wojciecha Kossaka 2", "city": "Pruszcz Gdański", "map_link": "/godziny-otwarcia-sklepow/pruszcz-gdanski/pruszcz-gdanski-wojciecha-kosaka-2,118115/"},
{"business": "Żabka", "opening_hours": "06:00-23:00", "address": "ul. Wojska Polskiego 18", "city": "Pruszcz Gdański", "map_link": "/godziny-otwarcia-sklepow/pruszcz-gdanski/pruszcz-gdanski-wojska-polskiego-18,118120/"},
{"business": "Żabka", "opening_hours": "06:00-23:00", "address": "ul. Andrzeja Frycza-Modrzewskiego 55", "city": "Pruszcz Gdański", "map_link": "/godziny-otwarcia-sklepow/pruszcz-gdanski/pruszcz-gdanski-andrzeja-frycza-modrzewskiego-5,118113/"},
{"business": "Żabka", "opening_hours": "06:00-23:00", "address": "ul. Obrońców Wybrzeża 14A", "city": "Pruszcz Gdański", "map_link": "/godziny-otwarcia-sklepow/pruszcz-gdanski/pruszcz-gdanski-obroncow-wybrzeza-14a,118118/"},
{"business": "Żabka", "opening_hours": "06:00-23:00", "address": "ul. Urocza 17", "city": "Juszkowo", "map_link": "/godziny-otwarcia-sklepow/juszkowo/juszkowo-urocza-17,126443/"},
{"business": "Żabka", "opening_hours": "06:00-23:00", "address": "ul. Nowatorów 9A", "city": "Gdańsk", "map_link": "/godziny-otwarcia-sklepow/gdansk/gdansk-nowatorow-9a,116244/"},
{"business": "Żabka", "opening_hours": "06:00-23:00", "address": "ul. Nowatorów 23", "city": "Gdańsk", "map_link": "/godziny-otwarcia-sklepow/gdansk/gdansk-nowatorow-23,176537/"},
{"business": "Żabka", "opening_hours": "06:00-23:00", "address": "ul. Nowatorów 3", "city": "Gdańsk", "map_link": "/godziny-otwarcia-sklepow/gdansk/gdansk-nowatorow-3/"},
{"business": "Żabka", "opening_hours": "06:00-23:00", "address": "ul. Raduńska 62a", "city": "Juszkowo", "map_link": "/godziny-otwarcia-sklepow/juszkowo/juszkowo-radunska-62a,186550/"},
{"business": "Żabka", "opening_hours": "06:00-23:00", "address": "ul. Feliksa Nowowiejskiego 1", "city": "Pruszcz Gdański", "map_link": "/godziny-otwarcia-sklepow/pruszcz-gdanski/pruszcz-gdanski-feliksa-nowowiejskiego-1/"},
{"business": "Żabka", "opening_hours": "06:00-23:00", "address": "ul. Turystyczna 6", "city": "Gdańsk", "map_link": "/godziny-otwarcia-sklepow/gdansk/gdansk-turystyczna-6/"},
{"business": "Żabka", "opening_hours": "06:00-23:00", "address": "ul. 3 Maja 9", "city": "Sopot", "map_link": "/godziny-otwarcia-sklepow/sopot/sopot-3-maja-9,118454/"},
{"business": "Żabka", "opening_hours": "06:00-23:00", "address": "al. Niepodległości 712", "city": "Sopot", "map_link": "/godziny-otwarcia-sklepow/sopot/sopot-niepodleglosci-712/"},
{"business": "Żabka", "opening_hours": "06:00-23:00", "address": "ul. Tęczowa 2", "city": "Gdańsk", "map_link": "/godziny-otwarcia-sklepow/gdansk/gdansk-teczowa-2/"},
{"business": "Żabka", "opening_hours": "06:00-23:00", "address": "ul. Kazimierza Wielkiego 7", "city": "Sopot", "map_link": "/godziny-otwarcia-sklepow/sopot/sopot-kazimierza-wielkiego-7,118460/"},
{"business": "Żabka", "opening_hours": "06:00-23:00", "address": "ul. Grunwaldzka 59", "city": "Sopot", "map_link": "/godziny-otwarcia-sklepow/sopot/sopot-grunwaldzka-59,118459/"},
{"business": "Żabka", "opening_hours": "06:00-23:00", "address": "ul. Kazimierza Wielkiego 28", "city": "Gdańsk", "map_link": "/godziny-otwarcia-sklepow/gdansk/gdansk-kazimierza-wielkiego-28,170228/"},
{"business": "Żabka", "opening_hours": "06:00-23:00", "address": "ul. Armii Krajowej 60A", "city": "Sopot", "map_link": "/godziny-otwarcia-sklepow/sopot/sopot-armi-krajowej-60a,136000/"},
{"business": "Żabka", "opening_hours": "06:00-23:00", "address": "ul. Fryderyka Chopina 26", "city": "Sopot", "map_link": "/godziny-otwarcia-sklepow/sopot/sopot-fryderyka-chopina-26/"},
{"business": "Żabka", "opening_hours": "06:00-23:00", "address": "ul. Marynarzy 3", "city": "Sopot", "map_link": "/godziny-otwarcia-sklepow/sopot/sopot-marynarzy-3/"},
{"business": "Żabka", "opening_hours": "06:00-23:00", "address": "ul. Fryderyka Chopina 46", "city": "Sopot", "map_link": "/godziny-otwarcia-sklepow/sopot/sopot-fryderyka-chopina-46/"},
{"business": "Żabka", "opening_hours": "06:00-23:00", "address": "ul. Tadeusza Kościuszki 5/2", "city": "Sopot", "map_link": "/godziny-otwarcia-sklepow/sopot/sopot-tadeusza-kosciuszki-5-2,118463/"},
{"business": "Żabka", "opening_hours": "06:00-23:00", "address": "al. Niepodległości 771", "city": "Sopot", "map_link": "/godziny-otwarcia-sklepow/sopot/sopot-niepodleglosci-71/"},
{"business": "Żabka", "opening_hours": "06:00-23:00", "address": "al. Niepodległości 675", "city": "Sopot", "map_link": "/godziny-otwarcia-sklepow/sopot/sopot-niepodleglosci-675,126052/"},
{"business": "Żabka", "opening_hours": "06:00-23:00", "address": "ul. Radarowa 30", "city": "Gdańsk", "map_link": "/godziny-otwarcia-sklepow/gdansk/gdansk-radarowa-30,166424/"},
{"business": "Żabka", "opening_hours": "06:00-23:00", "address": "ul. Antoniego Abrahama 34", "city": "Sopot", "map_link": "/godziny-otwarcia-sklepow/sopot/sopot-antoniego-abrahama-34/"},
{"business": "Żabka", "opening_hours": "06:00-23:00", "address": "ul. Bohaterów Monte Cassino 60", "city": "Sopot", "map_link": "/godziny-otwarcia-sklepow/sopot/sopot-bohaterow-monte-casino-60,118457/"},
{"business": "Żabka", "opening_hours": "06:00-23:00", "address": "ul. Bohaterów Monte Cassino 21", "city": "Sopot", "map_link": "/godziny-otwarcia-sklepow/sopot/sopot-bohaterow-monte-casino-21,163024/"},
{"business": "Żabka", "opening_hours": "06:00-23:00", "address": "ul. Bohaterów Monte Cassino 5", "city": "Sopot", "map_link": "/godziny-otwarcia-sklepow/sopot/sopot-bohaterow-monte-casino-5,125763/"},
{"business": "Żabka", "opening_hours": "06:00-23:00", "address": "ul. Jana Jerzego Haffnera 24", "city": "Sopot", "map_link": "/godziny-otwarcia-sklepow/sopot/sopot-jana-jerzego-hafnera-24/"},
{"business": "Żabka", "opening_hours": "06:00-23:00", "address": "ul. Armii Krajowej 133", "city": "Sopot", "map_link": "/godziny-otwarcia-sklepow/sopot/sopot-armi-krajowej-13/"},
{"business": "Żabka", "opening_hours": "06:00-23:00", "address": "ul. Długa 101A", "city": "Cieplewo", "map_link": "/godziny-otwarcia-sklepow/cieplewo/cieplewo-dluga-101a/"},
{"business": "Żabka", "opening_hours": "06:00-23:00", "address": "ul. Jacka Malczewskiego 1-3", "city": "Sopot", "map_link": "/godziny-otwarcia-sklepow/sopot/sopot-jacka-malczewskiego-1-3,118465/"},
{"business": "Żabka", "opening_hours": "06:00-23:00", "address": "ul. 23 Marca 77C", "city": "Sopot", "map_link": "/godziny-otwarcia-sklepow/sopot/sopot-23-marca-7c,118453/"},
{"business": "Żabka", "opening_hours": "06:00-23:00", "address": "ul. Józefa Kraszewskiego 26", "city": "Sopot", "map_link": "/godziny-otwarcia-sklepow/sopot/sopot-jozefa-kraszewskiego-26,118464/"},
{"business": "Żabka", "opening_hours": "06:00-23:00", "address": "ul. Wejherowska 31", "city": "Sopot", "map_link": "/godziny-otwarcia-sklepow/sopot/sopot-wejherowska-31,118467/"},
{"business": "Żabka", "opening_hours": "06:00-23:00", "address": "ul. Orfeusza 2A", "city": "Gdańsk", "map_link": "/godziny-otwarcia-sklepow/gdansk/gdansk-orfeusza-2a,136220/"},
{"business": "Żabka", "opening_hours": "06:00-23:00", "address": "ul. Orfeusza 40", "city": "Gdańsk", "map_link": "/godziny-otwarcia-sklepow/gdansk/gdansk-orfeusza-40,176538/"},
{"business": "Żabka", "opening_hours": "06:00-23:00", "address": "ul. Wodnika 46", "city": "Gdańsk", "map_link": "/godziny-otwarcia-sklepow/gdansk/gdansk-wodnika-46/"},
{"business": "Żabka", "opening_hours": "06:00-23:00", "address": "ul. Spacerowa 18", "city": "Łęgowo", "map_link": "/godziny-otwarcia-sklepow/legowo/legowo-spacerowa-18,117339/"},
{"business": "Żabka", "opening_hours": "06:00-23:00", "address": "ul. Oskara Kolberga 9", "city": "Sopot", "map_link": "/godziny-otwarcia-sklepow/sopot/sopot-oskara-kolberga-9/"},
{"business": "Żabka", "opening_hours": "06:00-23:00", "address": "ul. Koziorożca 2", "city": "Gdańsk", "map_link": "/godziny-otwarcia-sklepow/gdansk/gdansk-koziorozca-2,116162/"},
{"business": "Żabka", "opening_hours": "06:00-23:00", "address": "ul. Koziorożca 33", "city": "Gdańsk", "map_link": "/godziny-otwarcia-sklepow/gdansk/gdansk-koziorozca-3/"},
{"business": "Żabka", "opening_hours": "06:00-23:00", "address": "ul. Staromłyńska 16", "city": "Kolbudy", "map_link": "/godziny-otwarcia-sklepow/kolbudy/kolbudy-staromlynska-16,116787/"},
{"business": "Żabka", "opening_hours": "06:00-23:00", "address": "ul. Nowy Świat 1c .", "city": "Gdańsk", "map_link": "/godziny-otwarcia-sklepow/gdansk/gdansk-nowy-swiat-1c/"},
{"business": "Żabka", "opening_hours": "06:00-23:00", "address": "ul. Zeusa 54", "city": "Gdańsk", "map_link": "/godziny-otwarcia-sklepow/gdansk/gdansk-zeusa-54/"},
{"business": "Żabka", "opening_hours": "06:00-23:00", "address": "ul. Kielnieńska 99", "city": "Gdańsk", "map_link": "/godziny-otwarcia-sklepow/gdansk/gdansk-kielnienska-9,186441/"},
{"business": "Żabka", "opening_hours": "06:00-23:00", "address": "al. Zwycięstwa 239", "city": "Gdynia", "map_link": "/godziny-otwarcia-sklepow/gdynia/gdynia-zwyciestwa-239/"},
{"business": "Żabka", "opening_hours": "06:00-23:00", "address": "ul. Parkowa 6/1A", "city": "Gdynia", "map_link": "/godziny-otwarcia-sklepow/gdynia/gdynia-parkowa-6-1a/"},
{"business": "Żabka", "opening_hours": "06:00-23:00", "address": "ul. Nowodworcowa 20", "city": "Gdynia", "map_link": "/godziny-otwarcia-sklepow/gdynia/gdynia-nowodworcowa-20,116339/"},
{"business": "Żabka", "opening_hours": "06:00-23:00", "address": "ul. Olgierda 71a", "city": "Gdynia", "map_link": "/godziny-otwarcia-sklepow/gdynia/gdynia-olgierda-71a,176547/"},
{"business": "Żabka", "opening_hours": "06:00-23:00", "address": "pl. Górnośląski 1", "city": "Gdynia", "map_link": "/godziny-otwarcia-sklepow/gdynia/gdynia-gornoslaski-1,80457/"},
{"business": "Żabka", "opening_hours": "06:00-23:00", "address": "ul. Buraczana 25", "city": "Gdynia", "map_link": "/godziny-otwarcia-sklepow/gdynia/gdynia-buraczana-25,19841/"},
{"business": "Żabka", "opening_hours": "06:00-23:00", "address": "ul. Źródło Marii 4", "city": "Gdynia", "map_link": "/godziny-otwarcia-sklepow/gdynia/gdynia-zrodlo-mari-4,173381/"},
{"business": "Żabka", "opening_hours": "06:00-23:00", "address": "ul. Bieszczadzka 6", "city": "Gdynia", "map_link": "/godziny-otwarcia-sklepow/gdynia/gdynia-bieszczadzka-6/"},
{"business": "Żabka", "opening_hours": "06:00-23:00", "address": "ul. Borowiecka 3", "city": "Banino", "map_link": "/godziny-otwarcia-sklepow/banino/banino-borowiecka-3,115653/"},
{"business": "Żabka", "opening_hours": "06:00-23:00", "address": "ul. Myśliwska 27", "city": "Gdynia", "map_link": "/godziny-otwarcia-sklepow/gdynia/gdynia-mysliwska-27,116338/"},
{"business": "Żabka", "opening_hours": "06:00-23:00", "address": "ul. Powstania Wielkopolskiego 95", "city": "Gdynia", "map_link": "/godziny-otwarcia-sklepow/gdynia/gdynia-powstania-wielkopolskiego-95,116343/"},
{"business": "Żabka", "opening_hours": "06:00-23:00", "address": "ul. Chwaszczyńska 21", "city": "Gdynia", "map_link": "/godziny-otwarcia-sklepow/gdynia/gdynia-chwaszczynska-21,116314/"},
{"business": "Żabka", "opening_hours": "06:00-23:00", "address": "ul. Legionów 112/7", "city": "Gdynia", "map_link": "/godziny-otwarcia-sklepow/gdynia/gdynia-legionow-12-7,116329/"},
{"business": "Żabka", "opening_hours": "06:00-23:00", "address": "ul. Dragonów 1A", "city": "Gdynia", "map_link": "/godziny-otwarcia-sklepow/gdynia/gdynia-dragonow-1a/"},
{"business": "Żabka", "opening_hours": "06:00-23:00", "address": "ul. Legionów 69", "city": "Gdynia", "map_link": "/godziny-otwarcia-sklepow/gdynia/gdynia-legionow-69,186617/"},
{"business": "Żabka", "opening_hours": "06:00-23:00", "address": "ul. Bohaterów Starówki Warszawskiej 3", "city": "Gdynia", "map_link": "/godziny-otwarcia-sklepow/gdynia/gdynia-bohaterow-starowki-warszawskiej-3/"},
{"business": "Żabka", "opening_hours": "06:00-23:00", "address": "ul. Oliwska 77", "city": "Chwaszczyno", "map_link": "/godziny-otwarcia-sklepow/chwaszczyno/chwaszczyno-oliwska-7/"},
{"business": "Żabka", "opening_hours": "06:00-23:00", "address": "ul. Łużycka 8A", "city": "Gdynia", "map_link": "/godziny-otwarcia-sklepow/gdynia/gdynia-luzycka-8a/"},
{"business": "Żabka", "opening_hours": "06:00-23:00", "address": "ul. Armii Krajowej 24", "city": "Żukowo", "map_link": "/godziny-otwarcia-sklepow/zukowo__23570/zukowo-armi-krajowej-24/"},
{"business": "Żabka", "opening_hours": "06:00-23:00", "address": "ul. Rdestowa 10/3A", "city": "Gdynia", "map_link": "/godziny-otwarcia-sklepow/gdynia/gdynia-rdestowa-10-3a,116300/"},
{"business": "Żabka", "opening_hours": "06:00-23:00", "address": "ul. Legionów 115A/L1", "city": "Gdynia", "map_link": "/godziny-otwarcia-sklepow/gdynia/gdynia-legionow-15a-l1/"},
{"business": "Żabka", "opening_hours": "06:00-23:00", "address": "ul. Legionów 116", "city": "Gdynia", "map_link": "/godziny-otwarcia-sklepow/gdynia/gdynia-legionow-16,166427/"},
{"business": "Żabka", "opening_hours": "06:00-23:00", "address": "ul. Paprykowa 12A", "city": "Gdynia", "map_link": "/godziny-otwarcia-sklepow/gdynia/gdynia-paprykowa-12a,126737/"},
{"business": "Żabka", "opening_hours": "06:00-23:00", "address": "ul. Legionów 92", "city": "Gdynia", "map_link": "/godziny-otwarcia-sklepow/gdynia/gdynia-legionow-92,116331/"},
{"business": "Żabka", "opening_hours": "06:00-23:00", "address": "ul. II Morskiego Pułku Strzelców 4a", "city": "Gdynia", "map_link": "/godziny-otwarcia-sklepow/gdynia/gdynia-i-morskiego-pulku-strzelcow-4a,125304/"},
{"business": "Żabka", "opening_hours": "06:00-23:00", "address": "ul. Gdyńska 50", "city": "Chwaszczyno", "map_link": "/godziny-otwarcia-sklepow/chwaszczyno/chwaszczyno-gdynska-50/"},
{"business": "Żabka", "opening_hours": "06:00-23:00", "address": "ul. Miętowa 3", "city": "Gdynia", "map_link": "/godziny-otwarcia-sklepow/gdynia/gdynia-mietowa-3,176545/"},
{"business": "Żabka", "opening_hours": "06:00-23:00", "address": "ul. Kazimierza Górskiego 1", "city": "Gdynia", "map_link": "/godziny-otwarcia-sklepow/gdynia/gdynia-kazimierza-gorskiego-1,170233/"},
{"business": "Żabka", "opening_hours": "06:00-23:00", "address": "ul. Wincentego Pola 15", "city": "Gdynia", "map_link": "/godziny-otwarcia-sklepow/gdynia/gdynia-wincentego-pola-15/"},
{"business": "Żabka", "opening_hours": "06:00-23:00", "address": "ul. Mikołaja Kopernika 15a", "city": "Gdynia", "map_link": "/godziny-otwarcia-sklepow/gdynia/gdynia-mikolaja-kopernika-15a,162764/"},
{"business": "Żabka", "opening_hours": "06:00-23:00", "address": "ul. Gdyńska 24A", "city": "Żukowo", "map_link": "/godziny-otwarcia-sklepow/zukowo__23570/zukowo-gdynska-24a,126553/"},
{"business": "Żabka", "opening_hours": "06:00-23:00", "address": "ul. Bosmańska 1", "city": "Dąbrowa", "map_link": "/godziny-otwarcia-sklepow/dabrowa__/dabrowa-bosmanska-1/"},
{"business": "Żabka", "opening_hours": "06:00-23:00", "address": "ul. Kornela Ujejskiego 29-35", "city": "Gdynia", "map_link": "/godziny-otwarcia-sklepow/gdynia/gdynia-kornela-ujejskiego-29-35/"},
{"business": "Żabka", "opening_hours": "06:00-23:00", "address": "ul. Tymiankowa 18", "city": "Gdynia", "map_link": "/godziny-otwarcia-sklepow/gdynia/gdynia-tymiankowa-18/"},
{"business": "Żabka", "opening_hours": "06:00-23:00", "address": "ul. Konwaliowa 16", "city": "Gdynia", "map_link": "/godziny-otwarcia-sklepow/gdynia/gdynia-konwaliowa-16/"},
{"business": "Żabka", "opening_hours": "06:00-23:00", "address": "ul. Hodowlana 36", "city": "Gdynia", "map_link": "/godziny-otwarcia-sklepow/gdynia/gdynia-hodowlana-36,116321/"},
{"business": "Żabka", "opening_hours": "06:00-23:00", "address": "ul. Książąt Pomorskich 2f", "city": "Żukowo", "map_link": "/godziny-otwarcia-sklepow/zukowo__23570/zukowo-ksiazat-pomorskich-2f,186614/"},
{"business": "Żabka", "opening_hours": "06:00-23:00", "address": "ul. Ignacego Krasickiego 10", "city": "Gdynia", "map_link": "/godziny-otwarcia-sklepow/gdynia/gdynia-ignacego-krasickiego-10,125743/"},
{"business": "Żabka", "opening_hours": "06:00-23:00", "address": "ul. Ignacego Krasickiego 45", "city": "Gdynia", "map_link": "/godziny-otwarcia-sklepow/gdynia/gdynia-ignacego-krasickiego-45/"},
{"business": "Żabka", "opening_hours": "06:00-23:00", "address": "ul. Narcyzowa 1", "city": "Gdynia", "map_link": "/godziny-otwarcia-sklepow/gdynia/gdynia-narcyzowa-1,176546/"},
{"business": "Żabka", "opening_hours": "06:00-23:00", "address": "ul. Wielkokacka 17", "city": "Gdynia", "map_link": "/godziny-otwarcia-sklepow/gdynia/gdynia-wielkokacka-17/"},
{"business": "Żabka", "opening_hours": "06:00-23:00", "address": "ul. Słoneczna 2", "city": "Gdynia", "map_link": "/godziny-otwarcia-sklepow/gdynia/gdynia-sloneczna-2/"},
{"business": "Żabka", "opening_hours": "06:00-23:00", "address": "al. Marsz. Piłsudskiego 32a", "city": "Gdynia", "map_link": "/godziny-otwarcia-sklepow/gdynia/gdynia-marsz-pilsudskiego-32a/"},
{"business": "Żabka", "opening_hours": "06:00-23:00", "address": "ul. Widna 7A", "city": "Gdynia", "map_link": "/godziny-otwarcia-sklepow/gdynia/gdynia-widna-7a,125899/"},
{"business": "Żabka", "opening_hours": "06:00-23:00", "address": "ul. Nauczycielska 6", "city": "Gdynia", "map_link": "/godziny-otwarcia-sklepow/gdynia/gdynia-nauczycielska-6,19854/"},
{"business": "Żabka", "opening_hours": "06:00-23:00", "address": "ul. Gdańska 31", "city": "Kartuzy", "map_link": "/godziny-otwarcia-sklepow/kartuzy/kartuzy-gdanska-31/"},
{"business": "Żabka", "opening_hours": "06:00-23:00", "address": "ul. Gdańska 62", "city": "Żukowo", "map_link": "/godziny-otwarcia-sklepow/zukowo__23570/zukowo-gdanska-62,119830/"},
{"business": "Żabka", "opening_hours": "06:00-23:00", "address": "ul. Władysława IV 32-36", "city": "Gdynia", "map_link": "/godziny-otwarcia-sklepow/gdynia/gdynia-wladyslawa-iv-32-36,116360/"},
{"business": "Żabka", "opening_hours": "06:00-23:00", "address": "ul. Władysława IV 53/1", "city": "Gdynia", "map_link": "/godziny-otwarcia-sklepow/gdynia/gdynia-wladyslawa-iv-53-1,116362/"},
{"business": "Żabka", "opening_hours": "06:00-23:00", "address": "ul. Władysława IV 46/U4", "city": "Gdynia", "map_link": "/godziny-otwarcia-sklepow/gdynia/gdynia-wladyslawa-iv-46-u4/"},
{"business": "Żabka", "opening_hours": "06:00-23:00", "address": "ul. Śląska 51b", "city": "Gdynia", "map_link": "/godziny-otwarcia-sklepow/gdynia/gdynia-slaska-51b,186380/"},
{"business": "Żabka", "opening_hours": "06:00-23:00", "address": "ul. Pomorska 21", "city": "Pszczółki", "map_link": "/godziny-otwarcia-sklepow/pszczolki/pszczolki-pomorska-21,118139/"},
{"business": "Aldi", "opening_hours": "07:00-22:00", "address": "ul. Rajska 8", "city": "Gdańsk", "map_link": "/godziny-otwarcia-sklepow/gdansk/gdansk-rajska-8/"},
{"business": "Aldi", "opening_hours": "07:00-22:00", "address": "ul. Zygmunta Noskowskiego 1", "city": "Gdańsk", "map_link": "/godziny-otwarcia-sklepow/gdansk/gdansk-zygmunta-noskowskiego-1,150773/"},
{"business": "Aldi", "opening_hours": "07:00-22:00", "address": "ul. Piecewska 29", "city": "Gdańsk", "map_link": "/godziny-otwarcia-sklepow/gdansk/gdansk-piecewska-29/"},
{"business": "Aldi", "opening_hours": "07:00-22:00", "address": "ul. Limbowa 1", "city": "Gdańsk", "map_link": "/godziny-otwarcia-sklepow/gdansk/gdansk-limbowa-1/"},
{"business": "Aldi", "opening_hours": "07:00-22:00", "address": "ul. Władysława Czermińskiego 4", "city": "Gdańsk", "map_link": "/godziny-otwarcia-sklepow/gdansk/gdansk-wladyslawa-czerminskiego-4,177000/"},
{"business": "Aldi", "opening_hours": "06:00-22:00", "address": "ul. Kartuska 478", "city": "Gdańsk", "map_link": "/godziny-otwarcia-sklepow/gdansk/gdansk-kartuska-478/"},
{"business": "Aldi", "opening_hours": "06:00-22:00", "address": "ul. Gen. Władysława Sikorskiego 8", "city": "Sopot", "map_link": "/godziny-otwarcia-sklepow/sopot/sopot-gen-wladyslawa-sikorskiego-8,164868/"},
{"business": "Aldi", "opening_hours": "06:00-22:00", "address": "ul. Raatza 2", "city": "Gdańsk", "map_link": "/godziny-otwarcia-sklepow/gdansk/gdansk-ratza-2,165508/"},
{"business": "Żabka", "opening_hours": "06:00-23:00", "address": "ul. Bydgoska 5 lok. 5", "city": "Gdynia", "map_link": "/godziny-otwarcia-sklepow/gdynia/gdynia-bydgoska-5-lok-5,143884/"}
]