[
{"name": "Top Market", "opening_hours": "06:00-21:00", "address": "ul. Trubadurów 6/G", "city": "Gdańsk", "map_link": "/godziny-otwarcia-sklepow/gdansk/gdansk-trubadurow-6-g,62450/"},
{"name": "Top Market", "opening_hours": "08:00-22:00", "address": "ul. 23 Marca 77c", "city": "Sopot", "map_link": "/godziny-otwarcia-sklepow/sopot/sopot-23-marca-7c/"},
{"name": "Top Market", "opening_hours": "07:00-21:00", "address": "ul. Wierzbowa 36", "city": "Gdynia", "map_link": "/godziny-otwarcia-sklepow/gdynia/gdynia-wierzbowa-36,169458/"},
{"name": "Top Market", "opening_hours": "06:30-21:00", "address": "ul. Łapińska 26", "city": "Przyjaźń", "map_link": "/godziny-otwarcia-sklepow/przyjazn/przyjazn-lapinska-26,169497/"},
{"name": "Top Market", "opening_hours": "06:00-21:00", "address": "ul. Bohaterów Starówki Warszawskiej 6", "city": "Gdynia", "map_link": "/godziny-otwarcia-sklepow/gdynia/gdynia-bohaterow-starowki-warszawskiej-6,169455/"},
{"name": "Top Market", "opening_hours": "08:00-23:00", "address": "ul. Gdyńska 37", "city": "Żukowo", "map_link": "/godziny-otwarcia-sklepow/zukowo__23570/zukowo-gdynska-37/"}
]