[
{"name": "Zabka", "opening_hours": "06:00-23:00", "address": "ul. Szeroka 82/83", "city": "Gdańsk", "map_link": "/godziny-otwarcia-sklepow/gdansk/gdansk-szeroka-82-83,116276/"},
{"name": "Zabka", "opening_hours": "06:00-23:00", "address": "ul. Chlebnicka 45/46", "city": "Gdańsk", "map_link": "/godziny-otwarcia-sklepow/gdansk/gdansk-chlebnicka-45-46,162755/"},
{"name": "Zabka", "opening_hours": "06:00-23:00", "address": "ul. Stągiewna 10/1", "city": "Gdańsk", "map_link": "/godziny-otwarcia-sklepow/gdansk/gdansk-stagiewna-10-1/"},
{"name": "Zabka", "opening_hours": "06:00-23:00", "address": "ul. Długie Ogrody 11", "city": "Gdańsk", "map_link": "/godziny-otwarcia-sklepow/gdansk/gdansk-dlugie-ogrody-1/"},
{"name": "Zabka", "opening_hours": "06:00-23:00", "address": "ul. Długa 59/61", "city": "Gdańsk", "map_link": "/godziny-otwarcia-sklepow/gdansk/gdansk-dluga-59-61,116187/"},
{"name": "Zabka", "opening_hours": "06:00-23:00", "address": "ul. Szafarnia 11", "city": "Gdańsk", "map_link": "/godziny-otwarcia-sklepow/gdansk/gdansk-szafarnia-1,116272/"},
{"name": "Zabka", "opening_hours": "06:00-23:00", "address": "ul. Angielska Grobla 5", "city": "Gdańsk", "map_link": "/godziny-otwarcia-sklepow/gdansk/gdansk-angielska-grobla-5/"},
{"name": "Zabka", "opening_hours": "06:00-23:00", "address": "ul. Lawendowa 5", "city": "Gdańsk", "map_link": "/godziny-otwarcia-sklepow/gdansk/gdansk-lawendowa-5,176535/"},
{"name": "Zabka", "opening_hours": "06:00-23:00", "address": "ul. Targ Rybny 6A", "city": "Gdańsk", "map_link": "/godziny-otwarcia-sklepow/gdansk/gdansk-targ-rybny-6a/"},
{"name": "Zabka", "opening_hours": "06:00-23:00", "address": "ul. Długie Ogrody 18 LOK.U03", "city": "Gdańsk", "map_link": "/godziny-otwarcia-sklepow/gdansk/gdansk-dlugie-ogrody-18-lok-u03,143866/"},
{"name": "Zabka", "opening_hours": "06:00-23:00", "address": "ul. Węglarska 1/4", "city": "Gdańsk", "map_link": "/godziny-otwarcia-sklepow/gdansk/gdansk-weglarska-1-4,116288/"},
{"name": "Zabka", "opening_hours": "06:00-23:00", "address": "ul. Garbary 5", "city": "Gdańsk", "map_link": "/godziny-otwarcia-sklepow/gdansk/gdansk-garbary-5,166421/"},
{"name": "Zabka", "opening_hours": "06:00-23:00", "address": "ul. Podwale Staromiejskie 96/97", "city": "Gdańsk", "map_link": "/godziny-otwarcia-sklepow/gdansk/gdansk-podwale-staromiejskie-96-97/"},
{"name": "Zabka", "opening_hours": "06:00-23:00", "address": "ul. Tartaczna 3/1", "city": "Gdańsk", "map_link": "/godziny-otwarcia-sklepow/gdansk/gdansk-tartaczna-3-1/"},
{"name": "Zabka", "opening_hours": "06:00-23:00", "address": "ul. Chmielna 3", "city": "Gdańsk", "map_link": "/godziny-otwarcia-sklepow/gdansk/gdansk-chmielna-3,136093/"},
{"name": "Zabka", "opening_hours": "06:00-23:00", "address": "ul. Chmielna 72", "city": "Gdańsk", "map_link": "/godziny-otwarcia-sklepow/gdansk/gdansk-chmielna-72/"},
{"name": "Zabka", "opening_hours": "06:00-23:00", "address": "ul. Chmielna 95/1", "city": "Gdańsk", "map_link": "/godziny-otwarcia-sklepow/gdansk/gdansk-chmielna-95-1,116183/"},
{"name": "Zabka", "opening_hours": "06:00-23:00", "address": "ul. Kowalska 9", "city": "Gdańsk", "map_link": "/godziny-otwarcia-sklepow/gdansk/gdansk-kowalska-9/"},
{"name": "Zabka", "opening_hours": "06:00-23:00", "address": "ul. Targ Drzewny 12/14", "city": "Gdańsk", "map_link": "/godziny-otwarcia-sklepow/gdansk/gdansk-targ-drzewny-12-14/"},
{"name": "Zabka", "opening_hours": "06:00-23:00", "address": "ul. Stara Stocznia 2", "city": "Gdańsk", "map_link": "/godziny-otwarcia-sklepow/gdansk/gdansk-stara-stocznia-2,116265/"},
{"name": "Zabka", "opening_hours": "06:00-23:00", "address": "ul. Łąkowa 60d", "city": "Gdańsk", "map_link": "/godziny-otwarcia-sklepow/gdansk/gdansk-lakowa-60d,176531/"},
{"name": "Zabka", "opening_hours": "06:00-23:00", "address": "ul. Toruńska 15", "city": "Gdańsk", "map_link": "/godziny-otwarcia-sklepow/gdansk/gdansk-torunska-15/"},
{"name": "Zabka", "opening_hours": "06:00-23:00", "address": "ul. Żabi Kruk 10", "city": "Gdańsk", "map_link": "/godziny-otwarcia-sklepow/gdansk/gdansk-zabi-kruk-10,116296/"},
{"name": "Zabka", "opening_hours": "06:00-23:00", "address": "ul. Grobla III 1/6d", "city": "Gdańsk", "map_link": "/godziny-otwarcia-sklepow/gdansk/gdansk-grobla-i-1-6d/"},
{"name": "Zabka", "opening_hours": "06:00-23:00", "address": "ul. Długa Grobla 8", "city": "Gdańsk", "map_link": "/godziny-otwarcia-sklepow/gdansk/gdansk-dluga-grobla-8,125940/"},
{"name": "Zabka", "opening_hours": "06:00-23:00", "address": "ul. Wilcza 1", "city": "Gdańsk", "map_link": "/godziny-otwarcia-sklepow/gdansk/gdansk-wilcza-1/"},
{"name": "Zabka", "opening_hours": "06:00-23:00", "address": "ul. Rajska 4", "city": "Gdańsk", "map_link": "/godziny-otwarcia-sklepow/gdansk/gdansk-rajska-4,116167/"},
{"name": "Zabka", "opening_hours": "06:00-23:00", "address": "ul. Kamienna Grobla 30", "city": "Gdańsk", "map_link": "/godziny-otwarcia-sklepow/gdansk/gdansk-kamiena-grobla-30/"},
{"name": "Zabka", "opening_hours": "06:00-23:00", "address": "ul. Jana Heweliusza 3", "city": "Gdańsk", "map_link": "/godziny-otwarcia-sklepow/gdansk/gdansk-jana-heweliusza-3,116212/"},
{"name": "Zabka", "opening_hours": "06:00-23:00", "address": "ul. Jana Heweliusza 19", "city": "Gdańsk", "map_link": "/godziny-otwarcia-sklepow/gdansk/gdansk-jana-heweliusza-19,125885/"},
{"name": "Zabka", "opening_hours": "06:00-23:00", "address": "ul. Toruńska 20", "city": "Gdańsk", "map_link": "/godziny-otwarcia-sklepow/gdansk/gdansk-torunska-20/"},
{"name": "Zabka", "opening_hours": "06:00-23:00", "address": "ul. Elbląska 65", "city": "Gdańsk", "map_link": "/godziny-otwarcia-sklepow/gdansk/gdansk-elblaska-65,116194/"},
{"name": "Zabka", "opening_hours": "06:00-23:00", "address": "ul. Ks. Jerzego Popiełuszki 26", "city": "Gdańsk", "map_link": "/godziny-otwarcia-sklepow/gdansk/gdansk-ks-jerzego-popieluszki-26,183276/"},
{"name": "Zabka", "opening_hours": "06:00-23:00", "address": "ul. Nowomiejska 3", "city": "Gdańsk", "map_link": "/godziny-otwarcia-sklepow/gdansk/gdansk-nowomiejska-3/"},
{"name": "Zabka", "opening_hours": "06:00-23:00", "address": "ul. Robotnicza 16", "city": "Gdańsk", "map_link": "/godziny-otwarcia-sklepow/gdansk/gdansk-robotnicza-16,153717/"},
{"name": "Zabka", "opening_hours": "06:00-23:00", "address": "ul. Powstańców Warszawskich 19", "city": "Gdańsk", "map_link": "/godziny-otwarcia-sklepow/gdansk/gdansk-powstancow-warszawskich-19/"},
{"name": "Zabka", "opening_hours": "06:00-23:00", "address": "ul. Bajki 2C", "city": "Gdańsk", "map_link": "/godziny-otwarcia-sklepow/gdansk/gdansk-bajki-2c/"},
{"name": "Zabka", "opening_hours": "06:00-23:00", "address": "ul. Teofila Lenartowicza 24", "city": "Gdańsk", "map_link": "/godziny-otwarcia-sklepow/gdansk/gdansk-teofila-lenartowicza-24,116282/"},
{"name": "Zabka", "opening_hours": "06:00-23:00", "address": "ul. Zakopiańska 10A", "city": "Gdańsk", "map_link": "/godziny-otwarcia-sklepow/gdansk/gdansk-zakopianska-10a/"},
{"name": "Zabka", "opening_hours": "06:00-23:00", "address": "ul. Kartuska 78", "city": "Gdańsk", "map_link": "/godziny-otwarcia-sklepow/gdansk/gdansk-kartuska-78/"},
{"name": "Zabka", "opening_hours": "06:00-23:00", "address": "ul. Stanisława Worcella 2A", "city": "Gdańsk", "map_link": "/godziny-otwarcia-sklepow/gdansk/gdansk-stanislawa-worcela-2a,116294/"},
{"name": "Zabka", "opening_hours": "06:00-23:00", "address": "ul. Trakt Św. Wojciecha 18A", "city": "Gdańsk", "map_link": "/godziny-otwarcia-sklepow/gdansk/gdansk-trakt-sw-wojciecha-18a,116168/"},
{"name": "Zabka", "opening_hours": "06:00-23:00", "address": "ul. Jacka Malczewskiego 85", "city": "Gdańsk", "map_link": "/godziny-otwarcia-sklepow/gdansk/gdansk-jacka-malczewskiego-85,186444/"},
{"name": "Zabka", "opening_hours": "06:00-23:00", "address": "ul. Henryka Hubertusa Jabłońskiego 17/1A", "city": "Gdańsk", "map_link": "/godziny-otwarcia-sklepow/gdansk/gdansk-henryka-hubertusa-jablonskiego-17-1a/"},
{"name": "Zabka", "opening_hours": "06:00-23:00", "address": "ul. Tytusa Chałubińskiego 31", "city": "Gdańsk", "map_link": "/godziny-otwarcia-sklepow/gdansk/gdansk-tytusa-chalubinskiego-31/"},
{"name": "Zabka", "opening_hours": "06:00-23:00", "address": "ul. Marcina Dragana 15f", "city": "Gdańsk", "map_link": "/godziny-otwarcia-sklepow/gdansk/gdansk-marcina-dragana-15f,19821/"},
{"name": "Zabka", "opening_hours": "06:00-23:00", "address": "ul. Szara 35", "city": "Gdańsk", "map_link": "/godziny-otwarcia-sklepow/gdansk/gdansk-szara-35/"},
{"name": "Zabka", "opening_hours": "06:00-23:00", "address": "ul. Niccolo Paganiniego 2", "city": "Gdańsk", "map_link": "/godziny-otwarcia-sklepow/gdansk/gdansk-nicolo-paganiniego-2/"},
{"name": "Zabka", "opening_hours": "06:00-23:00", "address": "ul. Trakt Św. Wojciecha 123", "city": "Gdańsk", "map_link": "/godziny-otwarcia-sklepow/gdansk/gdansk-trakt-sw-wojciecha-123,176540/"},
{"name": "Zabka", "opening_hours": "06:00-23:00", "address": "ul. Władysława Cieszyńskiego 29", "city": "Gdańsk", "map_link": "/godziny-otwarcia-sklepow/gdansk/gdansk-wladyslawa-cieszynskiego-29/"},
{"name": "Zabka", "opening_hours": "06:00-23:00", "address": "ul. Romualda Traugutta 86", "city": "Gdańsk", "map_link": "/godziny-otwarcia-sklepow/gdansk/gdansk-romualda-trauguta-86,144239/"},
{"name": "Zabka", "opening_hours": "06:00-23:00", "address": "ul. Ignacego Paderewskiego 9/1A", "city": "Gdańsk", "map_link": "/godziny-otwarcia-sklepow/gdansk/gdansk-ignacego-paderewskiego-9-1a/"},
{"name": "Zabka", "opening_hours": "06:00-23:00", "address": "ul. Ignacego Paderewskiego 11B", "city": "Łódź", "map_link": "/godziny-otwarcia-sklepow/lodz/lodz-ignacego-paderewskiego-1b/"},
{"name": "Zabka", "opening_hours": "06:00-23:00", "address": "ul. Ignacego Paderewskiego 55", "city": "Łódź", "map_link": "/godziny-otwarcia-sklepow/lodz/lodz-ignacego-paderewskiego-5/"},
{"name": "Zabka", "opening_hours": "06:00-23:00", "address": "ul. Chwaszczyńska 7", "city": "Gdańsk", "map_link": "/godziny-otwarcia-sklepow/gdansk/gdansk-chwaszczynska-7,116185/"},
{"name": "Zabka", "opening_hours": "06:00-23:00", "address": "ul. Gościnna 5", "city": "Gdańsk", "map_link": "/godziny-otwarcia-sklepow/gdansk/gdansk-goscina-5,116199/"},
{"name": "Zabka", "opening_hours": "06:00-23:00", "address": "ul. Władysława Cieszyńskiego 6", "city": "Gdańsk", "map_link": "/godziny-otwarcia-sklepow/gdansk/gdansk-wladyslawa-cieszynskiego-6,116291/"},
{"name": "Zabka", "opening_hours": "06:00-23:00", "address": "ul. Kliniczna 1B", "city": "Gdańsk", "map_link": "/godziny-otwarcia-sklepow/gdansk/gdansk-kliniczna-1b,116227/"},
{"name": "Zabka", "opening_hours": "06:00-23:00", "address": "ul. Wilhelma Stryjewskiego 19", "city": "Gdańsk", "map_link": "/godziny-otwarcia-sklepow/gdansk/gdansk-wilhelma-stryjewskiego-19/"},
{"name": "Zabka", "opening_hours": "06:00-23:00", "address": "ul. Mikołaja Reja 38", "city": "Gdańsk", "map_link": "/godziny-otwarcia-sklepow/gdansk/gdansk-mikolaja-reja-38,135990/"},
{"name": "Zabka", "opening_hours": "06:00-23:00", "address": "ul. Stanisława Wyspiańskiego 2", "city": "Gdańsk", "map_link": "/godziny-otwarcia-sklepow/gdansk/gdansk-stanislawa-wyspianskiego-2,153505/"},
{"name": "Zabka", "opening_hours": "06:00-23:00", "address": "ul. Otwarta 61-63", "city": "Gdańsk", "map_link": "/godziny-otwarcia-sklepow/gdansk/gdansk-otwarta-61-63,116247/"},
{"name": "Zabka", "opening_hours": "06:00-23:00", "address": "ul. Kolonia Zręby 14", "city": "Gdańsk", "map_link": "/godziny-otwarcia-sklepow/gdansk/gdansk-kolonia-zreby-14,126656/"},
{"name": "Zabka", "opening_hours": "06:00-23:00", "address": "ul. Platynowa 10", "city": "Gdańsk", "map_link": "/godziny-otwarcia-sklepow/gdansk/gdansk-platynowa-10,126118/"},
{"name": "Zabka", "opening_hours": "06:00-23:00", "address": "ul. Platynowa 2", "city": "Gdańsk", "map_link": "/godziny-otwarcia-sklepow/gdansk/gdansk-platynowa-2,116163/"},
{"name": "Zabka", "opening_hours": "06:00-23:00", "address": "ul. Szpaki 1", "city": "Gdańsk", "map_link": "/godziny-otwarcia-sklepow/gdansk/gdansk-szpaki-1/"},
{"name": "Zabka", "opening_hours": "06:00-23:00", "address": "ul. Do Studzienki 11", "city": "Gdańsk", "map_link": "/godziny-otwarcia-sklepow/gdansk/gdansk-do-studzienki-1,116190/"},
{"name": "Zabka", "opening_hours": "06:00-23:00", "address": "ul. Ks. Leona Miszewskiego 18", "city": "Gdańsk", "map_link": "/godziny-otwarcia-sklepow/gdansk/gdansk-ks-leona-miszewskiego-18/"},
{"name": "Zabka", "opening_hours": "06:00-23:00", "address": "al. Grunwaldzka 99-101", "city": "Gdańsk", "map_link": "/godziny-otwarcia-sklepow/gdansk/gdansk-grunwaldzka-9-101/"},
{"name": "Zabka", "opening_hours": "06:00-23:00", "address": "ul. Franciszka Rakoczego 30", "city": "Gdańsk", "map_link": "/godziny-otwarcia-sklepow/gdansk/gdansk-franciszka-rakoczego-30/"},
{"name": "Zabka", "opening_hours": "06:00-23:00", "address": "ul. Pawia 4", "city": "Gdańsk", "map_link": "/godziny-otwarcia-sklepow/gdansk/gdansk-pawia-4,116249/"},
{"name": "Zabka", "opening_hours": "06:00-23:00", "address": "ul. Nieborowska 10", "city": "Gdańsk", "map_link": "/godziny-otwarcia-sklepow/gdansk/gdansk-nieborowska-10,116242/"},
{"name": "Zabka", "opening_hours": "06:00-23:00", "address": "ul. Rogalińska 8", "city": "Gdańsk", "map_link": "/godziny-otwarcia-sklepow/gdansk/gdansk-rogalinska-8/"},
{"name": "Zabka", "opening_hours": "06:00-23:00", "address": "ul. Dąbrówki 922 I 3", "city": "Gdańsk", "map_link": "/godziny-otwarcia-sklepow/gdansk/gdansk-dabrowki-92-i-3,173310/"},
{"name": "Zabka", "opening_hours": "06:00-23:00", "address": "ul. Zofii Nałkowskiej 3", "city": "Gdańsk", "map_link": "/godziny-otwarcia-sklepow/gdansk/gdansk-zofi-nalkowskiej-3/"},
{"name": "Zabka", "opening_hours": "06:00-23:00", "address": "ul. Stanisława Lema 2", "city": "Gdańsk", "map_link": "/godziny-otwarcia-sklepow/gdansk/gdansk-stanislawa-lema-2,126121/"},
{"name": "Zabka", "opening_hours": "06:00-23:00", "address": "ul. Jaśkowa Dolina 130", "city": "Gdańsk", "map_link": "/godziny-otwarcia-sklepow/gdansk/gdansk-jaskowa-dolina-130/"},
{"name": "Zabka", "opening_hours": "06:00-23:00", "address": "ul. Jaśkowa Dolina 14", "city": "Gdańsk", "map_link": "/godziny-otwarcia-sklepow/gdansk/gdansk-jaskowa-dolina-14,144354/"},
{"name": "Zabka", "opening_hours": "06:00-23:00", "address": "ul. Jaśkowa Dolina 132", "city": "Gdańsk", "map_link": "/godziny-otwarcia-sklepow/gdansk/gdansk-jaskowa-dolina-132/"},
{"name": "Zabka", "opening_hours": "06:00-23:00", "address": "ul. Ludwika Waryńskiego 4", "city": "Gdańsk", "map_link": "/godziny-otwarcia-sklepow/gdansk/gdansk-ludwika-warynskiego-4,126171/"},
{"name": "Zabka", "opening_hours": "06:00-23:00", "address": "ul. Adama Mickiewicza 9", "city": "Gdańsk", "map_link": "/godziny-otwarcia-sklepow/gdansk/gdansk-adama-mickiewicza-9/"},
{"name": "Zabka", "opening_hours": "06:00-23:00", "address": "ul. Ludwika Waryńskiego 26/27", "city": "Gdańsk", "map_link": "/godziny-otwarcia-sklepow/gdansk/gdansk-ludwika-warynskiego-26-27/"},
{"name": "Zabka", "opening_hours": "06:00-23:00", "address": "ul. Stanisława Wyspiańskiego 25", "city": "Gdańsk", "map_link": "/godziny-otwarcia-sklepow/gdansk/gdansk-stanislawa-wyspianskiego-25/"},
{"name": "Zabka", "opening_hours": "06:00-23:00", "address": "ul. Partyzantów 14/101", "city": "Gdańsk", "map_link": "/godziny-otwarcia-sklepow/gdansk/gdansk-partyzantow-14-101,116248/"},
{"name": "Zabka", "opening_hours": "06:00-23:00", "address": "ul. Płocka 5", "city": "Gdańsk", "map_link": "/godziny-otwarcia-sklepow/gdansk/gdansk-plocka-5,116164/"},
{"name": "Zabka", "opening_hours": "06:00-23:00", "address": "ul. Cedrowa 31", "city": "Gdańsk", "map_link": "/godziny-otwarcia-sklepow/gdansk/gdansk-cedrowa-31/"},
{"name": "Zabka", "opening_hours": "06:00-23:00", "address": "ul. Przemyska 41A", "city": "Gdańsk", "map_link": "/godziny-otwarcia-sklepow/gdansk/gdansk-przemyska-41a/"},
{"name": "Zabka", "opening_hours": "06:00-23:00", "address": "ul. Wajdeloty 10", "city": "Gdańsk", "map_link": "/godziny-otwarcia-sklepow/gdansk/gdansk-wajdeloty-10/"},
{"name": "Zabka", "opening_hours": "06:00-23:00", "address": "ul. Cedrowa 27", "city": "Gdańsk", "map_link": "/godziny-otwarcia-sklepow/gdansk/gdansk-cedrowa-27,116179/"},
{"name": "Zabka", "opening_hours": "06:00-23:00", "address": "ul. Romana Dmowskiego 12", "city": "Gdańsk", "map_link": "/godziny-otwarcia-sklepow/gdansk/gdansk-romana-dmowskiego-12/"},
{"name": "Zabka", "opening_hours": "06:00-23:00", "address": "ul. Romana Dmowskiego 14", "city": "Gdańsk", "map_link": "/godziny-otwarcia-sklepow/gdansk/gdansk-romana-dmowskiego-14,170226/"},
{"name": "Zabka", "opening_hours": "06:00-23:00", "address": "ul. Warneńska 2", "city": "Gdańsk", "map_link": "/godziny-otwarcia-sklepow/gdansk/gdansk-warnenska-2,116285/"},
{"name": "Zabka", "opening_hours": "06:00-23:00", "address": "ul. Bolesława Chrobrego 27", "city": "Gdańsk", "map_link": "/godziny-otwarcia-sklepow/gdansk/gdansk-boleslawa-chrobrego-27,126299/"},
{"name": "Zabka", "opening_hours": "06:00-23:00", "address": "ul. Klonowa 4B i 4C", "city": "Gdańsk", "map_link": "/godziny-otwarcia-sklepow/gdansk/gdansk-klonowa-4b-i-4c,125698/"},
{"name": "Zabka", "opening_hours": "06:00-23:00", "address": "ul. Jana Kilińskiego 9", "city": "Gdańsk", "map_link": "/godziny-otwarcia-sklepow/gdansk/gdansk-jana-kilinskiego-9/"},
{"name": "Zabka", "opening_hours": "06:00-23:00", "address": "ul. Jana Kilińskiego 35", "city": "Siedlce", "map_link": "/godziny-otwarcia-sklepow/siedlce/siedlce-jana-kilinskiego-35/"},
{"name": "Zabka", "opening_hours": "06:00-23:00", "address": "ul. Warszawska 98", "city": "Gdańsk", "map_link": "/godziny-otwarcia-sklepow/gdansk/gdansk-warszawska-98,116286/"},
{"name": "Zabka", "opening_hours": "06:00-23:00", "address": "ul. Franciszka Rakoczego 9", "city": "Gdańsk", "map_link": "/godziny-otwarcia-sklepow/gdansk/gdansk-franciszka-rakoczego-9/"},
{"name": "Zabka", "opening_hours": "06:00-23:00", "address": "ul. Bolesława Chrobrego 60", "city": "Gdańsk", "map_link": "/godziny-otwarcia-sklepow/gdansk/gdansk-boleslawa-chrobrego-60,116175/"},
{"name": "Zabka", "opening_hours": "06:00-23:00", "address": "ul. Piotrkowska 9g", "city": "Gdańsk", "map_link": "/godziny-otwarcia-sklepow/gdansk/gdansk-piotrkowska-9g,173339/"},
{"name": "Zabka", "opening_hours": "06:00-23:00", "address": "ul. Bulońska 18", "city": "Gdańsk", "map_link": "/godziny-otwarcia-sklepow/gdansk/gdansk-bulonska-18,116177/"},
{"name": "Zabka", "opening_hours": "06:00-23:00", "address": "ul. Starowiejska 93", "city": "Gdańsk", "map_link": "/godziny-otwarcia-sklepow/gdansk/gdansk-starowiejska-93/"},
{"name": "Zabka", "opening_hours": "06:00-23:00", "address": "ul. Heleny Marusarzówny 2", "city": "Gdańsk", "map_link": "/godziny-otwarcia-sklepow/gdansk/gdansk-heleny-marusarzowny-2,178557/"},
{"name": "Zabka", "opening_hours": "06:00-23:00", "address": "ul. Świętokrzyska 58 lok. 1/B", "city": "Gdańsk", "map_link": "/godziny-otwarcia-sklepow/gdansk/gdansk-swietokrzyska-58-lok-1-b,153746/"},
{"name": "Zabka", "opening_hours": "06:00-23:00", "address": "ul. Magellana 6a", "city": "Gdańsk", "map_link": "/godziny-otwarcia-sklepow/gdansk/gdansk-magelana-6a/"},
{"name": "Zabka", "opening_hours": "06:00-23:00", "address": "ul. Tadeusza Kościuszki 117A", "city": "Gdańsk", "map_link": "/godziny-otwarcia-sklepow/gdansk/gdansk-tadeusza-kosciuszki-17a,116232/"},
{"name": "Zabka", "opening_hours": "06:00-23:00", "address": "ul. Tadeusza Kościuszki 47", "city": "Gdańsk", "map_link": "/godziny-otwarcia-sklepow/gdansk/gdansk-tadeusza-kosciuszki-47/"},
{"name": "Zabka", "opening_hours": "06:00-23:00", "address": "ul. Juliusza Słowackiego 2A", "city": "Gdańsk", "map_link": "/godziny-otwarcia-sklepow/gdansk/gdansk-juliusza-slowackiego-2a/"},
{"name": "Zabka", "opening_hours": "06:00-23:00", "address": "ul. Juliusza Słowackiego 8", "city": "Katowice", "map_link": "/godziny-otwarcia-sklepow/katowice/katowice-juliusza-slowackiego-8/"},
{"name": "Zabka", "opening_hours": "06:00-23:00", "address": "ul. Srebrna 46/U2", "city": "Gdańsk", "map_link": "/godziny-otwarcia-sklepow/gdansk/gdansk-srebrna-46-u2,126713/"},
{"name": "Zabka", "opening_hours": "06:00-23:00", "address": "al. Rzeczypospolitej 33", "city": "Gdańsk", "map_link": "/godziny-otwarcia-sklepow/gdansk/gdansk-rzeczypospolitej-3,126079/"},
{"name": "Zabka", "opening_hours": "06:00-23:00", "address": "ul. Partyzantów 72/82", "city": "Gdańsk", "map_link": "/godziny-otwarcia-sklepow/gdansk/gdansk-partyzantow-72-82,80458/"},
{"name": "Zabka", "opening_hours": "06:00-23:00", "address": "ul. Myśliwska 22", "city": "Gdańsk", "map_link": "/godziny-otwarcia-sklepow/gdansk/gdansk-mysliwska-2,116238/"},
{"name": "Zabka", "opening_hours": "06:00-23:00", "address": "ul. Myśliwska 33C/52", "city": "Gdańsk", "map_link": "/godziny-otwarcia-sklepow/gdansk/gdansk-mysliwska-3c-52,116239/"},
{"name": "Zabka", "opening_hours": "06:00-23:00", "address": "ul. Letnicka 1g", "city": "Gdańsk", "map_link": "/godziny-otwarcia-sklepow/gdansk/gdansk-letnicka-1g/"},
{"name": "Zabka", "opening_hours": "06:00-23:00", "address": "ul. Grudziądzka 4 Kl. A", "city": "Gdańsk", "map_link": "/godziny-otwarcia-sklepow/gdansk/gdansk-grudziadzka-4-kl-a,176534/"},
{"name": "Zabka", "opening_hours": "06:00-23:00", "address": "ul. Srebrna 2", "city": "Gdańsk", "map_link": "/godziny-otwarcia-sklepow/gdansk/gdansk-srebrna-2,183590/"},
{"name": "Zabka", "opening_hours": "06:00-23:00", "address": "ul. Stefana Drzewieckiego 9/3", "city": "Gdańsk", "map_link": "/godziny-otwarcia-sklepow/gdansk/gdansk-stefana-drzewieckiego-9-3/"},
{"name": "Zabka", "opening_hours": "06:00-23:00", "address": "ul. Żwirki i Wigury 10", "city": "Gdańsk", "map_link": "/godziny-otwarcia-sklepow/gdansk/gdansk-zwirki-i-wigury-10/"},
{"name": "Zabka", "opening_hours": "06:00-23:00", "address": "ul. Królewskie Wzgórze 1", "city": "Gdańsk", "map_link": "/godziny-otwarcia-sklepow/gdansk/gdansk-krolewskie-wzgorze-1,126189/"},
{"name": "Zabka", "opening_hours": "06:00-23:00", "address": "ul. Bolesława Leśmiana 9 lok. U14", "city": "Gdańsk", "map_link": "/godziny-otwarcia-sklepow/gdansk/gdansk-boleslawa-lesmiana-9-lok-u14/"},
{"name": "Zabka", "opening_hours": "06:00-23:00", "address": "ul. Władysława IV 7 .", "city": "Gdańsk", "map_link": "/godziny-otwarcia-sklepow/gdansk/gdansk-wladyslawa-iv-7,183605/"},
{"name": "Zabka", "opening_hours": "06:00-23:00", "address": "ul. Dywizjonu 303 303 nr 1", "city": "Gdańsk", "map_link": "/godziny-otwarcia-sklepow/gdansk/gdansk-dywizjonu-303-303-nr-1,126028/"},
{"name": "Zabka", "opening_hours": "06:00-23:00", "address": "ul. Starowiejska 48", "city": "Gdańsk", "map_link": "/godziny-otwarcia-sklepow/gdansk/gdansk-starowiejska-48,186507/"},
{"name": "Zabka", "opening_hours": "06:00-23:00", "address": "ul. Wolności 21E", "city": "Gdańsk", "map_link": "/godziny-otwarcia-sklepow/gdansk/gdansk-wolnosci-21e,135931/"},
{"name": "Zabka", "opening_hours": "06:00-23:00", "address": "ul. Antoniego Słonimskiego 1/62", "city": "Gdańsk", "map_link": "/godziny-otwarcia-sklepow/gdansk/gdansk-antoniego-slonimskiego-1-62/"},
{"name": "Zabka", "opening_hours": "06:00-23:00", "address": "ul. Mariana Hemara 2", "city": "Gdańsk", "map_link": "/godziny-otwarcia-sklepow/gdansk/gdansk-mariana-hemara-2/"},
{"name": "Zabka", "opening_hours": "06:00-23:00", "address": "ul. Juliusza Słowackiego 51", "city": "Gdańsk", "map_link": "/godziny-otwarcia-sklepow/gdansk/gdansk-juliusza-slowackiego-51/"},
{"name": "Zabka", "opening_hours": "06:00-23:00", "address": "ul. Bernarda Chrzanowskiego 11", "city": "Gdańsk", "map_link": "/godziny-otwarcia-sklepow/gdansk/gdansk-bernarda-chrzanowskiego-1,136230/"},
{"name": "Zabka", "opening_hours": "06:00-23:00", "address": "al. Jana Pawła II 23 C", "city": "Gdańsk", "map_link": "/godziny-otwarcia-sklepow/gdansk/gdansk-jana-pawla-i-23-c/"},
{"name": "Zabka", "opening_hours": "06:00-23:00", "address": "al. Jana Pawła II 6A", "city": "Gdańsk", "map_link": "/godziny-otwarcia-sklepow/gdansk/gdansk-jana-pawla-i-6a/"},
{"name": "Zabka", "opening_hours": "06:00-23:00", "address": "ul. Zbigniewa Burzyńskiego 9", "city": "Gdańsk", "map_link": "/godziny-otwarcia-sklepow/gdansk/gdansk-zbigniewa-burzynskiego-9,116178/"},
{"name": "Zabka", "opening_hours": "06:00-23:00", "address": "ul. Kartuska 195A", "city": "Gdańsk", "map_link": "/godziny-otwarcia-sklepow/gdansk/gdansk-kartuska-195a,116223/"},
{"name": "Zabka", "opening_hours": "06:00-23:00", "address": "ul. Kartuska 35 i 37", "city": "Gdańsk", "map_link": "/godziny-otwarcia-sklepow/gdansk/gdansk-kartuska-35-i-37,126114/"},
{"name": "Zabka", "opening_hours": "06:00-23:00", "address": "ul. Kartuska 345B/U1", "city": "Gdańsk", "map_link": "/godziny-otwarcia-sklepow/gdansk/gdansk-kartuska-345b-u1,125495/"},
{"name": "Zabka", "opening_hours": "06:00-23:00", "address": "ul. Kartuska 358A", "city": "Gdańsk", "map_link": "/godziny-otwarcia-sklepow/gdansk/gdansk-kartuska-358a,116226/"},
{"name": "Zabka", "opening_hours": "06:00-23:00", "address": "ul. Kartuska 246 Lok. UŻ2", "city": "Gdańsk", "map_link": "/godziny-otwarcia-sklepow/gdansk/gdansk-kartuska-246-lok-uz2,142963/"},
{"name": "Zabka", "opening_hours": "06:00-23:00", "address": "ul. Konstantego Bergiela 2B/10", "city": "Gdańsk", "map_link": "/godziny-otwarcia-sklepow/gdansk/gdansk-konstantego-bergiela-2b-10,116172/"},
{"name": "Zabka", "opening_hours": "06:00-23:00", "address": "ul. Myśliwskie Wzgórze 18", "city": "Gdańsk", "map_link": "/godziny-otwarcia-sklepow/gdansk/gdansk-mysliwskie-wzgorze-18,116240/"},
{"name": "Zabka", "opening_hours": "06:00-23:00", "address": "ul. Franciszka Hynka 65", "city": "Gdańsk", "map_link": "/godziny-otwarcia-sklepow/gdansk/gdansk-franciszka-hynka-65,116209/"},
{"name": "Zabka", "opening_hours": "06:00-23:00", "address": "ul. Franciszka Hynka 18", "city": "Gdańsk", "map_link": "/godziny-otwarcia-sklepow/gdansk/gdansk-franciszka-hynka-18,178555/"},
{"name": "Zabka", "opening_hours": "06:00-23:00", "address": "ul. Mieczysława Karłowicza 86", "city": "Gdańsk", "map_link": "/godziny-otwarcia-sklepow/gdansk/gdansk-mieczyslawa-karlowicza-86/"},
{"name": "Zabka", "opening_hours": "06:00-23:00", "address": "ul. Hokejowa 23/U2", "city": "Gdańsk", "map_link": "/godziny-otwarcia-sklepow/gdansk/gdansk-hokejowa-23-u2,125615/"},
{"name": "Zabka", "opening_hours": "06:00-23:00", "address": "ul. Lawendowe Wzgórze 23/ U1 I U2", "city": "Gdańsk", "map_link": "/godziny-otwarcia-sklepow/gdansk/gdansk-lawendowe-wzgorze-23-u1-i-u2,176536/"},
{"name": "Zabka", "opening_hours": "06:00-23:00", "address": "ul. Lawendowe Wzgórze 10", "city": "Gdańsk", "map_link": "/godziny-otwarcia-sklepow/gdansk/gdansk-lawendowe-wzgorze-10/"},
{"name": "Zabka", "opening_hours": "06:00-23:00", "address": "ul. Czerska 65", "city": "Gdańsk", "map_link": "/godziny-otwarcia-sklepow/gdansk/gdansk-czerska-65,183875/"},
{"name": "Zabka", "opening_hours": "06:00-23:00", "address": "ul. Łucznicza 9/U1", "city": "Gdańsk", "map_link": "/godziny-otwarcia-sklepow/gdansk/gdansk-lucznicza-9-u1,125415/"},
{"name": "Zabka", "opening_hours": "06:00-23:00", "address": "ul. Jabłoniowa 18/28", "city": "Gdańsk", "map_link": "/godziny-otwarcia-sklepow/gdansk/gdansk-jabloniowa-18-28/"},
{"name": "Zabka", "opening_hours": "06:00-23:00", "address": "ul. Ks. Bernarda Sychty 10A", "city": "Gdańsk", "map_link": "/godziny-otwarcia-sklepow/gdansk/gdansk-ks-bernarda-sychty-10a/"},
{"name": "Zabka", "opening_hours": "06:00-23:00", "address": "al. Jana Pawła II 1C", "city": "Gdańsk", "map_link": "/godziny-otwarcia-sklepow/gdansk/gdansk-jana-pawla-i-1c/"},
{"name": "Zabka", "opening_hours": "06:00-23:00", "address": "al. Jana Pawła II 3A", "city": "Gdańsk", "map_link": "/godziny-otwarcia-sklepow/gdansk/gdansk-jana-pawla-i-3a/"},
{"name": "Zabka", "opening_hours": "06:00-23:00", "address": "al. Jana Pawła II 11 b", "city": "Gdańsk", "map_link": "/godziny-otwarcia-sklepow/gdansk/gdansk-jana-pawla-i-1-b,142666/"},
{"name": "Zabka", "opening_hours": "06:00-23:00", "address": "ul. Ignacego Krasickiego 9E", "city": "Gdańsk", "map_link": "/godziny-otwarcia-sklepow/gdansk/gdansk-ignacego-krasickiego-9e/"},
{"name": "Zabka", "opening_hours": "06:00-23:00", "address": "ul. Gdańska 16", "city": "Gdańsk", "map_link": "/godziny-otwarcia-sklepow/gdansk/gdansk-gdanska-16/"},
{"name": "Zabka", "opening_hours": "06:00-23:00", "address": "ul. Fryderyka Chopina 33B", "city": "Gdańsk", "map_link": "/godziny-otwarcia-sklepow/gdansk/gdansk-fryderyka-chopina-3b,116184/"},
{"name": "Zabka", "opening_hours": "06:00-23:00", "address": "ul. Dworska 27", "city": "Gdańsk", "map_link": "/godziny-otwarcia-sklepow/gdansk/gdansk-dworska-27,26957/"},
{"name": "Zabka", "opening_hours": "06:00-23:00", "address": "ul. Orzechowa 1", "city": "Gdańsk", "map_link": "/godziny-otwarcia-sklepow/gdansk/gdansk-orzechowa-1,126551/"},
{"name": "Zabka", "opening_hours": "06:00-23:00", "address": "ul. Pilotów 9", "city": "Gdańsk", "map_link": "/godziny-otwarcia-sklepow/gdansk/gdansk-pilotow-9/"},
{"name": "Zabka", "opening_hours": "06:00-23:00", "address": "ul. Głuszca 1", "city": "Gdańsk", "map_link": "/godziny-otwarcia-sklepow/gdansk/gdansk-gluszca-1/"},
{"name": "Zabka", "opening_hours": "06:00-23:00", "address": "ul. Wielkopolska 70", "city": "Gdańsk", "map_link": "/godziny-otwarcia-sklepow/gdansk/gdansk-wielkopolska-70/"},
{"name": "Zabka", "opening_hours": "06:00-23:00", "address": "ul. Dworska 14", "city": "Gdańsk", "map_link": "/godziny-otwarcia-sklepow/gdansk/gdansk-dworska-14/"},
{"name": "Zabka", "opening_hours": "06:00-23:00", "address": "ul. Startowa 2b", "city": "Gdańsk", "map_link": "/godziny-otwarcia-sklepow/gdansk/gdansk-startowa-2b/"},
{"name": "Zabka", "opening_hours": "06:00-23:00", "address": "ul. Startowa 4A", "city": "Gdańsk", "map_link": "/godziny-otwarcia-sklepow/gdansk/gdansk-startowa-4a,116267/"},
{"name": "Zabka", "opening_hours": "06:00-23:00", "address": "ul. Janusza Meissnera 20", "city": "Gdańsk", "map_link": "/godziny-otwarcia-sklepow/gdansk/gdansk-janusza-meisnera-20/"},
{"name": "Zabka", "opening_hours": "06:00-23:00", "address": "ul. Jabłoniowa 29A", "city": "Gdańsk", "map_link": "/godziny-otwarcia-sklepow/gdansk/gdansk-jabloniowa-29a,116160/"},
{"name": "Zabka", "opening_hours": "06:00-23:00", "address": "ul. Olsztyńska 3C/11", "city": "Gdańsk", "map_link": "/godziny-otwarcia-sklepow/gdansk/gdansk-olsztynska-3c-1,116246/"},
{"name": "Zabka", "opening_hours": "06:00-23:00", "address": "ul. gen. Władysława Andersa 22", "city": "Gdańsk", "map_link": "/godziny-otwarcia-sklepow/gdansk/gdansk-gen-wladyslawa-andersa-2/"},
{"name": "Zabka", "opening_hours": "06:00-23:00", "address": "ul. Alfonsa Flisykowskiego 15", "city": "Gdańsk", "map_link": "/godziny-otwarcia-sklepow/gdansk/gdansk-alfonsa-flisykowskiego-15/"},
{"name": "Zabka", "opening_hours": "06:00-23:00", "address": "ul. Nasza 21", "city": "Borkowo", "map_link": "/godziny-otwarcia-sklepow/borkowo/borkowo-nasza-21,186523/"},
{"name": "Zabka", "opening_hours": "06:00-23:00", "address": "ul. Konrada Guderskiego 2/III KL.B", "city": "Gdańsk", "map_link": "/godziny-otwarcia-sklepow/gdansk/gdansk-konrada-guderskiego-2-i-kl-b,125354/"},
{"name": "Zabka", "opening_hours": "06:00-23:00", "address": "ul. Konrada Guderskiego 66", "city": "Gdańsk", "map_link": "/godziny-otwarcia-sklepow/gdansk/gdansk-konrada-guderskiego-6/"},
{"name": "Zabka", "opening_hours": "06:00-23:00", "address": "ul. Jelitkowski Dwór 2/1", "city": "Gdańsk", "map_link": "/godziny-otwarcia-sklepow/gdansk/gdansk-jelitkowski-dwor-2-1,116218/"},
{"name": "Zabka", "opening_hours": "06:00-23:00", "address": "ul. Kasztanowa 15", "city": "Borkowo", "map_link": "/godziny-otwarcia-sklepow/borkowo/borkowo-kasztanowa-15,135968/"},
{"name": "Zabka", "opening_hours": "06:00-23:00", "address": "ul. Antoniego Abrahama 15B", "city": "Gdańsk", "map_link": "/godziny-otwarcia-sklepow/gdansk/gdansk-antoniego-abrahama-15b/"},
{"name": "Zabka", "opening_hours": "06:00-23:00", "address": "al. Rzeczypospolitej 3", "city": "Gdańsk", "map_link": "/godziny-otwarcia-sklepow/gdansk/gdansk-rzeczypospolitej-3,116259/"},
{"name": "Zabka", "opening_hours": "06:00-23:00", "address": "al. Rzeczypospolitej 4D", "city": "Gdańsk", "map_link": "/godziny-otwarcia-sklepow/gdansk/gdansk-rzeczypospolitej-4d,116260/"},
{"name": "Zabka", "opening_hours": "06:00-23:00", "address": "ul. Potęgowska 12/49", "city": "Gdańsk", "map_link": "/godziny-otwarcia-sklepow/gdansk/gdansk-potegowska-12-49,116254/"},
{"name": "Zabka", "opening_hours": "06:00-23:00", "address": "Współczesna 1R", "city": "Borkowo", "map_link": "/godziny-otwarcia-sklepow/borkowo/borkowo-wspolczesna-1r,115808/"},
{"name": "Zabka", "opening_hours": "06:00-23:00", "address": "ul. Grudziądzka 10 Lok. 121", "city": "Gdańsk", "map_link": "/godziny-otwarcia-sklepow/gdansk/gdansk-grudziadzka-10-lok-121,143736/"},
{"name": "Zabka", "opening_hours": "06:00-23:00", "address": "ul. Gdańska 2", "city": "Gdańsk", "map_link": "/godziny-otwarcia-sklepow/gdansk/gdansk-gdanska-2/"},
{"name": "Zabka", "opening_hours": "06:00-23:00", "address": "ul. Zeusa 82/U1 U2", "city": "Kowale", "map_link": "/godziny-otwarcia-sklepow/kowale__109750/kowale-zeusa-82-u1-u2,125572/"},
{"name": "Zabka", "opening_hours": "06:00-23:00", "address": "ul. Zeusa 14", "city": "Kowale", "map_link": "/godziny-otwarcia-sklepow/kowale__109750/kowale-zeusa-14,186481/"},
{"name": "Zabka", "opening_hours": "06:00-23:00", "address": "ul. Prezydenta Lecha Kaczyńskiego 31", "city": "Gdańsk", "map_link": "/godziny-otwarcia-sklepow/gdansk/gdansk-prezydenta-lecha-kaczynskiego-31/"},
{"name": "Zabka", "opening_hours": "06:00-23:00", "address": "ul. Tysiąclecia 24/6", "city": "Gdańsk", "map_link": "/godziny-otwarcia-sklepow/gdansk/gdansk-tysiaclecia-24-6,125606/"},
{"name": "Zabka", "opening_hours": "06:00-23:00", "address": "ul. Obrońców Wybrzeża 10B", "city": "Gdańsk", "map_link": "/godziny-otwarcia-sklepow/gdansk/gdansk-obroncow-wybrzeza-10b/"},
{"name": "Zabka", "opening_hours": "06:00-23:00", "address": "ul. Stężycka 64 lok. 1 i 2", "city": "Gdańsk", "map_link": "/godziny-otwarcia-sklepow/gdansk/gdansk-stezycka-64-lok-1-i-2,143670/"},
{"name": "Zabka", "opening_hours": "06:00-23:00", "address": "ul. Obrońców Wybrzeża 3a", "city": "Gdańsk", "map_link": "/godziny-otwarcia-sklepow/gdansk/gdansk-obroncow-wybrzeza-3a,173335/"},
{"name": "Zabka", "opening_hours": "06:00-23:00", "address": "ul. Obrońców Wybrzeża 11/3", "city": "Gdańsk", "map_link": "/godziny-otwarcia-sklepow/gdansk/gdansk-obroncow-wybrzeza-1-3,116245/"},
{"name": "Zabka", "opening_hours": "06:00-23:00", "address": "ul. Obrońców Wybrzeża 2", "city": "Gdańsk", "map_link": "/godziny-otwarcia-sklepow/gdansk/gdansk-obroncow-wybrzeza-2,126048/"},
{"name": "Zabka", "opening_hours": "06:00-23:00", "address": "ul. Obrońców Wybrzeża 27", "city": "Gdańsk", "map_link": "/godziny-otwarcia-sklepow/gdansk/gdansk-obroncow-wybrzeza-27/"},
{"name": "Zabka", "opening_hours": "06:00-23:00", "address": "ul. Kołobrzeska 34", "city": "Gdańsk", "map_link": "/godziny-otwarcia-sklepow/gdansk/gdansk-kolobrzeska-34/"},
{"name": "Zabka", "opening_hours": "06:00-23:00", "address": "ul. Kołobrzeska 5", "city": "Gdańsk", "map_link": "/godziny-otwarcia-sklepow/gdansk/gdansk-kolobrzeska-5,116231/"},
{"name": "Zabka", "opening_hours": "06:00-23:00", "address": "ul. Kołobrzeska 59A", "city": "Gdańsk", "map_link": "/godziny-otwarcia-sklepow/gdansk/gdansk-kolobrzeska-59a,126034/"},
{"name": "Zabka", "opening_hours": "06:00-23:00", "address": "ul. Kołobrzeska 21A", "city": "Gdańsk", "map_link": "/godziny-otwarcia-sklepow/gdansk/gdansk-kolobrzeska-21a/"},
{"name": "Zabka", "opening_hours": "06:00-23:00", "address": "ul. Śląska 12", "city": "Gdańsk", "map_link": "/godziny-otwarcia-sklepow/gdansk/gdansk-slaska-12,176539/"},
{"name": "Zabka", "opening_hours": "06:00-23:00", "address": "ul. Śląska 39A", "city": "Gdańsk", "map_link": "/godziny-otwarcia-sklepow/gdansk/gdansk-slaska-39a,116278/"},
{"name": "Zabka", "opening_hours": "06:00-23:00", "address": "ul. Krzysztofa Komedy 32", "city": "Gdańsk", "map_link": "/godziny-otwarcia-sklepow/gdansk/gdansk-krzysztofa-komedy-32/"},
{"name": "Zabka", "opening_hours": "06:00-23:00", "address": "ul. Krzysztofa Komedy 2", "city": "Gdańsk", "map_link": "/godziny-otwarcia-sklepow/gdansk/gdansk-krzysztofa-komedy-2,162760/"},
{"name": "Zabka", "opening_hours": "06:00-23:00", "address": "ul. Przytulna 7", "city": "Gdańsk", "map_link": "/godziny-otwarcia-sklepow/gdansk/gdansk-przytulna-7,116256/"},
{"name": "Zabka", "opening_hours": "06:00-23:00", "address": "ul. Wita Stwosza 46", "city": "Gdańsk", "map_link": "/godziny-otwarcia-sklepow/gdansk/gdansk-wita-stwosza-46,116290/"},
{"name": "Zabka", "opening_hours": "06:00-23:00", "address": "ul. Gen. Bora-Komorowskiego 39 i 38", "city": "Gdańsk", "map_link": "/godziny-otwarcia-sklepow/gdansk/gdansk-gen-bora-komorowskiego-39-i-38,125679/"},
{"name": "Zabka", "opening_hours": "06:00-23:00", "address": "ul. Prezydenta Lecha Kaczyńskiego 18", "city": "Gdańsk", "map_link": "/godziny-otwarcia-sklepow/gdansk/gdansk-prezydenta-lecha-kaczynskiego-18,183821/"},
{"name": "Zabka", "opening_hours": "06:00-23:00", "address": "ul. Szczecińska 2/1", "city": "Gdańsk", "map_link": "/godziny-otwarcia-sklepow/gdansk/gdansk-szczecinska-2-1,125437/"},
{"name": "Zabka", "opening_hours": "06:00-23:00", "address": "ul. Szczecińska 33", "city": "Gdańsk", "map_link": "/godziny-otwarcia-sklepow/gdansk/gdansk-szczecinska-3,116275/"},
{"name": "Zabka", "opening_hours": "06:00-23:00", "address": "ul. Chłopska 24A", "city": "Gdańsk", "map_link": "/godziny-otwarcia-sklepow/gdansk/gdansk-chlopska-24a,116181/"},
{"name": "Zabka", "opening_hours": "06:00-23:00", "address": "ul. Jagiellońska 8A", "city": "Gdańsk", "map_link": "/godziny-otwarcia-sklepow/gdansk/gdansk-jagielonska-8a,116211/"},
{"name": "Zabka", "opening_hours": "06:00-23:00", "address": "ul. Polanki 31", "city": "Gdańsk", "map_link": "/godziny-otwarcia-sklepow/gdansk/gdansk-polanki-31,116165/"},
{"name": "Zabka", "opening_hours": "06:00-23:00", "address": "al. Grunwaldzka 75", "city": "Gdańsk", "map_link": "/godziny-otwarcia-sklepow/gdansk/gdansk-grunwaldzka-75/"},
{"name": "Zabka", "opening_hours": "06:00-23:00", "address": "al. Grunwaldzka 92/98 .", "city": "Gdańsk", "map_link": "/godziny-otwarcia-sklepow/gdansk/gdansk-grunwaldzka-92-98,176532/"},
{"name": "Zabka", "opening_hours": "06:00-23:00", "address": "al. Grunwaldzka 156", "city": "Gdańsk", "map_link": "/godziny-otwarcia-sklepow/gdansk/gdansk-grunwaldzka-156/"},
{"name": "Zabka", "opening_hours": "06:00-23:00", "address": "al. Grunwaldzka 409", "city": "Gdańsk", "map_link": "/godziny-otwarcia-sklepow/gdansk/gdansk-grunwaldzka-409/"},
{"name": "Zabka", "opening_hours": "06:00-23:00", "address": "al. Grunwaldzka 472", "city": "Gdańsk", "map_link": "/godziny-otwarcia-sklepow/gdansk/gdansk-grunwaldzka-472/"},
{"name": "Zabka", "opening_hours": "06:00-23:00", "address": "al. Grunwaldzka 347", "city": "Gdańsk", "map_link": "/godziny-otwarcia-sklepow/gdansk/gdansk-grunwaldzka-347/"},
{"name": "Zabka", "opening_hours": "06:00-23:00", "address": "al. Grunwaldzka 74", "city": "Gdańsk", "map_link": "/godziny-otwarcia-sklepow/gdansk/gdansk-grunwaldzka-74/"},
{"name": "Zabka", "opening_hours": "06:00-23:00", "address": "al. Grunwaldzka 489", "city": "Gdańsk", "map_link": "/godziny-otwarcia-sklepow/gdansk/gdansk-grunwaldzka-489/"},
{"name": "Zabka", "opening_hours": "06:00-23:00", "address": "al. Grunwaldzka 415", "city": "Gdańsk", "map_link": "/godziny-otwarcia-sklepow/gdansk/gdansk-grunwaldzka-415,116158/"},
{"name": "Zabka", "opening_hours": "06:00-23:00", "address": "al. Grunwaldzka 42", "city": "Gdańsk", "map_link": "/godziny-otwarcia-sklepow/gdansk/gdansk-grunwaldzka-42/"},
{"name": "Zabka", "opening_hours": "06:00-23:00", "address": "al. Grunwaldzka 12", "city": "Gdańsk", "map_link": "/godziny-otwarcia-sklepow/gdansk/gdansk-grunwaldzka-12/"},
{"name": "Zabka", "opening_hours": "06:00-23:00", "address": "ul. Piastowska 82", "city": "Gdańsk", "map_link": "/godziny-otwarcia-sklepow/gdansk/gdansk-piastowska-82,116250/"},
{"name": "Zabka", "opening_hours": "06:00-23:00", "address": "ul. Wita Stwosza 13", "city": "Gdańsk", "map_link": "/godziny-otwarcia-sklepow/gdansk/gdansk-wita-stwosza-13/"},
{"name": "Zabka", "opening_hours": "06:00-23:00", "address": "ul. Bolesława Krzywoustego 13A", "city": "Gdańsk", "map_link": "/godziny-otwarcia-sklepow/gdansk/gdansk-boleslawa-krzywoustego-13a,125983/"},
{"name": "Zabka", "opening_hours": "06:00-23:00", "address": "ul. Piastowska 206", "city": "Gdańsk", "map_link": "/godziny-otwarcia-sklepow/gdansk/gdansk-piastowska-206/"},
{"name": "Zabka", "opening_hours": "06:00-23:00", "address": "ul. Piastowska 97", "city": "Gdańsk", "map_link": "/godziny-otwarcia-sklepow/gdansk/gdansk-piastowska-97,116251/"},
{"name": "Zabka", "opening_hours": "06:00-23:00", "address": "ul. Leona Droszyńskiego 32A", "city": "Gdańsk", "map_link": "/godziny-otwarcia-sklepow/gdansk/gdansk-leona-droszynskiego-32a,116191/"},
{"name": "Zabka", "opening_hours": "06:00-23:00", "address": "ul. Opata Jacka Rybińskiego 5", "city": "Gdańsk", "map_link": "/godziny-otwarcia-sklepow/gdansk/gdansk-opata-jacka-rybinskiego-5,135993/"},
{"name": "Zabka", "opening_hours": "06:00-23:00", "address": "ul. Stefana Rogozińskiego 6/S1", "city": "Pruszcz Gdański", "map_link": "/godziny-otwarcia-sklepow/pruszcz-gdanski/pruszcz-gdanski-stefana-rogozinskiego-6-s1,142822/"},
{"name": "Zabka", "opening_hours": "06:00-23:00", "address": "ul. Cytrowa 2A/1", "city": "Gdańsk", "map_link": "/godziny-otwarcia-sklepow/gdansk/gdansk-cytrowa-2a-1/"},
{"name": "Zabka", "opening_hours": "06:00-23:00", "address": "ul. Bajki 2", "city": "Rotmanka", "map_link": "/godziny-otwarcia-sklepow/rotmanka/rotmanka-bajki-2,118238/"},
{"name": "Zabka", "opening_hours": "06:00-23:00", "address": "ul. Kalinowa 11/5", "city": "Gdańsk", "map_link": "/godziny-otwarcia-sklepow/gdansk/gdansk-kalinowa-1-5/"},
{"name": "Zabka", "opening_hours": "06:00-23:00", "address": "ul. Stary Rynek Oliwski 6", "city": "Gdańsk", "map_link": "/godziny-otwarcia-sklepow/gdansk/gdansk-stary-rynek-oliwski-6/"},
{"name": "Zabka", "opening_hours": "06:00-23:00", "address": "ul. Prof. Mariana Raciborskiego 1C", "city": "Gdańsk", "map_link": "/godziny-otwarcia-sklepow/gdansk/gdansk-prof-mariana-raciborskiego-1c/"},
{"name": "Zabka", "opening_hours": "06:00-23:00", "address": "ul. Gospody 3A", "city": "Gdańsk", "map_link": "/godziny-otwarcia-sklepow/gdansk/gdansk-gospody-3a/"},
{"name": "Zabka", "opening_hours": "06:00-23:00", "address": "ul. Storczykowa 4/1", "city": "Gdańsk", "map_link": "/godziny-otwarcia-sklepow/gdansk/gdansk-storczykowa-4-1,125535/"},
{"name": "Zabka", "opening_hours": "06:00-23:00", "address": "ul. Henryka Arctowskiego 2", "city": "Pruszcz Gdański", "map_link": "/godziny-otwarcia-sklepow/pruszcz-gdanski/pruszcz-gdanski-henryka-arctowskiego-2,173970/"},
{"name": "Zabka", "opening_hours": "06:00-23:00", "address": "ul. Mikołaja Kopernika 39 .", "city": "Pruszcz Gdański", "map_link": "/godziny-otwarcia-sklepow/pruszcz-gdanski/pruszcz-gdanski-mikolaja-kopernika-39,183329/"},
{"name": "Zabka", "opening_hours": "06:00-23:00", "address": "ul. Antoniego Dobrowolskiego 8", "city": "Pruszcz Gdański", "map_link": "/godziny-otwarcia-sklepow/pruszcz-gdanski/pruszcz-gdanski-antoniego-dobrowolskiego-8,126057/"},
{"name": "Zabka", "opening_hours": "06:00-23:00", "address": "ul. Jana Kasprowicza 52/2", "city": "Pruszcz Gdański", "map_link": "/godziny-otwarcia-sklepow/pruszcz-gdanski/pruszcz-gdanski-jana-kasprowicza-52-2/"},
{"name": "Zabka", "opening_hours": "06:00-23:00", "address": "ul. Józefa Czyżewskiego 6", "city": "Gdańsk", "map_link": "/godziny-otwarcia-sklepow/gdansk/gdansk-jozefa-czyzewskiego-6/"},
{"name": "Zabka", "opening_hours": "06:00-23:00", "address": "ul. Subisława 27C/5", "city": "Gdańsk", "map_link": "/godziny-otwarcia-sklepow/gdansk/gdansk-subislawa-27c-5,116271/"},
{"name": "Zabka", "opening_hours": "06:00-23:00", "address": "ul. Jelitkowska 73", "city": "Gdańsk", "map_link": "/godziny-otwarcia-sklepow/gdansk/gdansk-jelitkowska-73/"},
{"name": "Zabka", "opening_hours": "06:00-23:00", "address": "ul. Gospody 19 A/B", "city": "Gdańsk", "map_link": "/godziny-otwarcia-sklepow/gdansk/gdansk-gospody-19-a-b,125591/"},
{"name": "Zabka", "opening_hours": "06:00-23:00", "address": "ul. Bitwy Oliwskiej 21E", "city": "Gdańsk", "map_link": "/godziny-otwarcia-sklepow/gdansk/gdansk-bitwy-oliwskiej-21e/"},
{"name": "Zabka", "opening_hours": "06:00-23:00", "address": "ul. Obrońców Pokoju 32", "city": "Pruszcz Gdański", "map_link": "/godziny-otwarcia-sklepow/pruszcz-gdanski/pruszcz-gdanski-obroncow-pokoju-32,118117/"},
{"name": "Zabka", "opening_hours": "06:00-23:00", "address": "pl. Wyzwolenia 1", "city": "Pruszcz Gdański", "map_link": "/godziny-otwarcia-sklepow/pruszcz-gdanski/pruszcz-gdanski-wyzwolenia-1,176699/"},
{"name": "Zabka", "opening_hours": "06:00-23:00", "address": "ul. Żwirki i Wigury 1a", "city": "Pruszcz Gdański", "map_link": "/godziny-otwarcia-sklepow/pruszcz-gdanski/pruszcz-gdanski-zwirki-i-wigury-1a/"},
{"name": "Zabka", "opening_hours": "06:00-23:00", "address": "ul. Wojciecha Kossaka 2", "city": "Pruszcz Gdański", "map_link": "/godziny-otwarcia-sklepow/pruszcz-gdanski/pruszcz-gdanski-wojciecha-kosaka-2,118115/"},
{"name": "Zabka", "opening_hours": "06:00-23:00", "address": "ul. Wojska Polskiego 18", "city": "Pruszcz Gdański", "map_link": "/godziny-otwarcia-sklepow/pruszcz-gdanski/pruszcz-gdanski-wojska-polskiego-18,118120/"},
{"name": "Zabka", "opening_hours": "06:00-23:00", "address": "ul. Andrzeja Frycza-Modrzewskiego 55", "city": "Pruszcz Gdański", "map_link": "/godziny-otwarcia-sklepow/pruszcz-gdanski/pruszcz-gdanski-andrzeja-frycza-modrzewskiego-5,118113/"},
{"name": "Zabka", "opening_hours": "06:00-23:00", "address": "ul. Obrońców Wybrzeża 14A", "city": "Pruszcz Gdański", "map_link": "/godziny-otwarcia-sklepow/pruszcz-gdanski/pruszcz-gdanski-obroncow-wybrzeza-14a,118118/"},
{"name": "Zabka", "opening_hours": "06:00-23:00", "address": "ul. Urocza 17", "city": "Juszkowo", "map_link": "/godziny-otwarcia-sklepow/juszkowo/juszkowo-urocza-17,126443/"},
{"name": "Zabka", "opening_hours": "06:00-23:00", "address": "ul. Nowatorów 9A", "city": "Gdańsk", "map_link": "/godziny-otwarcia-sklepow/gdansk/gdansk-nowatorow-9a,116244/"},
{"name": "Zabka", "opening_hours": "06:00-23:00", "address": "ul. Nowatorów 23", "city": "Gdańsk", "map_link": "/godziny-otwarcia-sklepow/gdansk/gdansk-nowatorow-23,176537/"},
{"name": "Zabka", "opening_hours": "06:00-23:00", "address": "ul. Nowatorów 3", "city": "Gdańsk", "map_link": "/godziny-otwarcia-sklepow/gdansk/gdansk-nowatorow-3/"},
{"name": "Zabka", "opening_hours": "06:00-23:00", "address": "ul. Raduńska 62a", "city": "Juszkowo", "map_link": "/godziny-otwarcia-sklepow/juszkowo/juszkowo-radunska-62a,186550/"},
{"name": "Zabka", "opening_hours": "06:00-23:00", "address": "ul. Feliksa Nowowiejskiego 1", "city": "Pruszcz Gdański", "map_link": "/godziny-otwarcia-sklepow/pruszcz-gdanski/pruszcz-gdanski-feliksa-nowowiejskiego-1/"},
{"name": "Zabka", "opening_hours": "06:00-23:00", "address": "ul. Turystyczna 6", "city": "Gdańsk", "map_link": "/godziny-otwarcia-sklepow/gdansk/gdansk-turystyczna-6/"},
{"name": "Zabka", "opening_hours": "06:00-23:00", "address": "ul. 3 Maja 9", "city": "Sopot", "map_link": "/godziny-otwarcia-sklepow/sopot/sopot-3-maja-9,118454/"},
{"name": "Zabka", "opening_hours": "06:00-23:00", "address": "al. Niepodległości 712", "city": "Sopot", "map_link": "/godziny-otwarcia-sklepow/sopot/sopot-niepodleglosci-712/"},
{"name": "Zabka", "opening_hours": "06:00-23:00", "address": "ul. Tęczowa 2", "city": "Gdańsk", "map_link": "/godziny-otwarcia-sklepow/gdansk/gdansk-teczowa-2/"},
{"name": "Zabka", "opening_hours": "06:00-23:00", "address": "ul. Kazimierza Wielkiego 7", "city": "Sopot", "map_link": "/godziny-otwarcia-sklepow/sopot/sopot-kazimierza-wielkiego-7,118460/"},
{"name": "Zabka", "opening_hours": "06:00-23:00", "address": "ul. Grunwaldzka 59", "city": "Sopot", "map_link": "/godziny-otwarcia-sklepow/sopot/sopot-grunwaldzka-59,118459/"},
{"name": "Zabka", "opening_hours": "06:00-23:00", "address": "ul. Kazimierza Wielkiego 28", "city": "Gdańsk", "map_link": "/godziny-otwarcia-sklepow/gdansk/gdansk-kazimierza-wielkiego-28,170228/"},
{"name": "Zabka", "opening_hours": "06:00-23:00", "address": "ul. Armii Krajowej 60A", "city": "Sopot", "map_link": "/godziny-otwarcia-sklepow/sopot/sopot-armi-krajowej-60a,136000/"},
{"name": "Zabka", "opening_hours": "06:00-23:00", "address": "ul. Fryderyka Chopina 26", "city": "Sopot", "map_link": "/godziny-otwarcia-sklepow/sopot/sopot-fryderyka-chopina-26/"},
{"name": "Zabka", "opening_hours": "06:00-23:00", "address": "ul. Marynarzy 3", "city": "Sopot", "map_link": "/godziny-otwarcia-sklepow/sopot/sopot-marynarzy-3/"},
{"name": "Zabka", "opening_hours": "06:00-23:00", "address": "ul. Fryderyka Chopina 46", "city": "Sopot", "map_link": "/godziny-otwarcia-sklepow/sopot/sopot-fryderyka-chopina-46/"},
{"name": "Zabka", "opening_hours": "06:00-23:00", "address": "ul. Tadeusza Kościuszki 5/2", "city": "Sopot", "map_link": "/godziny-otwarcia-sklepow/sopot/sopot-tadeusza-kosciuszki-5-2,118463/"},
{"name": "Zabka", "opening_hours": "06:00-23:00", "address": "al. Niepodległości 771", "city": "Sopot", "map_link": "/godziny-otwarcia-sklepow/sopot/sopot-niepodleglosci-71/"},
{"name": "Zabka", "opening_hours": "06:00-23:00", "address": "al. Niepodległości 675", "city": "Sopot", "map_link": "/godziny-otwarcia-sklepow/sopot/sopot-niepodleglosci-675,126052/"},
{"name": "Zabka", "opening_hours": "06:00-23:00", "address": "ul. Radarowa 30", "city": "Gdańsk", "map_link": "/godziny-otwarcia-sklepow/gdansk/gdansk-radarowa-30,166424/"},
{"name": "Zabka", "opening_hours": "06:00-23:00", "address": "ul. Antoniego Abrahama 34", "city": "Sopot", "map_link": "/godziny-otwarcia-sklepow/sopot/sopot-antoniego-abrahama-34/"},
{"name": "Zabka", "opening_hours": "06:00-23:00", "address": "ul. Bohaterów Monte Cassino 60", "city": "Sopot", "map_link": "/godziny-otwarcia-sklepow/sopot/sopot-bohaterow-monte-casino-60,118457/"},
{"name": "Zabka", "opening_hours": "06:00-23:00", "address": "ul. Bohaterów Monte Cassino 21", "city": "Sopot", "map_link": "/godziny-otwarcia-sklepow/sopot/sopot-bohaterow-monte-casino-21,163024/"},
{"name": "Zabka", "opening_hours": "06:00-23:00", "address": "ul. Bohaterów Monte Cassino 5", "city": "Sopot", "map_link": "/godziny-otwarcia-sklepow/sopot/sopot-bohaterow-monte-casino-5,125763/"},
{"name": "Zabka", "opening_hours": "06:00-23:00", "address": "ul. Jana Jerzego Haffnera 24", "city": "Sopot", "map_link": "/godziny-otwarcia-sklepow/sopot/sopot-jana-jerzego-hafnera-24/"},
{"name": "Zabka", "opening_hours": "06:00-23:00", "address": "ul. Armii Krajowej 133", "city": "Sopot", "map_link": "/godziny-otwarcia-sklepow/sopot/sopot-armi-krajowej-13/"},
{"name": "Zabka", "opening_hours": "06:00-23:00", "address": "ul. Długa 101A", "city": "Cieplewo", "map_link": "/godziny-otwarcia-sklepow/cieplewo/cieplewo-dluga-101a/"},
{"name": "Zabka", "opening_hours": "06:00-23:00", "address": "ul. Jacka Malczewskiego 1-3", "city": "Sopot", "map_link": "/godziny-otwarcia-sklepow/sopot/sopot-jacka-malczewskiego-1-3,118465/"},
{"name": "Zabka", "opening_hours": "06:00-23:00", "address": "ul. 23 Marca 77C", "city": "Sopot", "map_link": "/godziny-otwarcia-sklepow/sopot/sopot-23-marca-7c,118453/"},
{"name": "Zabka", "opening_hours": "06:00-23:00", "address": "ul. Józefa Kraszewskiego 26", "city": "Sopot", "map_link": "/godziny-otwarcia-sklepow/sopot/sopot-jozefa-kraszewskiego-26,118464/"},
{"name": "Zabka", "opening_hours": "06:00-23:00", "address": "ul. Wejherowska 31", "city": "Sopot", "map_link": "/godziny-otwarcia-sklepow/sopot/sopot-wejherowska-31,118467/"},
{"name": "Zabka", "opening_hours": "06:00-23:00", "address": "ul. Orfeusza 2A", "city": "Gdańsk", "map_link": "/godziny-otwarcia-sklepow/gdansk/gdansk-orfeusza-2a,136220/"},
{"name": "Zabka", "opening_hours": "06:00-23:00", "address": "ul. Orfeusza 40", "city": "Gdańsk", "map_link": "/godziny-otwarcia-sklepow/gdansk/gdansk-orfeusza-40,176538/"},
{"name": "Zabka", "opening_hours": "06:00-23:00", "address": "ul. Wodnika 46", "city": "Gdańsk", "map_link": "/godziny-otwarcia-sklepow/gdansk/gdansk-wodnika-46/"},
{"name": "Zabka", "opening_hours": "06:00-23:00", "address": "ul. Spacerowa 18", "city": "Łęgowo", "map_link": "/godziny-otwarcia-sklepow/legowo/legowo-spacerowa-18,117339/"},
{"name": "Zabka", "opening_hours": "06:00-23:00", "address": "ul. Oskara Kolberga 9", "city": "Sopot", "map_link": "/godziny-otwarcia-sklepow/sopot/sopot-oskara-kolberga-9/"},
{"name": "Zabka", "opening_hours": "06:00-23:00", "address": "ul. Koziorożca 2", "city": "Gdańsk", "map_link": "/godziny-otwarcia-sklepow/gdansk/gdansk-koziorozca-2,116162/"},
{"name": "Zabka", "opening_hours": "06:00-23:00", "address": "ul. Koziorożca 33", "city": "Gdańsk", "map_link": "/godziny-otwarcia-sklepow/gdansk/gdansk-koziorozca-3/"},
{"name": "Zabka", "opening_hours": "06:00-23:00", "address": "ul. Staromłyńska 16", "city": "Kolbudy", "map_link": "/godziny-otwarcia-sklepow/kolbudy/kolbudy-staromlynska-16,116787/"},
{"name": "Zabka", "opening_hours": "06:00-23:00", "address": "ul. Nowy Świat 1c .", "city": "Gdańsk", "map_link": "/godziny-otwarcia-sklepow/gdansk/gdansk-nowy-swiat-1c/"},
{"name": "Zabka", "opening_hours": "06:00-23:00", "address": "ul. Zeusa 54", "city": "Gdańsk", "map_link": "/godziny-otwarcia-sklepow/gdansk/gdansk-zeusa-54/"},
{"name": "Zabka", "opening_hours": "06:00-23:00", "address": "ul. Kielnieńska 99", "city": "Gdańsk", "map_link": "/godziny-otwarcia-sklepow/gdansk/gdansk-kielnienska-9,186441/"},
{"name": "Zabka", "opening_hours": "06:00-23:00", "address": "al. Zwycięstwa 239", "city": "Gdynia", "map_link": "/godziny-otwarcia-sklepow/gdynia/gdynia-zwyciestwa-239/"},
{"name": "Zabka", "opening_hours": "06:00-23:00", "address": "ul. Parkowa 6/1A", "city": "Gdynia", "map_link": "/godziny-otwarcia-sklepow/gdynia/gdynia-parkowa-6-1a/"},
{"name": "Zabka", "opening_hours": "06:00-23:00", "address": "ul. Nowodworcowa 20", "city": "Gdynia", "map_link": "/godziny-otwarcia-sklepow/gdynia/gdynia-nowodworcowa-20,116339/"},
{"name": "Zabka", "opening_hours": "06:00-23:00", "address": "ul. Olgierda 71a", "city": "Gdynia", "map_link": "/godziny-otwarcia-sklepow/gdynia/gdynia-olgierda-71a,176547/"},
{"name": "Zabka", "opening_hours": "06:00-23:00", "address": "pl. Górnośląski 1", "city": "Gdynia", "map_link": "/godziny-otwarcia-sklepow/gdynia/gdynia-gornoslaski-1,80457/"},
{"name": "Zabka", "opening_hours": "06:00-23:00", "address": "ul. Buraczana 25", "city": "Gdynia", "map_link": "/godziny-otwarcia-sklepow/gdynia/gdynia-buraczana-25,19841/"},
{"name": "Zabka", "opening_hours": "06:00-23:00", "address": "ul. Źródło Marii 4", "city": "Gdynia", "map_link": "/godziny-otwarcia-sklepow/gdynia/gdynia-zrodlo-mari-4,173381/"},
{"name": "Zabka", "opening_hours": "06:00-23:00", "address": "ul. Bieszczadzka 6", "city": "Gdynia", "map_link": "/godziny-otwarcia-sklepow/gdynia/gdynia-bieszczadzka-6/"},
{"name": "Zabka", "opening_hours": "06:00-23:00", "address": "ul. Borowiecka 3", "city": "Banino", "map_link": "/godziny-otwarcia-sklepow/banino/banino-borowiecka-3,115653/"},
{"name": "Zabka", "opening_hours": "06:00-23:00", "address": "ul. Myśliwska 27", "city": "Gdynia", "map_link": "/godziny-otwarcia-sklepow/gdynia/gdynia-mysliwska-27,116338/"},
{"name": "Zabka", "opening_hours": "06:00-23:00", "address": "ul. Powstania Wielkopolskiego 95", "city": "Gdynia", "map_link": "/godziny-otwarcia-sklepow/gdynia/gdynia-powstania-wielkopolskiego-95,116343/"},
{"name": "Zabka", "opening_hours": "06:00-23:00", "address": "ul. Chwaszczyńska 21", "city": "Gdynia", "map_link": "/godziny-otwarcia-sklepow/gdynia/gdynia-chwaszczynska-21,116314/"},
{"name": "Zabka", "opening_hours": "06:00-23:00", "address": "ul. Legionów 112/7", "city": "Gdynia", "map_link": "/godziny-otwarcia-sklepow/gdynia/gdynia-legionow-12-7,116329/"},
{"name": "Zabka", "opening_hours": "06:00-23:00", "address": "ul. Dragonów 1A", "city": "Gdynia", "map_link": "/godziny-otwarcia-sklepow/gdynia/gdynia-dragonow-1a/"},
{"name": "Zabka", "opening_hours": "06:00-23:00", "address": "ul. Legionów 69", "city": "Gdynia", "map_link": "/godziny-otwarcia-sklepow/gdynia/gdynia-legionow-69,186617/"},
{"name": "Zabka", "opening_hours": "06:00-23:00", "address": "ul. Bohaterów Starówki Warszawskiej 3", "city": "Gdynia", "map_link": "/godziny-otwarcia-sklepow/gdynia/gdynia-bohaterow-starowki-warszawskiej-3/"},
{"name": "Zabka", "opening_hours": "06:00-23:00", "address": "ul. Oliwska 77", "city": "Chwaszczyno", "map_link": "/godziny-otwarcia-sklepow/chwaszczyno/chwaszczyno-oliwska-7/"},
{"name": "Zabka", "opening_hours": "06:00-23:00", "address": "ul. Łużycka 8A", "city": "Gdynia", "map_link": "/godziny-otwarcia-sklepow/gdynia/gdynia-luzycka-8a/"},
{"name": "Zabka", "opening_hours": "06:00-23:00", "address": "ul. Armii Krajowej 24", "city": "Żukowo", "map_link": "/godziny-otwarcia-sklepow/zukowo__23570/zukowo-armi-krajowej-24/"},
{"name": "Zabka", "opening_hours": "06:00-23:00", "address": "ul. Rdestowa 10/3A", "city": "Gdynia", "map_link": "/godziny-otwarcia-sklepow/gdynia/gdynia-rdestowa-10-3a,116300/"},
{"name": "Zabka", "opening_hours": "06:00-23:00", "address": "ul. Legionów 115A/L1", "city": "Gdynia", "map_link": "/godziny-otwarcia-sklepow/gdynia/gdynia-legionow-15a-l1/"},
{"name": "Zabka", "opening_hours": "06:00-23:00", "address": "ul. Legionów 116", "city": "Gdynia", "map_link": "/godziny-otwarcia-sklepow/gdynia/gdynia-legionow-16,166427/"},
{"name": "Zabka", "opening_hours": "06:00-23:00", "address": "ul. Paprykowa 12A", "city": "Gdynia", "map_link": "/godziny-otwarcia-sklepow/gdynia/gdynia-paprykowa-12a,126737/"},
{"name": "Zabka", "opening_hours": "06:00-23:00", "address": "ul. Legionów 92", "city": "Gdynia", "map_link": "/godziny-otwarcia-sklepow/gdynia/gdynia-legionow-92,116331/"},
{"name": "Zabka", "opening_hours": "06:00-23:00", "address": "ul. II Morskiego Pułku Strzelców 4a", "city": "Gdynia", "map_link": "/godziny-otwarcia-sklepow/gdynia/gdynia-i-morskiego-pulku-strzelcow-4a,125304/"},
{"name": "Zabka", "opening_hours": "06:00-23:00", "address": "ul. Gdyńska 50", "city": "Chwaszczyno", "map_link": "/godziny-otwarcia-sklepow/chwaszczyno/chwaszczyno-gdynska-50/"},
{"name": "Zabka", "opening_hours": "06:00-23:00", "address": "ul. Miętowa 3", "city": "Gdynia", "map_link": "/godziny-otwarcia-sklepow/gdynia/gdynia-mietowa-3,176545/"},
{"name": "Zabka", "opening_hours": "06:00-23:00", "address": "ul. Kazimierza Górskiego 1", "city": "Gdynia", "map_link": "/godziny-otwarcia-sklepow/gdynia/gdynia-kazimierza-gorskiego-1,170233/"},
{"name": "Zabka", "opening_hours": "06:00-23:00", "address": "ul. Wincentego Pola 15", "city": "Gdynia", "map_link": "/godziny-otwarcia-sklepow/gdynia/gdynia-wincentego-pola-15/"},
{"name": "Zabka", "opening_hours": "06:00-23:00", "address": "ul. Mikołaja Kopernika 15a", "city": "Gdynia", "map_link": "/godziny-otwarcia-sklepow/gdynia/gdynia-mikolaja-kopernika-15a,162764/"},
{"name": "Zabka", "opening_hours": "06:00-23:00", "address": "ul. Gdyńska 24A", "city": "Żukowo", "map_link": "/godziny-otwarcia-sklepow/zukowo__23570/zukowo-gdynska-24a,126553/"},
{"name": "Zabka", "opening_hours": "06:00-23:00", "address": "ul. Bosmańska 1", "city": "Dąbrowa", "map_link": "/godziny-otwarcia-sklepow/dabrowa__/dabrowa-bosmanska-1/"},
{"name": "Zabka", "opening_hours": "06:00-23:00", "address": "ul. Kornela Ujejskiego 29-35", "city": "Gdynia", "map_link": "/godziny-otwarcia-sklepow/gdynia/gdynia-kornela-ujejskiego-29-35/"},
{"name": "Zabka", "opening_hours": "06:00-23:00", "address": "ul. Tymiankowa 18", "city": "Gdynia", "map_link": "/godziny-otwarcia-sklepow/gdynia/gdynia-tymiankowa-18/"},
{"name": "Zabka", "opening_hours": "06:00-23:00", "address": "ul. Konwaliowa 16", "city": "Gdynia", "map_link": "/godziny-otwarcia-sklepow/gdynia/gdynia-konwaliowa-16/"},
{"name": "Zabka", "opening_hours": "06:00-23:00", "address": "ul. Hodowlana 36", "city": "Gdynia", "map_link": "/godziny-otwarcia-sklepow/gdynia/gdynia-hodowlana-36,116321/"},
{"name": "Zabka", "opening_hours": "06:00-23:00", "address": "ul. Książąt Pomorskich 2f", "city": "Żukowo", "map_link": "/godziny-otwarcia-sklepow/zukowo__23570/zukowo-ksiazat-pomorskich-2f,186614/"},
{"name": "Zabka", "opening_hours": "06:00-23:00", "address": "ul. Ignacego Krasickiego 10", "city": "Gdynia", "map_link": "/godziny-otwarcia-sklepow/gdynia/gdynia-ignacego-krasickiego-10,125743/"},
{"name": "Zabka", "opening_hours": "06:00-23:00", "address": "ul. Ignacego Krasickiego 45", "city": "Gdynia", "map_link": "/godziny-otwarcia-sklepow/gdynia/gdynia-ignacego-krasickiego-45/"},
{"name": "Zabka", "opening_hours": "06:00-23:00", "address": "ul. Narcyzowa 1", "city": "Gdynia", "map_link": "/godziny-otwarcia-sklepow/gdynia/gdynia-narcyzowa-1,176546/"},
{"name": "Zabka", "opening_hours": "06:00-23:00", "address": "ul. Wielkokacka 17", "city": "Gdynia", "map_link": "/godziny-otwarcia-sklepow/gdynia/gdynia-wielkokacka-17/"},
{"name": "Zabka", "opening_hours": "06:00-23:00", "address": "ul. Słoneczna 2", "city": "Gdynia", "map_link": "/godziny-otwarcia-sklepow/gdynia/gdynia-sloneczna-2/"},
{"name": "Zabka", "opening_hours": "06:00-23:00", "address": "al. Marsz. Piłsudskiego 32a", "city": "Gdynia", "map_link": "/godziny-otwarcia-sklepow/gdynia/gdynia-marsz-pilsudskiego-32a/"},
{"name": "Zabka", "opening_hours": "06:00-23:00", "address": "ul. Widna 7A", "city": "Gdynia", "map_link": "/godziny-otwarcia-sklepow/gdynia/gdynia-widna-7a,125899/"},
{"name": "Zabka", "opening_hours": "06:00-23:00", "address": "ul. Nauczycielska 6", "city": "Gdynia", "map_link": "/godziny-otwarcia-sklepow/gdynia/gdynia-nauczycielska-6,19854/"},
{"name": "Zabka", "opening_hours": "06:00-23:00", "address": "ul. Gdańska 31", "city": "Kartuzy", "map_link": "/godziny-otwarcia-sklepow/kartuzy/kartuzy-gdanska-31/"},
{"name": "Zabka", "opening_hours": "06:00-23:00", "address": "ul. Gdańska 62", "city": "Żukowo", "map_link": "/godziny-otwarcia-sklepow/zukowo__23570/zukowo-gdanska-62,119830/"},
{"name": "Zabka", "opening_hours": "06:00-23:00", "address": "ul. Władysława IV 32-36", "city": "Gdynia", "map_link": "/godziny-otwarcia-sklepow/gdynia/gdynia-wladyslawa-iv-32-36,116360/"},
{"name": "Zabka", "opening_hours": "06:00-23:00", "address": "ul. Władysława IV 53/1", "city": "Gdynia", "map_link": "/godziny-otwarcia-sklepow/gdynia/gdynia-wladyslawa-iv-53-1,116362/"},
{"name": "Zabka", "opening_hours": "06:00-23:00", "address": "ul. Władysława IV 46/U4", "city": "Gdynia", "map_link": "/godziny-otwarcia-sklepow/gdynia/gdynia-wladyslawa-iv-46-u4/"},
{"name": "Zabka", "opening_hours": "06:00-23:00", "address": "ul. Śląska 51b", "city": "Gdynia", "map_link": "/godziny-otwarcia-sklepow/gdynia/gdynia-slaska-51b,186380/"},
{"name": "Zabka", "opening_hours": "06:00-23:00", "address": "ul. Pomorska 21", "city": "Pszczółki", "map_link": "/godziny-otwarcia-sklepow/pszczolki/pszczolki-pomorska-21,118139/"},
{"name": "Zabka", "opening_hours": "06:00-23:00", "address": "ul. Bydgoska 5 lok. 5", "city": "Gdynia", "map_link": "/godziny-otwarcia-sklepow/gdynia/gdynia-bydgoska-5-lok-5,143884/"}
]